
Row 1: Validity 010400 to 010800
  METAR: 202506010400 METAR VABB 010400Z 20013G23KT 3000 HZ SCT018 SCT025 BKN100 30/25 Q1007 NOSIG=
    Wind Dir: 200, Gust: 23, Clouds: ['SCT018', 'SCT025', 'BKN100']
  METAR: 202506010430 METAR VABB 010430Z 20007G17KT 2000 -SHRA SCT018 FEW025TCU BKN100 30/25 Q1007 TEMPO 1500 SHRA=
    Wind Dir: 200, Gust: 17, Clouds: ['SCT018', 'FEW025TCU', 'BKN100']
  METAR: 202506010500 METAR VABB 010500Z 10003KT 3000 BR SCT018 FEW025TCU BKN100 28/24 Q1007 NOSIG=
    Wind Dir: 100, Gust: None, Clouds: ['SCT018', 'FEW025TCU', 'BKN100']
  METAR: 202506010530 METAR VABB 010530Z 25003KT 2500 BR SCT018 FEW025TCU BKN100 28/25 Q1007 NOSIG=
    Wind Dir: 250, Gust: None, Clouds: ['SCT018', 'FEW025TCU', 'BKN100']
  METAR: 202506010600 METAR VABB 010600Z 23007G17KT 2500 BR SCT018 FEW025TCU BKN100 30/25 Q1007 NOSIG=
    Wind Dir: 230, Gust: 17, Clouds: ['SCT018', 'FEW025TCU', 'BKN100']
  METAR: 202506010630 METAR VABB 010630Z 23012G22KT 3000 HZ SCT018 FEW025TCU BKN100 30/25 Q1006 NOSIG=
    Wind Dir: 230, Gust: 22, Clouds: ['SCT018', 'FEW025TCU', 'BKN100']
  METAR: 202506010700 METAR VABB 010700Z 23012G22KT 3000 HZ SCT020 SCT025 BKN100 31/25 Q1006 NOSIG=
    Wind Dir: 230, Gust: 22, Clouds: ['SCT020', 'SCT025', 'BKN100']
  METAR: 202506010730 METAR VABB 010730Z 24011G21KT 3000 HZ SCT020 SCT025 BKN100 31/25 Q1006 NOSIG=
    Wind Dir: 240, Gust: 21, Clouds: ['SCT020', 'SCT025', 'BKN100']
  METAR: 202506010800 METAR VABB 010800Z 25008G18KT 3000 HZ SCT020 SCT025 BKN100 31/24 Q1006 NOSIG=
    Wind Dir: 250, Gust: 18, Clouds: ['SCT020', 'SCT025', 'BKN100']
  METAR: 202506010900 METAR VABB 010900Z 24013G23KT 3000 HZ FEW020 SCT025 BKN100 31/24 Q1005 NOSIG=
    Wind Dir: 240, Gust: 23, Clouds: ['FEW020', 'SCT025', 'BKN100']

Row 2: Validity 010800 to 011200
  METAR: 202506010800 METAR VABB 010800Z 25008G18KT 3000 HZ SCT020 SCT025 BKN100 31/24 Q1006 NOSIG=
    Wind Dir: 250, Gust: 18, Clouds: ['SCT020', 'SCT025', 'BKN100']
  METAR: 202506010900 METAR VABB 010900Z 24013G23KT 3000 HZ FEW020 SCT025 BKN100 31/24 Q1005 NOSIG=
    Wind Dir: 240, Gust: 23, Clouds: ['FEW020', 'SCT025', 'BKN100']
  METAR: 202506010930 METAR VABB 010930Z 25011G21KT 3000 HZ FEW020 SCT025 BKN100 31/25 Q1005 NOSIG=
    Wind Dir: 250, Gust: 21, Clouds: ['FEW020', 'SCT025', 'BKN100']
  METAR: 202506011000 METAR VABB 011000Z 23015G25KT 3000 HZ FEW020 FEW025TCU SCT100 31/24 Q1005 NOSIG=
    Wind Dir: 230, Gust: 25, Clouds: ['FEW020', 'FEW025TCU', 'SCT100']
  METAR: 202506011030 METAR VABB 011030Z 24012G22KT 3500 HZ FEW020 FEW025TCU SCT100 31/25 Q1005 NOSIG=
    Wind Dir: 240, Gust: 22, Clouds: ['FEW020', 'FEW025TCU', 'SCT100']
  METAR: 202506011100 METAR VABB 011100Z 22010G20KT 4000 HZ FEW020 SCT025 31/25 Q1005 NOSIG=
    Wind Dir: 220, Gust: 20, Clouds: ['FEW020', 'SCT025']
  METAR: 202506011130 METAR VABB 011130Z 24013G23KT 4000 HZ FEW020 SCT025 30/25 Q1004 NOSIG=
    Wind Dir: 240, Gust: 23, Clouds: ['FEW020', 'SCT025']
  METAR: 202506011200 METAR VABB 011200Z 24015G25KT 4000 HZ FEW020 SCT025 30/25 Q1004 NOSIG=
    Wind Dir: 240, Gust: 25, Clouds: ['FEW020', 'SCT025']
  METAR: 202506011300 METAR VABB 011300Z 24010G20KT 4000 HZ FEW020 SCT025 30/24 Q1005 NOSIG=
    Wind Dir: 240, Gust: 20, Clouds: ['FEW020', 'SCT025']

Row 3: Validity 011200 to 011600
  METAR: 202506011200 METAR VABB 011200Z 24015G25KT 4000 HZ FEW020 SCT025 30/25 Q1004 NOSIG=
    Wind Dir: 240, Gust: 25, Clouds: ['FEW020', 'SCT025']
  METAR: 202506011300 METAR VABB 011300Z 24010G20KT 4000 HZ FEW020 SCT025 30/24 Q1005 NOSIG=
    Wind Dir: 240, Gust: 20, Clouds: ['FEW020', 'SCT025']
  METAR: 202506011330 METAR VABB 011330Z 24008G18KT 4000 HZ FEW020 SCT025 29/24 Q1005 NOSIG=
    Wind Dir: 240, Gust: 18, Clouds: ['FEW020', 'SCT025']
  METAR: 202506011400 METAR VABB 011400Z 24007G17KT 3500 HZ FEW020 SCT025 29/24 Q1005 NOSIG=
    Wind Dir: 240, Gust: 17, Clouds: ['FEW020', 'SCT025']
  METAR: 202506011430 METAR VABB 011430Z 24008KT 3500 HZ FEW020 SCT025 29/24 Q1005 NOSIG=
    Wind Dir: 240, Gust: None, Clouds: ['FEW020', 'SCT025']
  METAR: 202506011500 METAR VABB 011500Z 24005KT 3500 HZ FEW020 SCT025 29/24 Q1005 NOSIG=
    Wind Dir: 240, Gust: None, Clouds: ['FEW020', 'SCT025']
  METAR: 202506011530 METAR VABB 011530Z 24007KT 3500 HZ FEW020 SCT025 29/25 Q1005 NOSIG=
    Wind Dir: 240, Gust: None, Clouds: ['FEW020', 'SCT025']
  METAR: 202506011600 METAR VABB 011600Z 23007KT 3500 HZ FEW020 SCT025 29/24 Q1005 NOSIG=
    Wind Dir: 230, Gust: None, Clouds: ['FEW020', 'SCT025']
  METAR: 202506011630 METAR VABB 011630Z 23006KT 3500 HZ FEW020 SCT025 29/24 Q1005 NOSIG=
    Wind Dir: 230, Gust: None, Clouds: ['FEW020', 'SCT025']

Row 4: Validity 011600 to 012030
  METAR: 202506011600 METAR VABB 011600Z 23007KT 3500 HZ FEW020 SCT025 29/24 Q1005 NOSIG=
    Wind Dir: 230, Gust: None, Clouds: ['FEW020', 'SCT025']
  METAR: 202506011630 METAR VABB 011630Z 23006KT 3500 HZ FEW020 SCT025 29/24 Q1005 NOSIG=
    Wind Dir: 230, Gust: None, Clouds: ['FEW020', 'SCT025']
  METAR: 202506011700 METAR VABB 011700Z 23005KT 3500 HZ FEW020 SCT025 29/24 Q1005 NOSIG=
    Wind Dir: 230, Gust: None, Clouds: ['FEW020', 'SCT025']
  METAR: 202506011730 METAR VABB 011730Z 20005KT 3500 HZ FEW020 SCT025 29/24 Q1006 NOSIG=
    Wind Dir: 200, Gust: None, Clouds: ['FEW020', 'SCT025']
  METAR: 202506011800 METAR VABB 011800Z 21008G18KT 3500 HZ FEW020 SCT025 29/24 Q1006 NOSIG=
    Wind Dir: 210, Gust: 18, Clouds: ['FEW020', 'SCT025']
  METAR: 202506011830 METAR VABB 011830Z 20006KT 3500 HZ FEW020 SCT025 29/25 Q1005 BECMG 3000 HZ=
    Wind Dir: 200, Gust: None, Clouds: ['FEW020', 'SCT025']
  METAR: 202506011900 METAR VABB 011900Z 20006KT 3000 HZ FEW020 SCT025 29/25 Q1005 NOSIG=
    Wind Dir: 200, Gust: None, Clouds: ['FEW020', 'SCT025']
  METAR: 202506011930 METAR VABB 011930Z 22006KT 3000 HZ FEW020 SCT025 29/25 Q1005 NOSIG=
    Wind Dir: 220, Gust: None, Clouds: ['FEW020', 'SCT025']
  METAR: 202506012000 METAR VABB 012000Z 20009G19KT 3000 HZ FEW020 SCT025 29/25 Q1004 NOSIG=
    Wind Dir: 200, Gust: 19, Clouds: ['FEW020', 'SCT025']
  METAR: 202506012030 METAR VABB 012030Z 22004KT 2200 -RA SCT018 FEW025TCU BKN090 28/25 Q1004 TEMPO 1500 SHRA=
    Wind Dir: 220, Gust: None, Clouds: ['SCT018', 'FEW025TCU', 'BKN090']
  METAR: 202506012100 METAR VABB 012100Z 20005KT 2200 -RA FEW018 SCT025 BKN090 28/25 Q1004 NOSIG=
    Wind Dir: 200, Gust: None, Clouds: ['FEW018', 'SCT025', 'BKN090']

Row 5: Validity 012030 to 020030
  METAR: 202506012030 METAR VABB 012030Z 22004KT 2200 -RA SCT018 FEW025TCU BKN090 28/25 Q1004 TEMPO 1500 SHRA=
    Wind Dir: 220, Gust: None, Clouds: ['SCT018', 'FEW025TCU', 'BKN090']
  METAR: 202506012100 METAR VABB 012100Z 20005KT 2200 -RA FEW018 SCT025 BKN090 28/25 Q1004 NOSIG=
    Wind Dir: 200, Gust: None, Clouds: ['FEW018', 'SCT025', 'BKN090']
  METAR: 202506012130 METAR VABB 012130Z 21005KT 2500 HZ FEW018 SCT025 BKN090 28/25 Q1004 NOSIG=
    Wind Dir: 210, Gust: None, Clouds: ['FEW018', 'SCT025', 'BKN090']
  METAR: 202506012200 METAR VABB 012200Z 18005KT 2500 BR FEW018 SCT025 BKN090 27/25 Q1004 NOSIG=
    Wind Dir: 180, Gust: None, Clouds: ['FEW018', 'SCT025', 'BKN090']
  METAR: 202506012230 METAR VABB 012230Z 18007KT 2500 BR FEW018 SCT025 BKN090 27/25 Q1004 NOSIG=
    Wind Dir: 180, Gust: None, Clouds: ['FEW018', 'SCT025', 'BKN090']
  METAR: 202506012300 METAR VABB 012300Z 19005KT 2500 BR FEW018 SCT025 BKN090 28/25 Q1003 NOSIG=
    Wind Dir: 190, Gust: None, Clouds: ['FEW018', 'SCT025', 'BKN090']
  METAR: 202506012330 METAR VABB 012330Z 19004KT 2500 BR FEW018 SCT025 BKN090 28/25 Q1004 NOSIG=
    Wind Dir: 190, Gust: None, Clouds: ['FEW018', 'SCT025', 'BKN090']
  METAR: 202506020000 METAR VABB 020000Z 17007KT 2500 -SHRA FEW018 FEW025TCU BKN090 28/24 Q1004 TEMPO 1500 SHRA=
    Wind Dir: 170, Gust: None, Clouds: ['FEW018', 'FEW025TCU', 'BKN090']
  METAR: 202506020030 METAR VABB 020030Z 15003KT 2500 BR SCT018 FEW025TCU BKN090 27/24 Q1004 NOSIG=
    Wind Dir: 150, Gust: None, Clouds: ['SCT018', 'FEW025TCU', 'BKN090']
  METAR: 202506020100 METAR VABB 020100Z 20005KT 2500 BR FEW018 FEW025TCU BKN090 28/24 Q1005 NOSIG=
    Wind Dir: 200, Gust: None, Clouds: ['FEW018', 'FEW025TCU', 'BKN090']

Row 6: Validity 020230 to 020630
  METAR: 202506020230 METAR VABB 020230Z 18006KT 2500 BR FEW018 SCT025 BKN090 28/25 Q1005 NOSIG=
    Wind Dir: 180, Gust: None, Clouds: ['FEW018', 'SCT025', 'BKN090']
  METAR: 202506020300 METAR VABB 020300Z 20005KT 2500 BR FEW018 SCT025 BKN090 28/24 Q1005 NOSIG=
    Wind Dir: 200, Gust: None, Clouds: ['FEW018', 'SCT025', 'BKN090']
  METAR: 202506020330 METAR VABB 020330Z 19007KT 2500 BR FEW018 SCT025 BKN090 29/24 Q1005 NOSIG=
    Wind Dir: 190, Gust: None, Clouds: ['FEW018', 'SCT025', 'BKN090']
  METAR: 202506020400 METAR VABB 020400Z 20006KT 2500 BR FEW018 SCT025 BKN090 29/25 Q1006 NOSIG=
    Wind Dir: 200, Gust: None, Clouds: ['FEW018', 'SCT025', 'BKN090']
  METAR: 202506020430 METAR VABB 020430Z 20006KT 2500 BR FEW020 SCT025 BKN100 30/25 Q1006 BECMG 3000 BR=
    Wind Dir: 200, Gust: None, Clouds: ['FEW020', 'SCT025', 'BKN100']
  METAR: 202506020500 METAR VABB 020500Z 24009G19KT 3000 HZ FEW020 SCT025 BKN100 31/25 Q1006 NOSIG=
    Wind Dir: 240, Gust: 19, Clouds: ['FEW020', 'SCT025', 'BKN100']
  METAR: 202506020530 METAR COR VABB 020530Z 24014G24KT 3000 HZ FEW020 SCT025 BKN100 31/24 Q1005 NOSIG=
    Wind Dir: 240, Gust: 24, Clouds: ['FEW020', 'SCT025', 'BKN100']
  METAR: 202506020630 METAR VABB 020630Z 24009G19KT 3000 HZ FEW020 SCT025 BKN100 31/24 Q1005 NOSIG=
    Wind Dir: 240, Gust: 19, Clouds: ['FEW020', 'SCT025', 'BKN100']
  METAR: 202506020700 METAR VABB 020700Z 23012G22KT 3500 HZ FEW020 SCT025 31/25 Q1005 NOSIG=
    Wind Dir: 230, Gust: 22, Clouds: ['FEW020', 'SCT025']

Row 7: Validity 020630 to 021030
  METAR: 202506020630 METAR VABB 020630Z 24009G19KT 3000 HZ FEW020 SCT025 BKN100 31/24 Q1005 NOSIG=
    Wind Dir: 240, Gust: 19, Clouds: ['FEW020', 'SCT025', 'BKN100']
  METAR: 202506020700 METAR VABB 020700Z 23012G22KT 3500 HZ FEW020 SCT025 31/25 Q1005 NOSIG=
    Wind Dir: 230, Gust: 22, Clouds: ['FEW020', 'SCT025']
  METAR: 202506020730 METAR VABB 020730Z 24011G21KT 3500 HZ FEW020 SCT025 31/24 Q1005 NOSIG=
    Wind Dir: 240, Gust: 21, Clouds: ['FEW020', 'SCT025']
  METAR: 202506020800 METAR VABB 020800Z 25010G20KT 3500 HZ FEW020 SCT025 32/25 Q1004 NOSIG=
    Wind Dir: 250, Gust: 20, Clouds: ['FEW020', 'SCT025']
  METAR: 202506020830 METAR VABB 020830Z 24010G20KT 3500 HZ SCT020 SCT025 31/25 Q1004 NOSIG=
    Wind Dir: 240, Gust: 20, Clouds: ['SCT020', 'SCT025']
  METAR: 202506020900 METAR VABB 020900Z 25008G18KT 3500 HZ SCT020 SCT025 31/25 Q1004 NOSIG=
    Wind Dir: 250, Gust: 18, Clouds: ['SCT020', 'SCT025']
  METAR: 202506020930 METAR COR VABB 020930Z 24009G19KT 3500 HZ FEW018 FEW025TCU SCT090 31/24 Q1004 BECMG 3000 HZ=
    Wind Dir: 240, Gust: 19, Clouds: ['FEW018', 'FEW025TCU', 'SCT090']
  METAR: 202506021030 METAR VABB 021030Z 20010G24KT 3000 HZ FEW018 FEW025TCU BKN090 30/24 Q1003 TEMPO 1500 SHRA=
    Wind Dir: 200, Gust: 24, Clouds: ['FEW018', 'FEW025TCU', 'BKN090']
  METAR: 202506021130 METAR VABB 021130Z 27011KT 3000 HZ FEW018 FEW025TCU BKN090 31/25 Q1003 NOSIG=
    Wind Dir: 270, Gust: None, Clouds: ['FEW018', 'FEW025TCU', 'BKN090']

Row 8: Validity 021030 to 021430
  METAR: 202506021030 METAR VABB 021030Z 20010G24KT 3000 HZ FEW018 FEW025TCU BKN090 30/24 Q1003 TEMPO 1500 SHRA=
    Wind Dir: 200, Gust: 24, Clouds: ['FEW018', 'FEW025TCU', 'BKN090']
  METAR: 202506021130 METAR VABB 021130Z 27011KT 3000 HZ FEW018 FEW025TCU BKN090 31/25 Q1003 NOSIG=
    Wind Dir: 270, Gust: None, Clouds: ['FEW018', 'FEW025TCU', 'BKN090']
  METAR: 202506021200 METAR VABB 021200Z 25007G17KT 3000 HZ FEW018 FEW025TCU BKN090 31/25 Q1003 NOSIG=
    Wind Dir: 250, Gust: 17, Clouds: ['FEW018', 'FEW025TCU', 'BKN090']
  METAR: 202506021230 METAR VABB 021230Z 23007KT 3000 HZ FEW018 FEW025TCU BKN090 30/25 Q1003 NOSIG=
    Wind Dir: 230, Gust: None, Clouds: ['FEW018', 'FEW025TCU', 'BKN090']
  METAR: 202506021300 METAR VABB 021300Z 23013G23KT 3000 HZ FEW018 FEW025TCU BKN090 30/25 Q1004 NOSIG=
    Wind Dir: 230, Gust: 23, Clouds: ['FEW018', 'FEW025TCU', 'BKN090']
  METAR: 202506021330 METAR COR VABB 021330Z 23009G21KT 3000 HZ FEW012 SCT025 FEW025TCU 30/25 Q1004 NOSIG=
    Wind Dir: 230, Gust: 21, Clouds: ['FEW012', 'SCT025', 'FEW025TCU']
  METAR: 202506021400 METAR VABB 021400Z 23007KT 3000 HZ FEW018 SCT025 30/24 Q1004 NOSIG=
    Wind Dir: 230, Gust: None, Clouds: ['FEW018', 'SCT025']
  METAR: 202506021500 METAR VABB 021500Z 21006KT 3000 HZ FEW018 SCT025 30/25 Q1004 NOSIG=
    Wind Dir: 210, Gust: None, Clouds: ['FEW018', 'SCT025']

Row 9: Validity 021430 to 021830
  METAR: 202506021500 METAR VABB 021500Z 21006KT 3000 HZ FEW018 SCT025 30/25 Q1004 NOSIG=
    Wind Dir: 210, Gust: None, Clouds: ['FEW018', 'SCT025']
  METAR: 202506021530 METAR VABB 021530Z 22007G17KT 3000 HZ FEW020 SCT025 30/25 Q1005 NOSIG=
    Wind Dir: 220, Gust: 17, Clouds: ['FEW020', 'SCT025']
  METAR: 202506021600 METAR VABB 021600Z 22010G20KT 3000 HZ FEW020 SCT025 30/24 Q1005 NOSIG=
    Wind Dir: 220, Gust: 20, Clouds: ['FEW020', 'SCT025']
  METAR: 202506021630 METAR VABB 021630Z 23007KT 3000 HZ FEW020 SCT025 30/24 Q1005 NOSIG=
    Wind Dir: 230, Gust: None, Clouds: ['FEW020', 'SCT025']
  METAR: 202506021730 METAR VABB 021730Z 23006KT 3000 HZ FEW020 SCT025 29/24 Q1005 NOSIG=
    Wind Dir: 230, Gust: None, Clouds: ['FEW020', 'SCT025']
  METAR: 202506021800 METAR VABB 021800Z 23008G18KT 3000 HZ FEW020 SCT025 29/24 Q1005 NOSIG=
    Wind Dir: 230, Gust: 18, Clouds: ['FEW020', 'SCT025']
  METAR: 202506021930 METAR VABB 021930Z 22010G20KT 3000 HZ FEW020 SCT025 29/25 Q1005 NOSIG=
    Wind Dir: 220, Gust: 20, Clouds: ['FEW020', 'SCT025']

Row 10: Validity 022100 to 030100
  METAR: 202506022100 METAR VABB 022100Z 23004KT 2500 BR FEW018 FEW025TCU SCT100 28/25 Q1004 NOSIG=
    Wind Dir: 230, Gust: None, Clouds: ['FEW018', 'FEW025TCU', 'SCT100']
  METAR: 202506022130 METAR VABB 022130Z 23010G20KT 2500 BR FEW018 FEW025TCU SCT100 29/25 Q1004 NOSIG=
    Wind Dir: 230, Gust: 20, Clouds: ['FEW018', 'FEW025TCU', 'SCT100']
  METAR: 202506022200 METAR VABB 022200Z 23007KT 2500 BR FEW018 FEW025TCU SCT100 29/25 Q1003 NOSIG=
    Wind Dir: 230, Gust: None, Clouds: ['FEW018', 'FEW025TCU', 'SCT100']
  METAR: 202506022230 METAR VABB 022230Z 24007KT 2500 BR FEW018 FEW025TCU SCT100 29/25 Q1003 NOSIG=
    Wind Dir: 240, Gust: None, Clouds: ['FEW018', 'FEW025TCU', 'SCT100']
  METAR: 202506022300 METAR VABB 022300Z 24008G18KT 2500 BR FEW018 FEW025TCU SCT100 29/25 Q1004 NOSIG=
    Wind Dir: 240, Gust: 18, Clouds: ['FEW018', 'FEW025TCU', 'SCT100']
  METAR: 202506022330 METAR VABB 022330Z 24007KT 2500 BR FEW018 FEW025TCU SCT100 29/24 Q1004 NOSIG=
    Wind Dir: 240, Gust: None, Clouds: ['FEW018', 'FEW025TCU', 'SCT100']
  METAR: 202506030000 METAR VABB 030000Z 23008KT 2500 BR FEW020 FEW025TCU SCT100 29/25 Q1004 NOSIG=
    Wind Dir: 230, Gust: None, Clouds: ['FEW020', 'FEW025TCU', 'SCT100']
  METAR: 202506030030 METAR VABB 030030Z 23007KT 2500 BR FEW020 FEW025TCU SCT100 29/24 Q1004 NOSIG=
    Wind Dir: 230, Gust: None, Clouds: ['FEW020', 'FEW025TCU', 'SCT100']
  METAR: 202506030100 METAR VABB 030100Z 22006KT 2500 BR FEW020 FEW025TCU SCT100 29/24 Q1005 NOSIG=
    Wind Dir: 220, Gust: None, Clouds: ['FEW020', 'FEW025TCU', 'SCT100']
  METAR: 202506030130 METAR VABB 030130Z 22010G20KT 2500 BR FEW020 FEW025TCU SCT100 29/25 Q1005 BECMG 3000 BR=
    Wind Dir: 220, Gust: 20, Clouds: ['FEW020', 'FEW025TCU', 'SCT100']

Row 11: Validity 030100 to 030500
  METAR: 202506030100 METAR VABB 030100Z 22006KT 2500 BR FEW020 FEW025TCU SCT100 29/24 Q1005 NOSIG=
    Wind Dir: 220, Gust: None, Clouds: ['FEW020', 'FEW025TCU', 'SCT100']
  METAR: 202506030130 METAR VABB 030130Z 22010G20KT 2500 BR FEW020 FEW025TCU SCT100 29/25 Q1005 BECMG 3000 BR=
    Wind Dir: 220, Gust: 20, Clouds: ['FEW020', 'FEW025TCU', 'SCT100']
  METAR: 202506030200 METAR VABB 030200Z 23009G19KT 3000 BR FEW020 FEW025TCU SCT100 29/25 Q1005 NOSIG=
    Wind Dir: 230, Gust: 19, Clouds: ['FEW020', 'FEW025TCU', 'SCT100']
  METAR: 202506030230 METAR VABB 030230Z 23007KT 3000 -DZ SCT020 FEW025TCU BKN100 30/25 Q1006 TEMPO 1500 SHRA=
    Wind Dir: 230, Gust: None, Clouds: ['SCT020', 'FEW025TCU', 'BKN100']
  METAR: 202506030300 METAR VABB 030300Z 23011G21KT 3000 HZ FEW020 FEW025TCU BKN100 30/25 Q1006 NOSIG=
    Wind Dir: 230, Gust: 21, Clouds: ['FEW020', 'FEW025TCU', 'BKN100']
  METAR: 202506030330 METAR VABB 030330Z 23013G23KT 3000 VCSH FEW020 FEW025TCU BKN100 30/25 Q1006 TEMPO 1500 SHRA=
    Wind Dir: 230, Gust: 23, Clouds: ['FEW020', 'FEW025TCU', 'BKN100']
  METAR: 202506030400 METAR VABB 030400Z 22005KT 3000 HZ FEW020 FEW025TCU SCT100 29/23 Q1006 NOSIG=
    Wind Dir: 220, Gust: None, Clouds: ['FEW020', 'FEW025TCU', 'SCT100']
  METAR: 202506030430 METAR VABB 030430Z 23008KT 3000 HZ FEW020 FEW025TCU SCT100 30/25 Q1006 NOSIG=
    Wind Dir: 230, Gust: None, Clouds: ['FEW020', 'FEW025TCU', 'SCT100']
  METAR: 202506030500 METAR VABB 030500Z 24007G17KT 3000 HZ FEW020 FEW025TCU SCT100 31/25 Q1006 NOSIG=
    Wind Dir: 240, Gust: 17, Clouds: ['FEW020', 'FEW025TCU', 'SCT100']
  METAR: 202506030530 METAR VABB 030530Z 23010G20KT 3000 HZ FEW020 FEW025TCU SCT100 31/25 Q1006 NOSIG=
    Wind Dir: 230, Gust: 20, Clouds: ['FEW020', 'FEW025TCU', 'SCT100']

Row 12: Validity 030500 to 030900
  METAR: 202506030500 METAR VABB 030500Z 24007G17KT 3000 HZ FEW020 FEW025TCU SCT100 31/25 Q1006 NOSIG=
    Wind Dir: 240, Gust: 17, Clouds: ['FEW020', 'FEW025TCU', 'SCT100']
  METAR: 202506030530 METAR VABB 030530Z 23010G20KT 3000 HZ FEW020 FEW025TCU SCT100 31/25 Q1006 NOSIG=
    Wind Dir: 230, Gust: 20, Clouds: ['FEW020', 'FEW025TCU', 'SCT100']
  METAR: 202506030600 METAR VABB 030600Z 23012G22KT 3000 HZ FEW020 FEW025TCU SCT100 31/25 Q1006 NOSIG=
    Wind Dir: 230, Gust: 22, Clouds: ['FEW020', 'FEW025TCU', 'SCT100']
  METAR: 202506030630 METAR VABB 030630Z 23012G22KT 3000 HZ FEW020 FEW025TCU SCT100 31/24 Q1006 NOSIG=
    Wind Dir: 230, Gust: 22, Clouds: ['FEW020', 'FEW025TCU', 'SCT100']
  METAR: 202506030700 METAR VABB 030700Z 25010G20KT 3000 HZ FEW020 FEW025TCU SCT100 32/24 Q1006 NOSIG=
    Wind Dir: 250, Gust: 20, Clouds: ['FEW020', 'FEW025TCU', 'SCT100']
  METAR: 202506030730 METAR VABB 030730Z 23014G24KT 3000 HZ FEW020 FEW025TCU SCT100 31/25 Q1005 NOSIG=
    Wind Dir: 230, Gust: 24, Clouds: ['FEW020', 'FEW025TCU', 'SCT100']
  METAR: 202506030800 METAR VABB 030800Z 23013G23KT 3000 HZ FEW020 FEW025TCU SCT100 31/25 Q1005 NOSIG=
    Wind Dir: 230, Gust: 23, Clouds: ['FEW020', 'FEW025TCU', 'SCT100']
  METAR: 202506030830 METAR VABB 030830Z 24013G23KT 3000 HZ FEW020 FEW025TCU SCT100 31/25 Q1004 NOSIG=
    Wind Dir: 240, Gust: 23, Clouds: ['FEW020', 'FEW025TCU', 'SCT100']
  METAR: 202506030900 METAR VABB 030900Z 24013G23KT 3000 HZ SCT020 FEW025TCU SCT100 31/25 Q1004 NOSIG=
    Wind Dir: 240, Gust: 23, Clouds: ['SCT020', 'FEW025TCU', 'SCT100']
  METAR: 202506030930 METAR VABB 030930Z 24012G22KT 3000 HZ SCT020 FEW025TCU BKN100 31/25 Q1004 NOSIG=
    Wind Dir: 240, Gust: 22, Clouds: ['SCT020', 'FEW025TCU', 'BKN100']

Row 13: Validity 030900 to 031300
  METAR: 202506030900 METAR VABB 030900Z 24013G23KT 3000 HZ SCT020 FEW025TCU SCT100 31/25 Q1004 NOSIG=
    Wind Dir: 240, Gust: 23, Clouds: ['SCT020', 'FEW025TCU', 'SCT100']
  METAR: 202506030930 METAR VABB 030930Z 24012G22KT 3000 HZ SCT020 FEW025TCU BKN100 31/25 Q1004 NOSIG=
    Wind Dir: 240, Gust: 22, Clouds: ['SCT020', 'FEW025TCU', 'BKN100']
  METAR: 202506031000 METAR VABB 031000Z 28011G21KT 2500 -SHRA SCT018 FEW025TCU BKN090 30/24 Q1004 TEMPO 1500 SHRA=
    Wind Dir: 280, Gust: 21, Clouds: ['SCT018', 'FEW025TCU', 'BKN090']
  METAR: 202506031030 METAR VABB 031030Z 24010G20KT 2500 HZ SCT020 FEW025TCU BKN100 31/25 Q1003 BECMG 3000 HZ=
    Wind Dir: 240, Gust: 20, Clouds: ['SCT020', 'FEW025TCU', 'BKN100']
  METAR: 202506031100 METAR VABB 031100Z 24011G21KT 2500 -SHRA SCT018 FEW025TCU BKN090 31/25 Q1003 TEMPO 1500 SHRA=
    Wind Dir: 240, Gust: 21, Clouds: ['SCT018', 'FEW025TCU', 'BKN090']
  METAR: 202506031130 METAR VABB 031130Z 21005KT 2500 HZ SCT018 FEW025TCU BKN090 30/24 Q1003 NOSIG=
    Wind Dir: 210, Gust: None, Clouds: ['SCT018', 'FEW025TCU', 'BKN090']
  METAR: 202506031200 METAR VABB 031200Z 24007G17KT 2500 HZ SCT018 FEW025TCU BKN090 30/24 Q1004 NOSIG=
    Wind Dir: 240, Gust: 17, Clouds: ['SCT018', 'FEW025TCU', 'BKN090']
  METAR: 202506031230 METAR VABB 031230Z 24010G20KT 2500 HZ SCT018 FEW025TCU BKN090 30/25 Q1004 BECMG 3000 HZ=
    Wind Dir: 240, Gust: 20, Clouds: ['SCT018', 'FEW025TCU', 'BKN090']
  METAR: 202506031300 METAR VABB 031300Z 24011G21KT 3000 HZ SCT020 FEW025TCU BKN100 30/25 Q1004 NOSIG=
    Wind Dir: 240, Gust: 21, Clouds: ['SCT020', 'FEW025TCU', 'BKN100']
  METAR: 202506031330 METAR VABB 031330Z 23009G19KT 3000 HZ SCT020 FEW025TCU BKN100 30/25 Q1004 NOSIG=
    Wind Dir: 230, Gust: 19, Clouds: ['SCT020', 'FEW025TCU', 'BKN100']

Row 14: Validity 031300 to 031700
  METAR: 202506031300 METAR VABB 031300Z 24011G21KT 3000 HZ SCT020 FEW025TCU BKN100 30/25 Q1004 NOSIG=
    Wind Dir: 240, Gust: 21, Clouds: ['SCT020', 'FEW025TCU', 'BKN100']
  METAR: 202506031330 METAR VABB 031330Z 23009G19KT 3000 HZ SCT020 FEW025TCU BKN100 30/25 Q1004 NOSIG=
    Wind Dir: 230, Gust: 19, Clouds: ['SCT020', 'FEW025TCU', 'BKN100']
  METAR: 202506031400 METAR VABB 031400Z 23007KT 3000 HZ SCT020 FEW025TCU BKN100 30/25 Q1004 NOSIG=
    Wind Dir: 230, Gust: None, Clouds: ['SCT020', 'FEW025TCU', 'BKN100']
  METAR: 202506031430 METAR VABB 031430Z 23009G19KT 3000 HZ SCT020 FEW025TCU BKN100 30/25 Q1004 NOSIG=
    Wind Dir: 230, Gust: 19, Clouds: ['SCT020', 'FEW025TCU', 'BKN100']
  METAR: 202506031500 METAR VABB 031500Z 24010G20KT 3000 HZ SCT020 FEW025TCU BKN100 30/25 Q1005 NOSIG=
    Wind Dir: 240, Gust: 20, Clouds: ['SCT020', 'FEW025TCU', 'BKN100']
  METAR: 202506031530 METAR VABB 031530Z 25008KT 3000 -RA SCT020 FEW025TCU BKN100 28/24 Q1005 NOSIG=
    Wind Dir: 250, Gust: None, Clouds: ['SCT020', 'FEW025TCU', 'BKN100']
  METAR: 202506031600 METAR VABB 031600Z 20005G17KT 3000 HZ SCT020 FEW025TCU BKN100 28/23 Q1005 NOSIG=
    Wind Dir: 200, Gust: 17, Clouds: ['SCT020', 'FEW025TCU', 'BKN100']
  METAR: 202506031630 METAR VABB 031630Z 00000KT 3000 HZ SCT020 FEW025TCU BKN100 28/24 Q1005 NOSIG=
    Wind Dir: 0, Gust: None, Clouds: ['SCT020', 'FEW025TCU', 'BKN100']
  METAR: 202506031700 METAR VABB 031700Z 19003KT 3000 HZ SCT018 FEW030CB BKN100 29/25 Q1006 TEMPO 1500 SHRA=
    Wind Dir: 190, Gust: None, Clouds: ['SCT018', 'FEW030CB', 'BKN100']
  METAR: 202506031730 METAR VABB 031730Z 17003KT 3000 HZ SCT018 FEW030CB BKN100 29/25 Q1006 NOSIG=
    Wind Dir: 170, Gust: None, Clouds: ['SCT018', 'FEW030CB', 'BKN100']

Row 15: Validity 031730 to 032130
  METAR: 202506031730 METAR VABB 031730Z 17003KT 3000 HZ SCT018 FEW030CB BKN100 29/25 Q1006 NOSIG=
    Wind Dir: 170, Gust: None, Clouds: ['SCT018', 'FEW030CB', 'BKN100']
  METAR: 202506031800 METAR VABB 031800Z 13003KT 3000 DZ SCT018 FEW030CB BKN090 28/25 Q1005 NOSIG=
    Wind Dir: 130, Gust: None, Clouds: ['SCT018', 'FEW030CB', 'BKN090']
  METAR: 202506031830 METAR VABB 031830Z 12006KT 3000 HZ SCT018 FEW025TCU BKN090 27/24 Q1005 NOSIG=
    Wind Dir: 120, Gust: None, Clouds: ['SCT018', 'FEW025TCU', 'BKN090']
  METAR: 202506031900 METAR VABB 031900Z 07003KT 3000 HZ SCT018 FEW025TCU BKN090 27/24 Q1005 NOSIG=
    Wind Dir: 70, Gust: None, Clouds: ['SCT018', 'FEW025TCU', 'BKN090']
  METAR: 202506031930 METAR VABB 031930Z 13004KT 3000 HZ SCT018 FEW025TCU BKN090 27/24 Q1005 NOSIG=
    Wind Dir: 130, Gust: None, Clouds: ['SCT018', 'FEW025TCU', 'BKN090']
  METAR: 202506032000 METAR VABB 032000Z 14004KT 3000 HZ FEW012 SCT018 FEW025TCU BKN090 27/25 Q1005 TEMPO 1500 SHRA=
    Wind Dir: 140, Gust: None, Clouds: ['FEW012', 'SCT018', 'FEW025TCU', 'BKN090']
  METAR: 202506032030 METAR VABB 032030Z 13005KT 3000 HZ FEW012 SCT018 FEW025TCU BKN090 27/25 Q1004 NOSIG=
    Wind Dir: 130, Gust: None, Clouds: ['FEW012', 'SCT018', 'FEW025TCU', 'BKN090']
  METAR: 202506032100 METAR VABB 032100Z 13005KT 3000 HZ FEW012 SCT018 FEW025TCU BKN090 27/25 Q1004 TEMPO 1500 SHRA=
    Wind Dir: 130, Gust: None, Clouds: ['FEW012', 'SCT018', 'FEW025TCU', 'BKN090']
  METAR: 202506032130 METAR VABB 032130Z 12004KT 3000 HZ FEW012 SCT018 FEW025TCU BKN090 27/24 Q1004 NOSIG=
    Wind Dir: 120, Gust: None, Clouds: ['FEW012', 'SCT018', 'FEW025TCU', 'BKN090']
  METAR: 202506032200 METAR VABB 032200Z 14005KT 2500 BR FEW012 SCT018 FEW025TCU BKN090 26/24 Q1004 NOSIG=
    Wind Dir: 140, Gust: None, Clouds: ['FEW012', 'SCT018', 'FEW025TCU', 'BKN090']

Row 16: FCST/OBS is OBS, skipping extraction.

Row 17: FCST/OBS is OBS, skipping extraction.

Row 18: Validity 040430 to 040900
  METAR: 202506040500 METAR VABB 040500Z 13007KT 2500 VCSH SCT018 FEW030CB BKN090 28/23 Q1007 TEMPO 1500 SHRA=
    Wind Dir: 130, Gust: None, Clouds: ['SCT018', 'FEW030CB', 'BKN090']
  METAR: 202506040600 METAR VABB 040600Z 15003KT 2200 -RA FEW010 SCT018 FEW030CB BKN090 26/23 Q1007 TEMPO 1500 SHRA=
    Wind Dir: 150, Gust: None, Clouds: ['FEW010', 'SCT018', 'FEW030CB', 'BKN090']
  METAR: 202506040700 METAR VABB 040700Z 10003KT 2200 -DZ FEW012 SCT018 FEW030CB BKN090 25/23 Q1007 NOSIG=
    Wind Dir: 100, Gust: None, Clouds: ['FEW012', 'SCT018', 'FEW030CB', 'BKN090']
  METAR: 202506040730 METAR VABB 040730Z 07007KT 2200 -DZ FEW012 SCT018 FEW030CB BKN090 26/24 Q1007 NOSIG=
    Wind Dir: 70, Gust: None, Clouds: ['FEW012', 'SCT018', 'FEW030CB', 'BKN090']
  METAR: 202506040800 METAR VABB 040800Z 10003KT 2500 HZ FEW012 SCT018 FEW030CB BKN090 27/23 Q1007 NOSIG=
    Wind Dir: 100, Gust: None, Clouds: ['FEW012', 'SCT018', 'FEW030CB', 'BKN090']
  METAR: 202506040830 METAR VABB 040830Z 12011KT 2500 HZ FEW012 SCT018 FEW030CB BKN090 26/23 Q1007 NOSIG=
    Wind Dir: 120, Gust: None, Clouds: ['FEW012', 'SCT018', 'FEW030CB', 'BKN090']
  METAR: 202506040900 METAR VABB 040900Z 13010G20KT 2500 HZ FEW012 SCT018 FEW030CB BKN090 26/23 Q1007 NOSIG=
    Wind Dir: 130, Gust: 20, Clouds: ['FEW012', 'SCT018', 'FEW030CB', 'BKN090']
  METAR: 202506040930 METAR VABB 040930Z 13008KT 2500 BR FEW012 SCT018 FEW030CB BKN090 26/23 Q1007 NOSIG=
    Wind Dir: 130, Gust: None, Clouds: ['FEW012', 'SCT018', 'FEW030CB', 'BKN090']

Row 19: Validity 040900 to 041300
  METAR: 202506040900 METAR VABB 040900Z 13010G20KT 2500 HZ FEW012 SCT018 FEW030CB BKN090 26/23 Q1007 NOSIG=
    Wind Dir: 130, Gust: 20, Clouds: ['FEW012', 'SCT018', 'FEW030CB', 'BKN090']
  METAR: 202506040930 METAR VABB 040930Z 13008KT 2500 BR FEW012 SCT018 FEW030CB BKN090 26/23 Q1007 NOSIG=
    Wind Dir: 130, Gust: None, Clouds: ['FEW012', 'SCT018', 'FEW030CB', 'BKN090']
  METAR: 202506041000 METAR VABB 041000Z 13008KT 3000 BR FEW012 SCT018 FEW030CB BKN100 26/23 Q1006 NOSIG=
    Wind Dir: 130, Gust: None, Clouds: ['FEW012', 'SCT018', 'FEW030CB', 'BKN100']
  METAR: 202506041030 METAR VABB 041030Z 15007KT 3000 HZ SCT018 FEW030CB BKN100 26/22 Q1006 NOSIG=
    Wind Dir: 150, Gust: None, Clouds: ['SCT018', 'FEW030CB', 'BKN100']
  METAR: 202506041100 METAR VABB 041100Z 12006KT 3000 HZ FEW018 SCT025 BKN100 27/23 Q1006 NOSIG=
    Wind Dir: 120, Gust: None, Clouds: ['FEW018', 'SCT025', 'BKN100']
  METAR: 202506041130 METAR VABB 041130Z 14005KT 3500 HZ FEW020 SCT025 BKN100 27/22 Q1006 NOSIG=
    Wind Dir: 140, Gust: None, Clouds: ['FEW020', 'SCT025', 'BKN100']
  METAR: 202506041200 METAR VABB 041200Z 14005KT 3500 HZ FEW020 SCT025 BKN100 27/22 Q1006 NOSIG=
    Wind Dir: 140, Gust: None, Clouds: ['FEW020', 'SCT025', 'BKN100']
  METAR: 202506041230 METAR VABB 041230Z 13004KT 3000 HZ FEW020 SCT025 BKN100 27/22 Q1006 NOSIG=
    Wind Dir: 130, Gust: None, Clouds: ['FEW020', 'SCT025', 'BKN100']
  METAR: 202506041300 METAR VABB 041300Z 13005KT 3000 HZ FEW020 SCT025 BKN100 27/22 Q1006 NOSIG=
    Wind Dir: 130, Gust: None, Clouds: ['FEW020', 'SCT025', 'BKN100']
  METAR: 202506041330 METAR VABB 041330Z 13005KT 3000 HZ FEW020 SCT025 BKN100 27/22 Q1006 NOSIG=
    Wind Dir: 130, Gust: None, Clouds: ['FEW020', 'SCT025', 'BKN100']

Row 20: Validity 050900 to 051300
  METAR: 202506050900 METAR VABB 050900Z 30005KT 3000 HZ FEW020 FEW030CB BKN100 32/22 Q1008 NOSIG=
    Wind Dir: 300, Gust: None, Clouds: ['FEW020', 'FEW030CB', 'BKN100']
  METAR: 202506050930 METAR VABB 050930Z 09009KT 3000 HZ FEW020 FEW030CB BKN100 29/23 Q1008 TEMPO 1500 SHRA=
    Wind Dir: 90, Gust: None, Clouds: ['FEW020', 'FEW030CB', 'BKN100']
  METAR: 202506051000 METAR VABB 051000Z 08003KT 3000 HZ FEW020 FEW025TCU BKN100 28/23 Q1008 TEMPO 1500 SHRA=
    Wind Dir: 80, Gust: None, Clouds: ['FEW020', 'FEW025TCU', 'BKN100']
  METAR: 202506051030 METAR VABB 051030Z 06004KT 3000 HZ FEW020 FEW025TCU BKN100 28/24 Q1008 TEMPO 1500 SHRA=
    Wind Dir: 60, Gust: None, Clouds: ['FEW020', 'FEW025TCU', 'BKN100']
  METAR: 202506051100 METAR VABB 051100Z 10004KT 3000 HZ FEW020 FEW025TCU BKN100 28/24 Q1007 TEMPO 1500 SHRA=
    Wind Dir: 100, Gust: None, Clouds: ['FEW020', 'FEW025TCU', 'BKN100']
  METAR: 202506051130 METAR VABB 051130Z 00000KT 3000 HZ FEW020 FEW025TCU BKN100 29/24 Q1007 TEMPO 1500 SHRA=
    Wind Dir: 0, Gust: None, Clouds: ['FEW020', 'FEW025TCU', 'BKN100']
  METAR: 202506051200 METAR VABB 051200Z 15003KT 3000 HZ FEW020 SCT025 BKN100 29/24 Q1007 NOSIG=
    Wind Dir: 150, Gust: None, Clouds: ['FEW020', 'SCT025', 'BKN100']
  METAR: 202506051230 METAR VABB 051230Z 13006KT 3000 HZ FEW020 SCT025 BKN100 28/24 Q1007 NOSIG=
    Wind Dir: 130, Gust: None, Clouds: ['FEW020', 'SCT025', 'BKN100']
  METAR: 202506051300 METAR VABB 051300Z 14004KT 3000 HZ FEW020 SCT025 BKN100 28/24 Q1008 NOSIG=
    Wind Dir: 140, Gust: None, Clouds: ['FEW020', 'SCT025', 'BKN100']
  METAR: 202506051330 METAR VABB 051330Z 12004KT 3000 HZ FEW020 SCT025 BKN100 28/24 Q1008 NOSIG=
    Wind Dir: 120, Gust: None, Clouds: ['FEW020', 'SCT025', 'BKN100']

Row 21: Validity 060600 to 061000
  METAR: 202506060600 METAR VABB 060600Z 28009KT 2500 TSRA FEW012 SCT018 FEW030CB OVC090 27/24 Q1010 TEMPO 1500 TSRA=
    Wind Dir: 280, Gust: None, Clouds: ['FEW012', 'SCT018', 'FEW030CB', 'OVC090']
  METAR: 202506060630 METAR VABB 060630Z 27009KT 3000 HZ SCT018 FEW030CB BKN090 28/25 Q1010 NOSIG=
    Wind Dir: 270, Gust: None, Clouds: ['SCT018', 'FEW030CB', 'BKN090']
  METAR: 202506060700 METAR VABB 060700Z 27008KT 3000 HZ SCT018 FEW030CB BKN090 30/26 Q1010 TEMPO 1500 TSRA=
    Wind Dir: 270, Gust: None, Clouds: ['SCT018', 'FEW030CB', 'BKN090']
  METAR: 202506060730 METAR VABB 060730Z 27007KT 3000 HZ SCT018 FEW030CB BKN090 31/25 Q1009 TEMPO 1500 TSRA=
    Wind Dir: 270, Gust: None, Clouds: ['SCT018', 'FEW030CB', 'BKN090']
  METAR: 202506060800 METAR VABB 060800Z 29005KT 3000 HZ SCT018 FEW030CB BKN090 30/25 Q1010 TEMPO 1500 SHRA=
    Wind Dir: 290, Gust: None, Clouds: ['SCT018', 'FEW030CB', 'BKN090']
  METAR: 202506060830 METAR VABB 060830Z 30008KT 3000 HZ SCT018 FEW030CB BKN090 30/26 Q1009 NOSIG=
    Wind Dir: 300, Gust: None, Clouds: ['SCT018', 'FEW030CB', 'BKN090']
  METAR: 202506060900 METAR VABB 060900Z 27011G21KT 3000 HZ FEW018 SCT025 FEW030CB BKN100 29/25 Q1009 NOSIG=
    Wind Dir: 270, Gust: 21, Clouds: ['FEW018', 'SCT025', 'FEW030CB', 'BKN100']
  METAR: 202506060930 METAR VABB 060930Z 28008G18KT 3000 HZ FEW018 SCT025 FEW030CB BKN100 29/25 Q1008 NOSIG=
    Wind Dir: 280, Gust: 18, Clouds: ['FEW018', 'SCT025', 'FEW030CB', 'BKN100']
  METAR: 202506061000 METAR VABB 061000Z 30011KT 3500 HZ FEW018 SCT025 FEW030CB BKN100 30/24 Q1008 NOSIG=
    Wind Dir: 300, Gust: None, Clouds: ['FEW018', 'SCT025', 'FEW030CB', 'BKN100']
  METAR: 202506061030 METAR VABB 061030Z 29009KT 3500 HZ FEW018 SCT025 FEW030CB BKN100 30/24 Q1008 NOSIG=
    Wind Dir: 290, Gust: None, Clouds: ['FEW018', 'SCT025', 'FEW030CB', 'BKN100']

Row 22: Validity 061030 to 061430
  METAR: 202506061030 METAR VABB 061030Z 29009KT 3500 HZ FEW018 SCT025 FEW030CB BKN100 30/24 Q1008 NOSIG=
    Wind Dir: 290, Gust: None, Clouds: ['FEW018', 'SCT025', 'FEW030CB', 'BKN100']
  METAR: 202506061100 METAR VABB 061100Z 29009KT 4000 HZ FEW018 SCT025 FEW030CB BKN100 29/24 Q1007 NOSIG=
    Wind Dir: 290, Gust: None, Clouds: ['FEW018', 'SCT025', 'FEW030CB', 'BKN100']
  METAR: 202506061101 METAR VABB 061101Z 29009KT 4000 HZ FEW018 SCT025 FEW030CB BKN100 29/24 Q1007 NOSIG=
    Wind Dir: 290, Gust: None, Clouds: ['FEW018', 'SCT025', 'FEW030CB', 'BKN100']
  METAR: 202506061130 METAR VABB 061130Z 28008KT 4000 HZ FEW018 SCT025 FEW030CB BKN100 29/24 Q1007 NOSIG=
    Wind Dir: 280, Gust: None, Clouds: ['FEW018', 'SCT025', 'FEW030CB', 'BKN100']
  METAR: 202506061200 METAR VABB 061200Z 30007KT 4000 HZ FEW018 SCT025 FEW030CB BKN100 29/24 Q1008 NOSIG=
    Wind Dir: 300, Gust: None, Clouds: ['FEW018', 'SCT025', 'FEW030CB', 'BKN100']
  METAR: 202506061230 METAR VABB 061230Z 29008KT 4000 HZ FEW018 SCT025 FEW030CB BKN100 29/25 Q1008 NOSIG=
    Wind Dir: 290, Gust: None, Clouds: ['FEW018', 'SCT025', 'FEW030CB', 'BKN100']
  METAR: 202506061300 METAR VABB 061300Z 30008KT 4000 HZ FEW018 FEW025TCU BKN100 29/25 Q1008 NOSIG=
    Wind Dir: 300, Gust: None, Clouds: ['FEW018', 'FEW025TCU', 'BKN100']
  METAR: 202506061330 METAR VABB 061330Z 29004KT 4000 HZ FEW018 FEW025TCU BKN100 29/25 Q1008 BECMG 3000 HZ=
    Wind Dir: 290, Gust: None, Clouds: ['FEW018', 'FEW025TCU', 'BKN100']
  METAR: 202506061400 METAR VABB 061400Z 30005KT 3500 HZ FEW018 FEW025TCU BKN100 29/25 Q1008 NOSIG=
    Wind Dir: 300, Gust: None, Clouds: ['FEW018', 'FEW025TCU', 'BKN100']
  METAR: 202506061430 METAR VABB 061430Z 28003KT 3000 HZ FEW018 FEW025TCU BKN100 29/25 Q1009 NOSIG=
    Wind Dir: 280, Gust: None, Clouds: ['FEW018', 'FEW025TCU', 'BKN100']
  METAR: 202506061500 METAR VABB 061500Z VRB03KT 3000 HZ FEW020 SCT025 BKN100 30/25 Q1009 NOSIG=
    Wind Dir: None, Gust: None, Clouds: ['FEW020', 'SCT025', 'BKN100']

Row 23: FCST/OBS is NAN, skipping extraction.

Row 24: FCST/OBS is NAN, skipping extraction.

Row 25: Validity 080900 to 081300
  METAR: 202506080900 METAR VABB 080900Z 28008KT 4000 HZ FEW020 SCT025 BKN100 32/25 Q1008 NOSIG=
    Wind Dir: 280, Gust: None, Clouds: ['FEW020', 'SCT025', 'BKN100']
  METAR: 202506080930 METAR VABB 080930Z 31011KT 4000 HZ FEW020 SCT025 BKN100 31/25 Q1007 NOSIG=
    Wind Dir: 310, Gust: None, Clouds: ['FEW020', 'SCT025', 'BKN100']
  METAR: 202506081000 METAR VABB 081000Z 29009KT 4000 HZ FEW020 SCT025 BKN100 31/25 Q1007 NOSIG=
    Wind Dir: 290, Gust: None, Clouds: ['FEW020', 'SCT025', 'BKN100']
  METAR: 202506081030 METAR VABB 081030Z 29010KT 4000 HZ FEW020 SCT025 BKN100 32/25 Q1007 NOSIG=
    Wind Dir: 290, Gust: None, Clouds: ['FEW020', 'SCT025', 'BKN100']
  METAR: 202506081100 METAR VABB 081100Z 30008KT 4000 HZ FEW020 SCT025 BKN100 31/25 Q1007 NOSIG=
    Wind Dir: 300, Gust: None, Clouds: ['FEW020', 'SCT025', 'BKN100']
  METAR: 202506081130 METAR VABB 081130Z 30008KT 4000 HZ FEW020 SCT025 BKN100 31/25 Q1007 NOSIG=
    Wind Dir: 300, Gust: None, Clouds: ['FEW020', 'SCT025', 'BKN100']
  METAR: 202506081200 METAR VABB 081200Z 29011KT 4000 HZ SCT020 SCT025 BKN100 30/25 Q1007 NOSIG=
    Wind Dir: 290, Gust: None, Clouds: ['SCT020', 'SCT025', 'BKN100']
  METAR: 202506081230 METAR VABB 081230Z 30010KT 4000 HZ SCT018 SCT025 BKN100 30/25 Q1007 NOSIG=
    Wind Dir: 300, Gust: None, Clouds: ['SCT018', 'SCT025', 'BKN100']
  METAR: 202506081300 METAR VABB 081300Z 30009KT 4000 HZ SCT018 SCT025 BKN100 30/25 Q1007 NOSIG=
    Wind Dir: 300, Gust: None, Clouds: ['SCT018', 'SCT025', 'BKN100']
  METAR: 202506081330 METAR VABB 081330Z 30008KT 4000 HZ FEW020 SCT025 BKN100 30/25 Q1007 NOSIG=
    Wind Dir: 300, Gust: None, Clouds: ['FEW020', 'SCT025', 'BKN100']

Row 26: Validity 090500 to 090900
  METAR: 202506090500 METAR VABB 090500Z 31008KT 3500 HZ FEW020 SCT025 BKN100 31/24 Q1009 NOSIG=
    Wind Dir: 310, Gust: None, Clouds: ['FEW020', 'SCT025', 'BKN100']
  METAR: 202506090530 METAR VABB 090530Z 34007KT 3500 HZ FEW020 SCT025 BKN100 31/23 Q1009 NOSIG=
    Wind Dir: 340, Gust: None, Clouds: ['FEW020', 'SCT025', 'BKN100']
  METAR: 202506090600 METAR VABB 090600Z 32005KT 3500 HZ FEW020 SCT025 BKN100 32/23 Q1009 NOSIG=
    Wind Dir: 320, Gust: None, Clouds: ['FEW020', 'SCT025', 'BKN100']
  METAR: 202506090630 METAR VABB 090630Z 32009KT 4000 HZ FEW020 SCT025 BKN100 32/23 Q1009 NOSIG=
    Wind Dir: 320, Gust: None, Clouds: ['FEW020', 'SCT025', 'BKN100']
  METAR: 202506090700 METAR VABB 090700Z 30010KT 4000 HZ FEW020 SCT025 BKN100 32/23 Q1008 NOSIG=
    Wind Dir: 300, Gust: None, Clouds: ['FEW020', 'SCT025', 'BKN100']
  METAR: 202506090730 METAR VABB 090730Z 30009G19KT 4000 HZ FEW020 SCT025 BKN100 32/24 Q1008 NOSIG=
    Wind Dir: 300, Gust: 19, Clouds: ['FEW020', 'SCT025', 'BKN100']
  METAR: 202506090800 METAR VABB 090800Z 28009G19KT 4000 HZ FEW020 SCT025 BKN100 32/24 Q1008 NOSIG=
    Wind Dir: 280, Gust: 19, Clouds: ['FEW020', 'SCT025', 'BKN100']
  METAR: 202506090830 METAR VABB 090830Z 25009KT 4000 HZ FEW020 SCT025 BKN100 31/25 Q1007 NOSIG=
    Wind Dir: 250, Gust: None, Clouds: ['FEW020', 'SCT025', 'BKN100']
  METAR: 202506090900 METAR VABB 090900Z 26007G17KT 4000 HZ FEW020 SCT025 BKN100 32/25 Q1007 NOSIG=
    Wind Dir: 260, Gust: 17, Clouds: ['FEW020', 'SCT025', 'BKN100']
  METAR: 202506090930 METAR VABB 090930Z 25010G20KT 4000 HZ FEW020 SCT025 BKN100 31/26 Q1007 NOSIG=
    Wind Dir: 250, Gust: 20, Clouds: ['FEW020', 'SCT025', 'BKN100']

Row 27: Validity 090900 to 091300
  METAR: 202506090900 METAR VABB 090900Z 26007G17KT 4000 HZ FEW020 SCT025 BKN100 32/25 Q1007 NOSIG=
    Wind Dir: 260, Gust: 17, Clouds: ['FEW020', 'SCT025', 'BKN100']
  METAR: 202506090930 METAR VABB 090930Z 25010G20KT 4000 HZ FEW020 SCT025 BKN100 31/26 Q1007 NOSIG=
    Wind Dir: 250, Gust: 20, Clouds: ['FEW020', 'SCT025', 'BKN100']
  METAR: 202506091000 METAR VABB 091000Z 25010KT 4000 HZ FEW020 SCT025 BKN100 31/25 Q1006 NOSIG=
    Wind Dir: 250, Gust: None, Clouds: ['FEW020', 'SCT025', 'BKN100']
  METAR: 202506091030 METAR VABB 091030Z 29012KT 3500 VCSH FEW020 SCT025 BKN100 31/24 Q1006 NOSIG=
    Wind Dir: 290, Gust: None, Clouds: ['FEW020', 'SCT025', 'BKN100']
  METAR: 202506091100 METAR VABB 091100Z 29009KT 3500 HZ FEW020 SCT025 BKN100 30/24 Q1006 NOSIG=
    Wind Dir: 290, Gust: None, Clouds: ['FEW020', 'SCT025', 'BKN100']
  METAR: 202506091130 METAR VABB 091130Z 30010KT 3500 HZ FEW020 SCT025 BKN100 31/24 Q1006 NOSIG=
    Wind Dir: 300, Gust: None, Clouds: ['FEW020', 'SCT025', 'BKN100']
  METAR: 202506091200 METAR VABB 091200Z 32009KT 3500 HZ FEW020 SCT025 BKN100 31/24 Q1006 NOSIG=
    Wind Dir: 320, Gust: None, Clouds: ['FEW020', 'SCT025', 'BKN100']
  METAR: 202506091230 METAR VABB 091230Z 31011KT 3500 HZ FEW020 SCT025 BKN100 31/23 Q1006 NOSIG=
    Wind Dir: 310, Gust: None, Clouds: ['FEW020', 'SCT025', 'BKN100']
  METAR: 202506091300 METAR VABB 091300Z 32008KT 3500 HZ FEW020 SCT025 BKN100 31/24 Q1006 NOSIG=
    Wind Dir: 320, Gust: None, Clouds: ['FEW020', 'SCT025', 'BKN100']
  METAR: 202506091330 METAR VABB 091330Z 30010KT 3500 HZ FEW020 SCT025 BKN100 30/24 Q1006 NOSIG=
    Wind Dir: 300, Gust: None, Clouds: ['FEW020', 'SCT025', 'BKN100']

Row 28: Validity 100800 to 101200
  METAR: 202506100800 METAR VABB 100800Z 30008G18KT 4000 HZ FEW020 SCT025 31/23 Q1006 NOSIG=
    Wind Dir: 300, Gust: 18, Clouds: ['FEW020', 'SCT025']
  METAR: 202506100830 METAR VABB 100830Z 28009G19KT 4000 HZ FEW020 SCT025 32/24 Q1005 NOSIG=
    Wind Dir: 280, Gust: 19, Clouds: ['FEW020', 'SCT025']
  METAR: 202506100900 METAR VABB 100900Z 29011KT 4000 HZ FEW020 SCT025 32/24 Q1005 NOSIG=
    Wind Dir: 290, Gust: None, Clouds: ['FEW020', 'SCT025']
  METAR: 202506100930 METAR VABB 100930Z 29010KT 4000 HZ FEW020 SCT025 32/25 Q1005 NOSIG=
    Wind Dir: 290, Gust: None, Clouds: ['FEW020', 'SCT025']
  METAR: 202506101000 METAR VABB 101000Z 29008G18KT 4000 HZ FEW020 SCT025 32/24 Q1005 NOSIG=
    Wind Dir: 290, Gust: 18, Clouds: ['FEW020', 'SCT025']
  METAR: 202506101030 METAR VABB 101030Z 30006KT 4000 HZ FEW020 SCT025 32/24 Q1004 NOSIG=
    Wind Dir: 300, Gust: None, Clouds: ['FEW020', 'SCT025']
  METAR: 202506101100 METAR VABB 101100Z 28010KT 4000 HZ FEW020 SCT025 32/24 Q1004 NOSIG=
    Wind Dir: 280, Gust: None, Clouds: ['FEW020', 'SCT025']
  METAR: 202506101130 METAR VABB 101130Z 29009KT 3500 HZ FEW020 SCT025 31/24 Q1004 NOSIG=
    Wind Dir: 290, Gust: None, Clouds: ['FEW020', 'SCT025']
  METAR: 202506101200 METAR VABB 101200Z 28009KT 3500 HZ FEW020 SCT025 31/25 Q1004 NOSIG=
    Wind Dir: 280, Gust: None, Clouds: ['FEW020', 'SCT025']
  METAR: 202506101230 METAR VABB 101230Z 30008KT 3500 HZ FEW020 SCT025 30/25 Q1004 NOSIG=
    Wind Dir: 300, Gust: None, Clouds: ['FEW020', 'SCT025']

Row 29: Validity 110700 to 111130
  METAR: 202506110700 METAR VABB 110700Z 32009KT 4000 HZ FEW020 SCT025 BKN100 32/24 Q1005 NOSIG=
    Wind Dir: 320, Gust: None, Clouds: ['FEW020', 'SCT025', 'BKN100']
  METAR: 202506110730 METAR VABB 110730Z 32010KT 4000 HZ FEW020 SCT025 BKN100 32/24 Q1005 NOSIG=
    Wind Dir: 320, Gust: None, Clouds: ['FEW020', 'SCT025', 'BKN100']
  METAR: 202506110800 METAR VABB 110800Z 31011KT 4000 HZ FEW020 SCT025 BKN100 32/24 Q1004 NOSIG=
    Wind Dir: 310, Gust: None, Clouds: ['FEW020', 'SCT025', 'BKN100']
  METAR: 202506110830 METAR VABB 110830Z 32007G17KT 4000 HZ FEW020 SCT025 BKN100 32/24 Q1004 NOSIG=
    Wind Dir: 320, Gust: 17, Clouds: ['FEW020', 'SCT025', 'BKN100']
  METAR: 202506110900 METAR VABB 110900Z 30010KT 4000 HZ FEW020 SCT025 BKN100 32/24 Q1004 NOSIG=
    Wind Dir: 300, Gust: None, Clouds: ['FEW020', 'SCT025', 'BKN100']
  METAR: 202506110930 METAR VABB 110930Z 31010KT 4000 HZ FEW020 SCT025 BKN100 32/24 Q1003 NOSIG=
    Wind Dir: 310, Gust: None, Clouds: ['FEW020', 'SCT025', 'BKN100']
  METAR: 202506111000 METAR VABB 111000Z 32008KT 4000 HZ FEW020 SCT025 BKN100 32/24 Q1003 NOSIG=
    Wind Dir: 320, Gust: None, Clouds: ['FEW020', 'SCT025', 'BKN100']
  METAR: 202506111030 METAR VABB 111030Z 31010KT 4000 HZ FEW020 SCT025 BKN100 31/24 Q1003 NOSIG=
    Wind Dir: 310, Gust: None, Clouds: ['FEW020', 'SCT025', 'BKN100']
  METAR: 202506111100 METAR VABB 111100Z 31010KT 4000 HZ FEW020 SCT025 BKN100 32/25 Q1002 NOSIG=
    Wind Dir: 310, Gust: None, Clouds: ['FEW020', 'SCT025', 'BKN100']
  METAR: 202506111130 METAR VABB 111130Z 32010KT 4000 HZ FEW020 SCT025 BKN100 31/24 Q1002 NOSIG=
    Wind Dir: 320, Gust: None, Clouds: ['FEW020', 'SCT025', 'BKN100']
  METAR: 202506111200 METAR VABB 111200Z 32008KT 4000 HZ FEW020 SCT025 BKN100 31/24 Q1002 NOSIG=
    Wind Dir: 320, Gust: None, Clouds: ['FEW020', 'SCT025', 'BKN100']

Row 30: Validity 112000 to 120030
  METAR: 202506112000 METAR VABB 112000Z 32004KT 3000 TS SCT018 FEW030CB BKN090 30/25 Q1003 TEMPO 1500 TSRA=
    Wind Dir: 320, Gust: None, Clouds: ['SCT018', 'FEW030CB', 'BKN090']
  METAR: 202506112030 METAR VABB 112030Z 29006KT 3000 TS SCT018 FEW030CB BKN090 30/26 Q1003 TEMPO 1500 TSRA=
    Wind Dir: 290, Gust: None, Clouds: ['SCT018', 'FEW030CB', 'BKN090']
  METAR: 202506112100 METAR VABB 112100Z 30011KT 3000 -TSRA SCT018 FEW030CB BKN090 29/26 Q1002 NOSIG=
    Wind Dir: 300, Gust: None, Clouds: ['SCT018', 'FEW030CB', 'BKN090']
  METAR: 202506112130 METAR VABB 112130Z 34004KT 3000 TS SCT018 FEW030CB BKN090 29/25 Q1001 NOSIG=
    Wind Dir: 340, Gust: None, Clouds: ['SCT018', 'FEW030CB', 'BKN090']
  METAR: 202506112200 METAR VABB 112200Z 31005KT 3000 HZ SCT018 FEW030CB BKN090 28/24 Q1001 NOSIG=
    Wind Dir: 310, Gust: None, Clouds: ['SCT018', 'FEW030CB', 'BKN090']
  METAR: 202506112230 METAR VABB 112230Z 00000KT 3000 HZ SCT018 FEW025TCU BKN090 28/25 Q1001 NOSIG=
    Wind Dir: 0, Gust: None, Clouds: ['SCT018', 'FEW025TCU', 'BKN090']
  METAR: 202506112300 METAR VABB 112300Z 32006KT 3000 HZ SCT018 FEW025TCU BKN090 29/26 Q1002 NOSIG=
    Wind Dir: 320, Gust: None, Clouds: ['SCT018', 'FEW025TCU', 'BKN090']
  METAR: 202506112330 METAR VABB 112330Z 31005KT 3000 HZ SCT018 FEW025TCU BKN090 29/25 Q1002 NOSIG=
    Wind Dir: 310, Gust: None, Clouds: ['SCT018', 'FEW025TCU', 'BKN090']
  METAR: 202506120000 METAR VABB 120000Z 32003KT 3000 HZ SCT018 FEW025TCU BKN090 29/26 Q1002 NOSIG=
    Wind Dir: 320, Gust: None, Clouds: ['SCT018', 'FEW025TCU', 'BKN090']
  METAR: 202506120030 METAR VABB 120030Z 32006KT 3000 -RA SCT018 FEW025TCU BKN090 29/26 Q1002 NOSIG=
    Wind Dir: 320, Gust: None, Clouds: ['SCT018', 'FEW025TCU', 'BKN090']
  METAR: 202506120100 METAR VABB 120100Z 34007KT 3000 HZ SCT018 SCT025 BKN100 29/25 Q1002 NOSIG=
    Wind Dir: 340, Gust: None, Clouds: ['SCT018', 'SCT025', 'BKN100']

Row 31: Validity 120530 to 120930
  METAR: 202506120530 METAR VABB 120530Z 34007G17KT 3000 HZ FEW018 SCT025 BKN090 31/25 Q1004 NOSIG=
    Wind Dir: 340, Gust: 17, Clouds: ['FEW018', 'SCT025', 'BKN090']
  METAR: 202506120600 METAR VABB 120600Z 33010G20KT 3000 HZ FEW018 SCT025 BKN090 31/24 Q1004 NOSIG=
    Wind Dir: 330, Gust: 20, Clouds: ['FEW018', 'SCT025', 'BKN090']
  METAR: 202506120630 METAR VABB 120630Z 34009KT 3000 HZ FEW018 SCT025 BKN090 32/25 Q1003 NOSIG=
    Wind Dir: 340, Gust: None, Clouds: ['FEW018', 'SCT025', 'BKN090']
  METAR: 202506120700 METAR VABB 120700Z 33009G19KT 3000 HZ FEW020 SCT025 BKN100 33/24 Q1003 NOSIG=
    Wind Dir: 330, Gust: 19, Clouds: ['FEW020', 'SCT025', 'BKN100']
  METAR: 202506120730 METAR VABB 120730Z 34008KT 3000 HZ FEW020 SCT025 BKN100 33/24 Q1002 NOSIG=
    Wind Dir: 340, Gust: None, Clouds: ['FEW020', 'SCT025', 'BKN100']
  METAR: 202506120800 METAR VABB 120800Z 33011G21KT 3000 FU FEW020 SCT025 BKN100 33/23 Q1002 NOSIG=
    Wind Dir: 330, Gust: 21, Clouds: ['FEW020', 'SCT025', 'BKN100']
  METAR: 202506120830 METAR VABB 120830Z 32010KT 3000 HZ FEW020 SCT025 BKN100 33/25 Q1001 NOSIG=
    Wind Dir: 320, Gust: None, Clouds: ['FEW020', 'SCT025', 'BKN100']
  METAR: 202506120900 METAR VABB 120900Z 32008G18KT 3500 HZ FEW020 SCT025 BKN100 33/25 Q1001 BECMG 4000 HZ=
    Wind Dir: 320, Gust: 18, Clouds: ['FEW020', 'SCT025', 'BKN100']
  METAR: 202506120930 METAR VABB 120930Z 30008G18KT 4000 HZ FEW020 FEW025TCU BKN100 33/26 Q1001 NOSIG=
    Wind Dir: 300, Gust: 18, Clouds: ['FEW020', 'FEW025TCU', 'BKN100']
  METAR: 202506121000 METAR VABB 121000Z 32009G19KT 4000 HZ FEW020 FEW030CB BKN100 33/25 Q1001 NOSIG=
    Wind Dir: 320, Gust: 19, Clouds: ['FEW020', 'FEW030CB', 'BKN100']

Row 32: Validity 120930 to 121330
  METAR: 202506120930 METAR VABB 120930Z 30008G18KT 4000 HZ FEW020 FEW025TCU BKN100 33/26 Q1001 NOSIG=
    Wind Dir: 300, Gust: 18, Clouds: ['FEW020', 'FEW025TCU', 'BKN100']
  METAR: 202506121000 METAR VABB 121000Z 32009G19KT 4000 HZ FEW020 FEW030CB BKN100 33/25 Q1001 NOSIG=
    Wind Dir: 320, Gust: 19, Clouds: ['FEW020', 'FEW030CB', 'BKN100']
  METAR: 202506121030 METAR VABB 121030Z 33009KT 4000 HZ FEW020 FEW030CB BKN100 32/24 Q1000 NOSIG=
    Wind Dir: 330, Gust: None, Clouds: ['FEW020', 'FEW030CB', 'BKN100']
  METAR: 202506121100 METAR VABB 121100Z 32010KT 4000 HZ FEW020 SCT025 BKN100 31/25 Q1000 NOSIG=
    Wind Dir: 320, Gust: None, Clouds: ['FEW020', 'SCT025', 'BKN100']
  METAR: 202506121130 METAR VABB 121130Z 32009KT 4000 HZ FEW020 SCT025 BKN100 31/24 Q1000 NOSIG=
    Wind Dir: 320, Gust: None, Clouds: ['FEW020', 'SCT025', 'BKN100']
  METAR: 202506121200 METAR VABB 121200Z 30010KT 4000 HZ FEW020 FEW025TCU BKN100 31/25 Q1000 NOSIG=
    Wind Dir: 300, Gust: None, Clouds: ['FEW020', 'FEW025TCU', 'BKN100']
  METAR: 202506121230 METAR VABB 121230Z 30011KT 4000 HZ FEW020 FEW025TCU BKN100 31/24 Q1000 NOSIG=
    Wind Dir: 300, Gust: None, Clouds: ['FEW020', 'FEW025TCU', 'BKN100']
  METAR: 202506121300 METAR VABB 121300Z 31009KT 4000 HZ FEW020 SCT025 BKN100 31/24 Q1000 NOSIG=
    Wind Dir: 310, Gust: None, Clouds: ['FEW020', 'SCT025', 'BKN100']
  METAR: 202506121330 METAR VABB 121330Z 31008KT 4000 HZ FEW020 SCT025 BKN100 30/25 Q1000 NOSIG=
    Wind Dir: 310, Gust: None, Clouds: ['FEW020', 'SCT025', 'BKN100']
  METAR: 202506121400 METAR VABB 121400Z 31007KT 3500 HZ FEW020 SCT025 BKN100 30/25 Q1001 NOSIG=
    Wind Dir: 310, Gust: None, Clouds: ['FEW020', 'SCT025', 'BKN100']

Row 33: Validity 121800 to 122200
  METAR: 202506121800 METAR VABB 121800Z 33003KT 2100 -TSRA SCT020 FEW030CB BKN090 30/25 Q1003 TEMPO 1500 TSRA=
    Wind Dir: 330, Gust: None, Clouds: ['SCT020', 'FEW030CB', 'BKN090']
  METAR: 202506121830 METAR VABB 121830Z 14005KT 2100 TS SCT020 FEW030CB BKN090 29/26 Q1003 TEMPO 1500 TSRA=
    Wind Dir: 140, Gust: None, Clouds: ['SCT020', 'FEW030CB', 'BKN090']
  METAR: 202506121900 METAR VABB 121900Z 13008KT 1200 R27/1500 TSRA SCT020 FEW030CB BKN090 26/24 Q1003 TEMPO 0800 +TSRA=
    Wind Dir: 130, Gust: None, Clouds: ['SCT020', 'FEW030CB', 'BKN090']
  METAR: 202506121930 METAR VABB 121930Z 00000KT 2100 -TSRA SCT020 FEW030CB BKN090 26/24 Q1002 NOSIG=
    Wind Dir: 0, Gust: None, Clouds: ['SCT020', 'FEW030CB', 'BKN090']
  METAR: 202506122000 METAR VABB 122000Z 12009KT 2100 -TSRA SCT020 FEW030CB BKN090 26/23 Q1002 NOSIG=
    Wind Dir: 120, Gust: None, Clouds: ['SCT020', 'FEW030CB', 'BKN090']
  METAR: 202506122030 METAR VABB 122030Z 07007KT 2100 TS SCT020 FEW030CB BKN100 26/23 Q1001 NOSIG=
    Wind Dir: 70, Gust: None, Clouds: ['SCT020', 'FEW030CB', 'BKN100']
  METAR: 202506122100 METAR VABB 122100Z 05003KT 2100 TS SCT020 FEW030CB BKN100 26/23 Q1002 NOSIG=
    Wind Dir: 50, Gust: None, Clouds: ['SCT020', 'FEW030CB', 'BKN100']
  METAR: 202506122130 METAR VABB 122130Z 32005KT 2100 TS SCT020 FEW030CB BKN100 26/23 Q1001 NOSIG=
    Wind Dir: 320, Gust: None, Clouds: ['SCT020', 'FEW030CB', 'BKN100']
  METAR: 202506122200 METAR VABB 122200Z 35004KT 2100 TS SCT018 FEW030CB BKN100 26/23 Q1001 NOSIG=
    Wind Dir: 350, Gust: None, Clouds: ['SCT018', 'FEW030CB', 'BKN100']
  METAR: 202506122230 METAR VABB 122230Z 32004KT 2100 TS SCT018 FEW030CB BKN100 26/23 Q1001 NOSIG=
    Wind Dir: 320, Gust: None, Clouds: ['SCT018', 'FEW030CB', 'BKN100']

Row 34: Validity 122200 to 130200
  METAR: 202506122200 METAR VABB 122200Z 35004KT 2100 TS SCT018 FEW030CB BKN100 26/23 Q1001 NOSIG=
    Wind Dir: 350, Gust: None, Clouds: ['SCT018', 'FEW030CB', 'BKN100']
  METAR: 202506122230 METAR VABB 122230Z 32004KT 2100 TS SCT018 FEW030CB BKN100 26/23 Q1001 NOSIG=
    Wind Dir: 320, Gust: None, Clouds: ['SCT018', 'FEW030CB', 'BKN100']
  METAR: 202506122300 METAR VABB 122300Z 00000KT 2100 HZ SCT018 FEW030CB BKN100 26/23 Q1001 NOSIG=
    Wind Dir: 0, Gust: None, Clouds: ['SCT018', 'FEW030CB', 'BKN100']
  METAR: 202506122330 METAR VABB 122330Z 33003KT 2100 HZ SCT018 FEW025TCU BKN100 26/24 Q1002 NOSIG=
    Wind Dir: 330, Gust: None, Clouds: ['SCT018', 'FEW025TCU', 'BKN100']
  METAR: 202506130000 METAR VABB 130000Z 35003KT 2100 HZ SCT018 FEW025TCU BKN100 26/24 Q1002 NOSIG=
    Wind Dir: 350, Gust: None, Clouds: ['SCT018', 'FEW025TCU', 'BKN100']
  METAR: 202506130030 METAR VABB 130030Z 35003KT 2100 HZ SCT018 FEW025TCU BKN100 27/24 Q1002 NOSIG=
    Wind Dir: 350, Gust: None, Clouds: ['SCT018', 'FEW025TCU', 'BKN100']
  METAR: 202506130100 METAR VABB 130100Z 05005KT 2500 HZ SCT018 FEW025TCU BKN100 27/24 Q1002 NOSIG=
    Wind Dir: 50, Gust: None, Clouds: ['SCT018', 'FEW025TCU', 'BKN100']
  METAR: 202506130130 METAR VABB 130130Z 04005KT 2500 HZ SCT018 FEW025TCU BKN100 26/24 Q1002 NOSIG=
    Wind Dir: 40, Gust: None, Clouds: ['SCT018', 'FEW025TCU', 'BKN100']
  METAR: 202506130200 METAR VABB 130200Z 05003KT 2500 -RA SCT018 FEW025TCU BKN100 26/23 Q1003 TEMPO 1500 SHRA=
    Wind Dir: 50, Gust: None, Clouds: ['SCT018', 'FEW025TCU', 'BKN100']
  METAR: 202506130230 METAR VABB 130230Z 07004KT 2500 -RA SCT018 FEW025TCU BKN100 27/23 Q1003 TEMPO 1500 SHRA=
    Wind Dir: 70, Gust: None, Clouds: ['SCT018', 'FEW025TCU', 'BKN100']

Row 35: Validity 130330 to 130730
  METAR: 202506130330 METAR VABB 130330Z 12005KT 2500 HZ SCT018 FEW025TCU BKN100 26/23 Q1003 NOSIG=
    Wind Dir: 120, Gust: None, Clouds: ['SCT018', 'FEW025TCU', 'BKN100']
  METAR: 202506130400 METAR VABB 130400Z 10003KT 2500 HZ SCT018 FEW025TCU BKN100 26/24 Q1003 NOSIG=
    Wind Dir: 100, Gust: None, Clouds: ['SCT018', 'FEW025TCU', 'BKN100']
  METAR: 202506130430 METAR VABB 130430Z 00000KT 2500 BR SCT018 FEW025TCU BKN100 27/24 Q1003 NOSIG=
    Wind Dir: 0, Gust: None, Clouds: ['SCT018', 'FEW025TCU', 'BKN100']
  METAR: 202506130500 METAR VABB 130500Z 07003KT 2500 BR SCT018 FEW025TCU BKN100 28/24 Q1003 NOSIG=
    Wind Dir: 70, Gust: None, Clouds: ['SCT018', 'FEW025TCU', 'BKN100']
  METAR: 202506130530 METAR VABB 130530Z 00000KT 2500 BR SCT018 FEW025TCU BKN100 29/25 Q1003 NOSIG=
    Wind Dir: 0, Gust: None, Clouds: ['SCT018', 'FEW025TCU', 'BKN100']
  METAR: 202506130600 METAR VABB 130600Z 34005KT 2500 HZ SCT018 FEW025TCU BKN100 29/24 Q1003 NOSIG=
    Wind Dir: 340, Gust: None, Clouds: ['SCT018', 'FEW025TCU', 'BKN100']
  METAR: 202506130630 METAR VABB 130630Z 01004KT 2500 HZ SCT018 FEW025TCU BKN100 29/24 Q1003 NOSIG=
    Wind Dir: 10, Gust: None, Clouds: ['SCT018', 'FEW025TCU', 'BKN100']
  METAR: 202506130700 METAR VABB 130700Z 32006KT 2500 HZ SCT018 SCT025 BKN100 29/24 Q1002 BECMG 3000 HZ=
    Wind Dir: 320, Gust: None, Clouds: ['SCT018', 'SCT025', 'BKN100']
  METAR: 202506130730 METAR VABB 130730Z 00000KT 3000 HZ SCT018 SCT025 BKN100 29/25 Q1002 NOSIG=
    Wind Dir: 0, Gust: None, Clouds: ['SCT018', 'SCT025', 'BKN100']
  METAR: 202506130800 METAR VABB 130800Z 00000KT 3000 HZ SCT018 SCT025 BKN100 30/25 Q1002 NOSIG=
    Wind Dir: 0, Gust: None, Clouds: ['SCT018', 'SCT025', 'BKN100']

Row 36: Validity 131300 to 131700
  METAR: 202506131300 METAR VABB 131300Z 34008KT 3000 BR SCT012 SCT018 FEW030CB BKN090 30/26 Q1000 TEMPO 1500 SHRA=
    Wind Dir: 340, Gust: None, Clouds: ['SCT012', 'SCT018', 'FEW030CB', 'BKN090']
  METAR: 202506131330 METAR VABB 131330Z 35007KT 3000 BR SCT012 SCT018 FEW030CB BKN090 30/25 Q1000 TEMPO 1500 SHRA=
    Wind Dir: 350, Gust: None, Clouds: ['SCT012', 'SCT018', 'FEW030CB', 'BKN090']
  METAR: 202506131400 METAR VABB 131400Z 33006KT 3000 BR SCT012 SCT018 FEW030CB BKN090 29/26 Q1000 TEMPO 1500 SHRA=
    Wind Dir: 330, Gust: None, Clouds: ['SCT012', 'SCT018', 'FEW030CB', 'BKN090']
  METAR: 202506131430 METAR VABB 131430Z 33006KT 3000 HZ SCT012 SCT018 FEW030CB BKN090 30/25 Q1001 NOSIG=
    Wind Dir: 330, Gust: None, Clouds: ['SCT012', 'SCT018', 'FEW030CB', 'BKN090']
  METAR: 202506131500 METAR VABB 131500Z 32006KT 3000 HZ SCT012 SCT018 FEW030CB BKN090 30/25 Q1001 NOSIG=
    Wind Dir: 320, Gust: None, Clouds: ['SCT012', 'SCT018', 'FEW030CB', 'BKN090']
  METAR: 202506131530 METAR VABB 131530Z 33004KT 2500 TS SCT012 SCT018 FEW030CB BKN090 30/25 Q1001 TEMPO 1500 TSRA=
    Wind Dir: 330, Gust: None, Clouds: ['SCT012', 'SCT018', 'FEW030CB', 'BKN090']
  METAR: 202506131600 METAR VABB 131600Z 01005KT 2500 TS SCT018 FEW030CB BKN090 30/25 Q1001 NOSIG=
    Wind Dir: 10, Gust: None, Clouds: ['SCT018', 'FEW030CB', 'BKN090']
  METAR: 202506131630 METAR VABB 131630Z 35004KT 2500 TS SCT018 FEW030CB BKN090 30/25 Q1001 TEMPO 1500 TSRA=
    Wind Dir: 350, Gust: None, Clouds: ['SCT018', 'FEW030CB', 'BKN090']
  METAR: 202506131700 METAR VABB 131700Z 35003KT 2500 TS SCT018 FEW030CB BKN090 29/25 Q1002 TEMPO 1500 TSRA=
    Wind Dir: 350, Gust: None, Clouds: ['SCT018', 'FEW030CB', 'BKN090']
  METAR: 202506131730 METAR VABB 131730Z 35004KT 2500 TS SCT018 FEW030CB BKN090 29/25 Q1002 TEMPO 1500 TSRA=
    Wind Dir: 350, Gust: None, Clouds: ['SCT018', 'FEW030CB', 'BKN090']

Row 37: Validity 131700 to 132100
  METAR: 202506131700 METAR VABB 131700Z 35003KT 2500 TS SCT018 FEW030CB BKN090 29/25 Q1002 TEMPO 1500 TSRA=
    Wind Dir: 350, Gust: None, Clouds: ['SCT018', 'FEW030CB', 'BKN090']
  METAR: 202506131730 METAR VABB 131730Z 35004KT 2500 TS SCT018 FEW030CB BKN090 29/25 Q1002 TEMPO 1500 TSRA=
    Wind Dir: 350, Gust: None, Clouds: ['SCT018', 'FEW030CB', 'BKN090']
  METAR: 202506131800 METAR VABB 131800Z 00000KT 2500 -TSRA FEW012 SCT018 FEW030CB BKN090 29/25 Q1002 TEMPO 1500 TSRA=
    Wind Dir: 0, Gust: None, Clouds: ['FEW012', 'SCT018', 'FEW030CB', 'BKN090']
  METAR: 202506131830 METAR VABB 131830Z 28003KT 2500 -TSRA FEW012 SCT018 FEW030CB BKN090 29/26 Q1002 TEMPO 1500 TSRA=
    Wind Dir: 280, Gust: None, Clouds: ['FEW012', 'SCT018', 'FEW030CB', 'BKN090']
  METAR: 202506131900 METAR VABB 131900Z 00000KT 2500 -RA FEW012 SCT018 FEW030CB BKN090 29/26 Q1002 TEMPO 1500 TSRA=
    Wind Dir: 0, Gust: None, Clouds: ['FEW012', 'SCT018', 'FEW030CB', 'BKN090']
  METAR: 202506131930 METAR VABB 131930Z 00000KT 2100 -RA FEW012 SCT018 FEW030CB BKN090 28/26 Q1001 TEMPO 1500 TSRA=
    Wind Dir: 0, Gust: None, Clouds: ['FEW012', 'SCT018', 'FEW030CB', 'BKN090']
  METAR: 202506132000 METAR VABB 132000Z 16004KT 2100 TSRA FEW012 SCT018 FEW030CB BKN090 28/26 Q1001 TEMPO 1500 TSRA=
    Wind Dir: 160, Gust: None, Clouds: ['FEW012', 'SCT018', 'FEW030CB', 'BKN090']
  METAR: 202506132030 METAR VABB 132030Z 21003KT 2100 -TSRA FEW012 SCT018 FEW030CB BKN090 28/26 Q1001 TEMPO 1500 TSRA=
    Wind Dir: 210, Gust: None, Clouds: ['FEW012', 'SCT018', 'FEW030CB', 'BKN090']
  METAR: 202506132100 METAR VABB 132100Z 22003KT 2500 TS FEW012 SCT018 FEW030CB BKN090 27/25 Q1001 NOSIG=
    Wind Dir: 220, Gust: None, Clouds: ['FEW012', 'SCT018', 'FEW030CB', 'BKN090']
  METAR: 202506132130 METAR VABB 132130Z 21003KT 2500 TS FEW012 SCT018 FEW030CB BKN090 27/25 Q1000 TEMPO 1500 TSRA=
    Wind Dir: 210, Gust: None, Clouds: ['FEW012', 'SCT018', 'FEW030CB', 'BKN090']

Row 38: Validity 132100 to 140100
  METAR: 202506132100 METAR VABB 132100Z 22003KT 2500 TS FEW012 SCT018 FEW030CB BKN090 27/25 Q1001 NOSIG=
    Wind Dir: 220, Gust: None, Clouds: ['FEW012', 'SCT018', 'FEW030CB', 'BKN090']
  METAR: 202506132130 METAR VABB 132130Z 21003KT 2500 TS FEW012 SCT018 FEW030CB BKN090 27/25 Q1000 TEMPO 1500 TSRA=
    Wind Dir: 210, Gust: None, Clouds: ['FEW012', 'SCT018', 'FEW030CB', 'BKN090']
  METAR: 202506132200 METAR VABB 132200Z 22003KT 2500 TS FEW012 SCT018 FEW030CB BKN090 27/26 Q1000 TEMPO 1500 TSRA=
    Wind Dir: 220, Gust: None, Clouds: ['FEW012', 'SCT018', 'FEW030CB', 'BKN090']
  METAR: 202506132230 METAR VABB 132230Z 00000KT 2500 TS FEW012 SCT018 FEW030CB BKN090 28/26 Q1000 TEMPO 1500 TSRA=
    Wind Dir: 0, Gust: None, Clouds: ['FEW012', 'SCT018', 'FEW030CB', 'BKN090']
  METAR: 202506132300 METAR VABB 132300Z 00000KT 2500 -TSRA FEW012 SCT018 FEW030CB OVC090 28/26 Q1000 TEMPO 1500 TSRA=
    Wind Dir: 0, Gust: None, Clouds: ['FEW012', 'SCT018', 'FEW030CB', 'OVC090']
  METAR: 202506132330 METAR VABB 132330Z 00000KT 2500 TS FEW012 SCT018 FEW030CB OVC090 28/26 Q1000 TEMPO 1500 TSRA=
    Wind Dir: 0, Gust: None, Clouds: ['FEW012', 'SCT018', 'FEW030CB', 'OVC090']
  METAR: 202506140000 METAR VABB 140000Z 14004KT 2500 TS FEW012 SCT018 FEW030CB OVC090 27/26 Q1000 TEMPO 1500 TSRA=
    Wind Dir: 140, Gust: None, Clouds: ['FEW012', 'SCT018', 'FEW030CB', 'OVC090']
  METAR: 202506140030 METAR VABB 140030Z 12003KT 2500 TS FEW012 SCT018 FEW030CB OVC090 27/25 Q1000 TEMPO 1500 TSRA=
    Wind Dir: 120, Gust: None, Clouds: ['FEW012', 'SCT018', 'FEW030CB', 'OVC090']
  METAR: 202506140100 METAR VABB 140100Z 15003KT 2500 BR FEW012 SCT018 FEW030CB OVC090 27/25 Q1000 NOSIG=
    Wind Dir: 150, Gust: None, Clouds: ['FEW012', 'SCT018', 'FEW030CB', 'OVC090']
  METAR: 202506140130 METAR COR VABB 140130Z 00000KT 2500 BR FEW012 SCT018 FEW025TCU BKN090 28/26 Q1001 NOSIG=
    Wind Dir: 0, Gust: None, Clouds: ['FEW012', 'SCT018', 'FEW025TCU', 'BKN090']

Row 39: Validity 141230 to 141700
  METAR: 202506141230 METAR VABB 141230Z 29011KT 3500 HZ FEW020 FEW030CB BKN100 31/26 Q0997 NOSIG=
    Wind Dir: 290, Gust: None, Clouds: ['FEW020', 'FEW030CB', 'BKN100']
  METAR: 202506141300 METAR VABB 141300Z 29011KT 3000 HZ FEW012 FEW018 FEW030CB BKN100 30/26 Q0998 NOSIG=
    Wind Dir: 290, Gust: None, Clouds: ['FEW012', 'FEW018', 'FEW030CB', 'BKN100']
  METAR: 202506141330 METAR VABB 141330Z 30011KT 3000 -RA FEW012 FEW018 FEW030CB BKN100 30/26 Q0998 TEMPO 1500 TSRA=
    Wind Dir: 300, Gust: None, Clouds: ['FEW012', 'FEW018', 'FEW030CB', 'BKN100']
  METAR: 202506141400 METAR VABB 141400Z 31007KT 3000 -TSRA FEW012 FEW018 FEW030CB BKN100 30/26 Q0999 TEMPO 1500 TSRA=
    Wind Dir: 310, Gust: None, Clouds: ['FEW012', 'FEW018', 'FEW030CB', 'BKN100']
  METAR: 202506141430 METAR VABB 141430Z 32008KT 3000 -TSRA FEW012 FEW018 FEW030CB BKN100 30/26 Q0999 TEMPO 1500 TSRA=
    Wind Dir: 320, Gust: None, Clouds: ['FEW012', 'FEW018', 'FEW030CB', 'BKN100']
  METAR: 202506141500 METAR VABB 141500Z 36006KT 1800 -TSRA FEW012 SCT018 FEW030CB BKN090 28/26 Q0999 TEMPO 1500 TSRA=
    Wind Dir: 360, Gust: None, Clouds: ['FEW012', 'SCT018', 'FEW030CB', 'BKN090']
  METAR: 202506141530 METAR VABB 141530Z 01005KT 2200 -TSRA FEW012 SCT018 FEW030CB BKN090 28/26 Q1000 TEMPO 1500 TSRA=
    Wind Dir: 10, Gust: None, Clouds: ['FEW012', 'SCT018', 'FEW030CB', 'BKN090']
  METAR: 202506141600 METAR VABB 141600Z 32005KT 2200 TS FEW012 SCT018 FEW030CB BKN090 28/25 Q1000 TEMPO 1500 TSRA=
    Wind Dir: 320, Gust: None, Clouds: ['FEW012', 'SCT018', 'FEW030CB', 'BKN090']
  METAR: 202506141630 METAR VABB 141630Z 05004KT 2200 TS FEW012 SCT018 FEW030CB BKN090 28/25 Q1000 TEMPO 1500 TSRA=
    Wind Dir: 50, Gust: None, Clouds: ['FEW012', 'SCT018', 'FEW030CB', 'BKN090']
  METAR: 202506141700 METAR VABB 141700Z 11003KT 2200 -TSRA FEW012 SCT018 FEW030CB BKN090 27/25 Q1000 TEMPO 1500 TSRA=
    Wind Dir: 110, Gust: None, Clouds: ['FEW012', 'SCT018', 'FEW030CB', 'BKN090']
  METAR: 202506141730 METAR VABB 141730Z 00000KT 2200 -TSRA FEW012 SCT018 FEW030CB BKN090 27/25 Q1000 TEMPO 1500 TSRA=
    Wind Dir: 0, Gust: None, Clouds: ['FEW012', 'SCT018', 'FEW030CB', 'BKN090']

Row 40: Validity 141630 to 142100
  METAR: 202506141630 METAR VABB 141630Z 05004KT 2200 TS FEW012 SCT018 FEW030CB BKN090 28/25 Q1000 TEMPO 1500 TSRA=
    Wind Dir: 50, Gust: None, Clouds: ['FEW012', 'SCT018', 'FEW030CB', 'BKN090']
  METAR: 202506141700 METAR VABB 141700Z 11003KT 2200 -TSRA FEW012 SCT018 FEW030CB BKN090 27/25 Q1000 TEMPO 1500 TSRA=
    Wind Dir: 110, Gust: None, Clouds: ['FEW012', 'SCT018', 'FEW030CB', 'BKN090']
  METAR: 202506141730 METAR VABB 141730Z 00000KT 2200 -TSRA FEW012 SCT018 FEW030CB BKN090 27/25 Q1000 TEMPO 1500 TSRA=
    Wind Dir: 0, Gust: None, Clouds: ['FEW012', 'SCT018', 'FEW030CB', 'BKN090']
  METAR: 202506141800 METAR VABB 141800Z 00000KT 2200 -TSRA FEW012 SCT018 FEW030CB BKN090 27/25 Q0999 TEMPO 1500 TSRA=
    Wind Dir: 0, Gust: None, Clouds: ['FEW012', 'SCT018', 'FEW030CB', 'BKN090']
  METAR: 202506141830 METAR VABB 141830Z 00000KT 2200 -TSRA FEW012 SCT018 FEW030CB BKN090 27/25 Q0999 NOSIG=
    Wind Dir: 0, Gust: None, Clouds: ['FEW012', 'SCT018', 'FEW030CB', 'BKN090']
  METAR: 202506141900 METAR VABB 141900Z 05004KT 2200 -TSRA FEW012 SCT018 FEW030CB BKN090 27/25 Q0998 TEMPO 1500 TSRA=
    Wind Dir: 50, Gust: None, Clouds: ['FEW012', 'SCT018', 'FEW030CB', 'BKN090']
  METAR: 202506141930 METAR VABB 141930Z 12004KT 2200 TS FEW012 SCT018 FEW030CB BKN090 27/25 Q0998 NOSIG=
    Wind Dir: 120, Gust: None, Clouds: ['FEW012', 'SCT018', 'FEW030CB', 'BKN090']
  METAR: 202506142000 METAR VABB 142000Z 11007KT 2100 TS FEW012 SCT018 FEW030CB BKN090 26/25 Q0998 TEMPO 1500 TSRA=
    Wind Dir: 110, Gust: None, Clouds: ['FEW012', 'SCT018', 'FEW030CB', 'BKN090']
  METAR: 202506142030 METAR VABB 142030Z 09008KT 2100 TS FEW012 SCT018 FEW030CB BKN090 27/25 Q0998 TEMPO 1500 TSRA=
    Wind Dir: 90, Gust: None, Clouds: ['FEW012', 'SCT018', 'FEW030CB', 'BKN090']
  METAR: 202506142100 METAR VABB 142100Z 13004KT 2100 -TSRA FEW012 SCT018 FEW030CB BKN090 26/25 Q0998 TEMPO 1500 TSRA=
    Wind Dir: 130, Gust: None, Clouds: ['FEW012', 'SCT018', 'FEW030CB', 'BKN090']
  METAR: 202506142130 METAR VABB 142130Z 14004KT 2100 TS FEW012 SCT018 FEW030CB BKN090 27/25 Q0997 NOSIG=
    Wind Dir: 140, Gust: None, Clouds: ['FEW012', 'SCT018', 'FEW030CB', 'BKN090']

Row 41: Validity 142030 to 150100
  METAR: 202506142030 METAR VABB 142030Z 09008KT 2100 TS FEW012 SCT018 FEW030CB BKN090 27/25 Q0998 TEMPO 1500 TSRA=
    Wind Dir: 90, Gust: None, Clouds: ['FEW012', 'SCT018', 'FEW030CB', 'BKN090']
  METAR: 202506142100 METAR VABB 142100Z 13004KT 2100 -TSRA FEW012 SCT018 FEW030CB BKN090 26/25 Q0998 TEMPO 1500 TSRA=
    Wind Dir: 130, Gust: None, Clouds: ['FEW012', 'SCT018', 'FEW030CB', 'BKN090']
  METAR: 202506142130 METAR VABB 142130Z 14004KT 2100 TS FEW012 SCT018 FEW030CB BKN090 27/25 Q0997 NOSIG=
    Wind Dir: 140, Gust: None, Clouds: ['FEW012', 'SCT018', 'FEW030CB', 'BKN090']
  METAR: 202506142200 METAR VABB 142200Z 14003KT 2100 TS FEW012 SCT018 FEW030CB BKN090 27/25 Q0997 NOSIG=
    Wind Dir: 140, Gust: None, Clouds: ['FEW012', 'SCT018', 'FEW030CB', 'BKN090']
  METAR: 202506142230 METAR VABB 142230Z 12003KT 2100 TS FEW012 SCT018 FEW030CB BKN090 27/25 Q0997 NOSIG=
    Wind Dir: 120, Gust: None, Clouds: ['FEW012', 'SCT018', 'FEW030CB', 'BKN090']
  METAR: 202506142300 METAR VABB 142300Z 13004KT 2100 TS FEW012 SCT018 FEW030CB BKN090 27/25 Q0997 NOSIG=
    Wind Dir: 130, Gust: None, Clouds: ['FEW012', 'SCT018', 'FEW030CB', 'BKN090']
  METAR: 202506142330 METAR VABB 142330Z 00000KT 2100 TS FEW012 SCT018 FEW030CB BKN090 27/25 Q0998 NOSIG=
    Wind Dir: 0, Gust: None, Clouds: ['FEW012', 'SCT018', 'FEW030CB', 'BKN090']
  METAR: 202506150000 METAR VABB 150000Z 00000KT 2100 -TSRA FEW012 SCT018 FEW030CB BKN090 27/25 Q0998 TEMPO 1500 TSRA=
    Wind Dir: 0, Gust: None, Clouds: ['FEW012', 'SCT018', 'FEW030CB', 'BKN090']
  METAR: 202506150030 METAR VABB 150030Z 00000KT 2100 TSRA FEW012 SCT018 FEW030CB BKN090 27/25 Q0998 TEMPO 1500 TSRA=
    Wind Dir: 0, Gust: None, Clouds: ['FEW012', 'SCT018', 'FEW030CB', 'BKN090']
  METAR: 202506150100 METAR VABB 150100Z 13004KT 1800 TSRA FEW012 SCT018 FEW030CB BKN090 26/25 Q0997 TEMPO 1500 TSRA=
    Wind Dir: 130, Gust: None, Clouds: ['FEW012', 'SCT018', 'FEW030CB', 'BKN090']
  METAR: 202506150130 METAR VABB 150130Z 13003KT 1800 -RA FEW012 SCT018 FEW030CB BKN090 26/25 Q0997 TEMPO 1500 TSRA=
    Wind Dir: 130, Gust: None, Clouds: ['FEW012', 'SCT018', 'FEW030CB', 'BKN090']

Row 42: Validity 150030 to 150500
  METAR: 202506150030 METAR VABB 150030Z 00000KT 2100 TSRA FEW012 SCT018 FEW030CB BKN090 27/25 Q0998 TEMPO 1500 TSRA=
    Wind Dir: 0, Gust: None, Clouds: ['FEW012', 'SCT018', 'FEW030CB', 'BKN090']
  METAR: 202506150100 METAR VABB 150100Z 13004KT 1800 TSRA FEW012 SCT018 FEW030CB BKN090 26/25 Q0997 TEMPO 1500 TSRA=
    Wind Dir: 130, Gust: None, Clouds: ['FEW012', 'SCT018', 'FEW030CB', 'BKN090']
  METAR: 202506150130 METAR VABB 150130Z 13003KT 1800 -RA FEW012 SCT018 FEW030CB BKN090 26/25 Q0997 TEMPO 1500 TSRA=
    Wind Dir: 130, Gust: None, Clouds: ['FEW012', 'SCT018', 'FEW030CB', 'BKN090']
  METAR: 202506150200 METAR VABB 150200Z 00000KT 1800 -RA FEW012 SCT018 FEW030CB OVC090 26/25 Q0998 TEMPO 1500 TSRA=
    Wind Dir: 0, Gust: None, Clouds: ['FEW012', 'SCT018', 'FEW030CB', 'OVC090']
  METAR: 202506150230 METAR VABB 150230Z 23003KT 1800 -RA FEW012 SCT018 FEW030CB OVC090 26/25 Q0998 TEMPO 1500 TSRA=
    Wind Dir: 230, Gust: None, Clouds: ['FEW012', 'SCT018', 'FEW030CB', 'OVC090']
  METAR: 202506150300 METAR VABB 150300Z 23003KT 1800 -RA FEW012 SCT018 FEW030CB OVC080 26/25 Q0998 TEMPO 1500 SHRA=
    Wind Dir: 230, Gust: None, Clouds: ['FEW012', 'SCT018', 'FEW030CB', 'OVC080']
  METAR: 202506150330 METAR VABB 150330Z 00000KT 2100 -RA FEW012 SCT018 FEW025TCU OVC080 26/25 Q0998 TEMPO 1500 SHRA=
    Wind Dir: 0, Gust: None, Clouds: ['FEW012', 'SCT018', 'FEW025TCU', 'OVC080']
  METAR: 202506150400 METAR VABB 150400Z 21004KT 2100 -RA FEW012 SCT018 FEW025TCU OVC080 26/25 Q0998 TEMPO 1500 SHRA=
    Wind Dir: 210, Gust: None, Clouds: ['FEW012', 'SCT018', 'FEW025TCU', 'OVC080']
  METAR: 202506150430 METAR VABB 150430Z 17003KT 2100 -RA FEW012 SCT018 FEW025TCU OVC080 27/25 Q0998 TEMPO 1500 SHRA=
    Wind Dir: 170, Gust: None, Clouds: ['FEW012', 'SCT018', 'FEW025TCU', 'OVC080']
  METAR: 202506150500 METAR VABB 150500Z 00000KT 2100 -RA FEW012 SCT018 FEW030CB OVC080 27/25 Q0998 TEMPO 1500 SHRA=
    Wind Dir: 0, Gust: None, Clouds: ['FEW012', 'SCT018', 'FEW030CB', 'OVC080']
  METAR: 202506150530 METAR VABB 150530Z 20005KT 2100 -RA FEW012 SCT018 FEW030CB OVC080 27/25 Q0998 TEMPO 1500 SHRA=
    Wind Dir: 200, Gust: None, Clouds: ['FEW012', 'SCT018', 'FEW030CB', 'OVC080']

Row 43: Validity 150900 to 151300
  METAR: 202506150900 METAR VABB 150900Z 18004KT 2500 HZ SCT018 FEW030CB BKN090 29/24 Q0996 TEMPO 1500 SHRA=
    Wind Dir: 180, Gust: None, Clouds: ['SCT018', 'FEW030CB', 'BKN090']
  METAR: 202506150930 METAR VABB 150930Z 18004KT 2500 VCSH SCT018 FEW030CB BKN090 29/24 Q0996 TEMPO 1500 SHRA=
    Wind Dir: 180, Gust: None, Clouds: ['SCT018', 'FEW030CB', 'BKN090']
  METAR: 202506151000 METAR VABB 151000Z 23004KT 2200 RA FEW012 SCT018 FEW030CB BKN090 29/25 Q0995 TEMPO 1500 SHRA=
    Wind Dir: 230, Gust: None, Clouds: ['FEW012', 'SCT018', 'FEW030CB', 'BKN090']
  METAR: 202506151030 METAR VABB 151030Z 23007KT 1600 RA SCT010 SCT018 FEW030CB BKN090 27/25 Q0996 TEMPO 0800 +SHRA=
    Wind Dir: 230, Gust: None, Clouds: ['SCT010', 'SCT018', 'FEW030CB', 'BKN090']
  METAR: 202506151100 METAR VABB 151100Z 21003KT 2100 -RA FEW012 SCT018 FEW030CB BKN090 27/25 Q0995 TEMPO 1500 SHRA=
    Wind Dir: 210, Gust: None, Clouds: ['FEW012', 'SCT018', 'FEW030CB', 'BKN090']
  METAR: 202506151130 METAR VABB 151130Z 20003KT 2100 RA FEW012 SCT018 FEW030CB BKN090 27/25 Q0995 TEMPO 1500 SHRA=
    Wind Dir: 200, Gust: None, Clouds: ['FEW012', 'SCT018', 'FEW030CB', 'BKN090']
  METAR: 202506151200 METAR VABB 151200Z 22004KT 1800 RA SCT010 SCT018 FEW030CB OVC080 27/25 Q0996 TEMPO 1500 SHRA=
    Wind Dir: 220, Gust: None, Clouds: ['SCT010', 'SCT018', 'FEW030CB', 'OVC080']
  METAR: 202506151230 METAR VABB 151230Z 27005KT 2100 -RA SCT010 SCT018 FEW030CB OVC080 27/25 Q0996 TEMPO 1500 SHRA=
    Wind Dir: 270, Gust: None, Clouds: ['SCT010', 'SCT018', 'FEW030CB', 'OVC080']
  METAR: 202506151300 METAR VABB 151300Z 33004KT 2100 -DZ FEW012 SCT018 FEW030CB OVC080 27/25 Q0996 TEMPO 1500 SHRA=
    Wind Dir: 330, Gust: None, Clouds: ['FEW012', 'SCT018', 'FEW030CB', 'OVC080']
  METAR: 202506151330 METAR VABB 151330Z 33003KT 2100 VCSH FEW012 SCT018 FEW030CB OVC080 27/25 Q0996 TEMPO 1500 SHRA=
    Wind Dir: 330, Gust: None, Clouds: ['FEW012', 'SCT018', 'FEW030CB', 'OVC080']

Row 44: Validity 151300 to 151700
  METAR: 202506151300 METAR VABB 151300Z 33004KT 2100 -DZ FEW012 SCT018 FEW030CB OVC080 27/25 Q0996 TEMPO 1500 SHRA=
    Wind Dir: 330, Gust: None, Clouds: ['FEW012', 'SCT018', 'FEW030CB', 'OVC080']
  METAR: 202506151330 METAR VABB 151330Z 33003KT 2100 VCSH FEW012 SCT018 FEW030CB OVC080 27/25 Q0996 TEMPO 1500 SHRA=
    Wind Dir: 330, Gust: None, Clouds: ['FEW012', 'SCT018', 'FEW030CB', 'OVC080']
  METAR: 202506151400 METAR VABB 151400Z 32004KT 2100 -DZ FEW012 SCT018 FEW030CB OVC090 27/25 Q0996 NOSIG=
    Wind Dir: 320, Gust: None, Clouds: ['FEW012', 'SCT018', 'FEW030CB', 'OVC090']
  METAR: 202506151430 METAR VABB 151430Z 36004KT 2200 -DZ FEW012 SCT018 FEW030CB OVC090 27/25 Q0997 TEMPO 1500 SHRA=
    Wind Dir: 360, Gust: None, Clouds: ['FEW012', 'SCT018', 'FEW030CB', 'OVC090']
  METAR: 202506151500 METAR VABB 151500Z 04003KT 2500 HZ FEW012 SCT018 FEW030CB OVC090 27/25 Q0997 TEMPO 1500 SHRA=
    Wind Dir: 40, Gust: None, Clouds: ['FEW012', 'SCT018', 'FEW030CB', 'OVC090']
  METAR: 202506151530 METAR VABB 151530Z 08003KT 2100 RA FEW012 SCT018 FEW030CB OVC090 27/25 Q0997 TEMPO 1500 RA=
    Wind Dir: 80, Gust: None, Clouds: ['FEW012', 'SCT018', 'FEW030CB', 'OVC090']
  METAR: 202506151600 METAR VABB 151600Z 05005KT 2100 -RA FEW012 SCT018 FEW030CB OVC090 27/25 Q0997 NOSIG=
    Wind Dir: 50, Gust: None, Clouds: ['FEW012', 'SCT018', 'FEW030CB', 'OVC090']
  METAR: 202506151630 METAR VABB 151630Z 01004KT 2500 -DZ FEW012 SCT018 FEW025TCU OVC090 27/25 Q0997 NOSIG=
    Wind Dir: 10, Gust: None, Clouds: ['FEW012', 'SCT018', 'FEW025TCU', 'OVC090']
  METAR: 202506151700 METAR VABB 151700Z 03004KT 2500 BR FEW012 SCT018 FEW025TCU OVC090 27/25 Q0997 NOSIG=
    Wind Dir: 30, Gust: None, Clouds: ['FEW012', 'SCT018', 'FEW025TCU', 'OVC090']
  METAR: 202506151730 METAR VABB 151730Z 04004KT 2500 BR FEW012 SCT018 FEW025TCU OVC090 27/25 Q0997 NOSIG=
    Wind Dir: 40, Gust: None, Clouds: ['FEW012', 'SCT018', 'FEW025TCU', 'OVC090']

Row 45: Validity 151700 to 152100
  METAR: 202506151700 METAR VABB 151700Z 03004KT 2500 BR FEW012 SCT018 FEW025TCU OVC090 27/25 Q0997 NOSIG=
    Wind Dir: 30, Gust: None, Clouds: ['FEW012', 'SCT018', 'FEW025TCU', 'OVC090']
  METAR: 202506151730 METAR VABB 151730Z 04004KT 2500 BR FEW012 SCT018 FEW025TCU OVC090 27/25 Q0997 NOSIG=
    Wind Dir: 40, Gust: None, Clouds: ['FEW012', 'SCT018', 'FEW025TCU', 'OVC090']
  METAR: 202506151800 METAR VABB 151800Z 34004KT 2500 BR FEW012 SCT018 FEW025TCU OVC090 27/25 Q0997 NOSIG=
    Wind Dir: 340, Gust: None, Clouds: ['FEW012', 'SCT018', 'FEW025TCU', 'OVC090']
  METAR: 202506151830 METAR VABB 151830Z 31006KT 0800 R27/1000 +RA FEW012 SCT018 FEW025TCU OVC090 26/25 Q0997 TEMPO 0350 +RA=
    Wind Dir: 310, Gust: None, Clouds: ['FEW012', 'SCT018', 'FEW025TCU', 'OVC090']
  METAR: 202506151900 METAR VABB 151900Z 31006KT 0800 R27/1000 +RA FEW012 SCT018 FEW030CB OVC090 26/25 Q0997 TEMPO 0350 +RA=
    Wind Dir: 310, Gust: None, Clouds: ['FEW012', 'SCT018', 'FEW030CB', 'OVC090']
  METAR: 202506151930 METAR VABB 151930Z 30004KT 1800 -RA FEW012 SCT018 FEW030CB OVC090 26/25 Q0997 TEMPO 1500 RA=
    Wind Dir: 300, Gust: None, Clouds: ['FEW012', 'SCT018', 'FEW030CB', 'OVC090']
  METAR: 202506152000 METAR VABB 152000Z 00000KT 1800 -RA FEW012 SCT018 FEW030CB OVC090 26/25 Q0996 TEMPO 0800 +RA=
    Wind Dir: 0, Gust: None, Clouds: ['FEW012', 'SCT018', 'FEW030CB', 'OVC090']
  METAR: 202506152030 METAR VABB 152030Z 00000KT 1800 -RA FEW012 SCT018 FEW030CB OVC090 26/25 Q0996 TEMPO 0800 +RA=
    Wind Dir: 0, Gust: None, Clouds: ['FEW012', 'SCT018', 'FEW030CB', 'OVC090']
  METAR: 202506152100 METAR VABB 152100Z 00000KT 1800 -RA FEW012 SCT018 FEW030CB OVC090 26/25 Q0996 TEMPO 0800 +RA=
    Wind Dir: 0, Gust: None, Clouds: ['FEW012', 'SCT018', 'FEW030CB', 'OVC090']
  METAR: 202506152130 METAR VABB 152130Z 00000KT 2100 -TSRA FEW012 SCT018 FEW030CB OVC090 26/24 Q0995 TEMPO 1500 TSRA=
    Wind Dir: 0, Gust: None, Clouds: ['FEW012', 'SCT018', 'FEW030CB', 'OVC090']

Row 46: Validity 152100 to 160100
  METAR: 202506152100 METAR VABB 152100Z 00000KT 1800 -RA FEW012 SCT018 FEW030CB OVC090 26/25 Q0996 TEMPO 0800 +RA=
    Wind Dir: 0, Gust: None, Clouds: ['FEW012', 'SCT018', 'FEW030CB', 'OVC090']
  METAR: 202506152130 METAR VABB 152130Z 00000KT 2100 -TSRA FEW012 SCT018 FEW030CB OVC090 26/24 Q0995 TEMPO 1500 TSRA=
    Wind Dir: 0, Gust: None, Clouds: ['FEW012', 'SCT018', 'FEW030CB', 'OVC090']
  METAR: 202506152200 METAR VABB 152200Z 28004KT 1500 R27/1800 TSRA FEW010 SCT018 FEW030CB OVC080 26/25 Q0995 TEMPO 0800 +TSRA=
    Wind Dir: 280, Gust: None, Clouds: ['FEW010', 'SCT018', 'FEW030CB', 'OVC080']
  METAR: 202506152230 METAR VABB 152230Z 26010KT 2100 TSRA FEW010 SCT016 FEW030CB OVC080 25/24 Q0995 TEMPO 1500 TSRA=
    Wind Dir: 260, Gust: None, Clouds: ['FEW010', 'SCT016', 'FEW030CB', 'OVC080']
  METAR: 202506152300 METAR VABB 152300Z 31009KT 2100 TSRA FEW010 SCT016 FEW030CB OVC080 26/25 Q0995 TEMPO 1500 TSRA=
    Wind Dir: 310, Gust: None, Clouds: ['FEW010', 'SCT016', 'FEW030CB', 'OVC080']
  METAR: 202506152330 METAR VABB 152330Z 30009G19KT 2100 TSRA FEW010 SCT016 FEW030CB OVC080 26/25 Q0995 TEMPO 1500 TSRA=
    Wind Dir: 300, Gust: 19, Clouds: ['FEW010', 'SCT016', 'FEW030CB', 'OVC080']
  METAR: 202506160000 METAR VABB 160000Z 29012G22KT 2100 RA FEW010 SCT016 FEW030CB OVC080 26/25 Q0996 TEMPO 1500 RA=
    Wind Dir: 290, Gust: 22, Clouds: ['FEW010', 'SCT016', 'FEW030CB', 'OVC080']
  METAR: 202506160030 METAR VABB 160030Z 29011G21KT 2500 -RA FEW010 SCT016 FEW030CB OVC080 26/26 Q0996 TEMPO 1500 RA=
    Wind Dir: 290, Gust: 21, Clouds: ['FEW010', 'SCT016', 'FEW030CB', 'OVC080']
  METAR: 202506160100 METAR VABB 160100Z 28010G20KT 2100 RA SCT010 SCT016 FEW030CB OVC080 26/24 Q0996 TEMPO 1500 +RA=
    Wind Dir: 280, Gust: 20, Clouds: ['SCT010', 'SCT016', 'FEW030CB', 'OVC080']
  METAR: 202506160130 METAR VABB 160130Z 27010KT 2100 -RA SCT010 SCT016 FEW030CB OVC080 26/25 Q0997 TEMPO 1500 RA=
    Wind Dir: 270, Gust: None, Clouds: ['SCT010', 'SCT016', 'FEW030CB', 'OVC080']

Row 47: Validity 152330 to 160330
  METAR: 202506152330 METAR VABB 152330Z 30009G19KT 2100 TSRA FEW010 SCT016 FEW030CB OVC080 26/25 Q0995 TEMPO 1500 TSRA=
    Wind Dir: 300, Gust: 19, Clouds: ['FEW010', 'SCT016', 'FEW030CB', 'OVC080']
  METAR: 202506160000 METAR VABB 160000Z 29012G22KT 2100 RA FEW010 SCT016 FEW030CB OVC080 26/25 Q0996 TEMPO 1500 RA=
    Wind Dir: 290, Gust: 22, Clouds: ['FEW010', 'SCT016', 'FEW030CB', 'OVC080']
  METAR: 202506160030 METAR VABB 160030Z 29011G21KT 2500 -RA FEW010 SCT016 FEW030CB OVC080 26/26 Q0996 TEMPO 1500 RA=
    Wind Dir: 290, Gust: 21, Clouds: ['FEW010', 'SCT016', 'FEW030CB', 'OVC080']
  METAR: 202506160100 METAR VABB 160100Z 28010G20KT 2100 RA SCT010 SCT016 FEW030CB OVC080 26/24 Q0996 TEMPO 1500 +RA=
    Wind Dir: 280, Gust: 20, Clouds: ['SCT010', 'SCT016', 'FEW030CB', 'OVC080']
  METAR: 202506160130 METAR VABB 160130Z 27010KT 2100 -RA SCT010 SCT016 FEW030CB OVC080 26/25 Q0997 TEMPO 1500 RA=
    Wind Dir: 270, Gust: None, Clouds: ['SCT010', 'SCT016', 'FEW030CB', 'OVC080']
  METAR: 202506160200 METAR VABB 160200Z 26011G21KT 2100 RA SCT010 SCT016 FEW030CB OVC080 26/25 Q0997 TEMPO 1500 RA=
    Wind Dir: 260, Gust: 21, Clouds: ['SCT010', 'SCT016', 'FEW030CB', 'OVC080']
  METAR: 202506160230 METAR VABB 160230Z 26012G25KT 2100 RA SCT010 SCT016 FEW030CB OVC080 25/24 Q0997 TEMPO 1500 RA=
    Wind Dir: 260, Gust: 25, Clouds: ['SCT010', 'SCT016', 'FEW030CB', 'OVC080']
  METAR: 202506160302 METAR VABB 160302Z 25016G26KT 0800 R27/1000 +RA SCT010 SCT016 FEW030CB OVC080 25/24 Q0997 TEMPO 0350+SHRA=
    Wind Dir: 250, Gust: 26, Clouds: ['SCT010', 'SCT016', 'FEW030CB', 'OVC080']
  METAR: 202506160330 METAR VABB 160330Z 25010G20KT 2100 RA SCT010 SCT016 FEW030CB OVC080 26/25 Q0998 TEMPO 1500+SHRA=
    Wind Dir: 250, Gust: 20, Clouds: ['SCT010', 'SCT016', 'FEW030CB', 'OVC080']
  METAR: 202506160400 METAR VABB 160400Z 25012G24KT 2100 RA SCT010 SCT016 FEW030CB OVC080 27/25 Q0998 TEMPO 1500 SHRA=
    Wind Dir: 250, Gust: 24, Clouds: ['SCT010', 'SCT016', 'FEW030CB', 'OVC080']

Row 48: Validity 160200 to 160600
  METAR: 202506160200 METAR VABB 160200Z 26011G21KT 2100 RA SCT010 SCT016 FEW030CB OVC080 26/25 Q0997 TEMPO 1500 RA=
    Wind Dir: 260, Gust: 21, Clouds: ['SCT010', 'SCT016', 'FEW030CB', 'OVC080']
  METAR: 202506160230 METAR VABB 160230Z 26012G25KT 2100 RA SCT010 SCT016 FEW030CB OVC080 25/24 Q0997 TEMPO 1500 RA=
    Wind Dir: 260, Gust: 25, Clouds: ['SCT010', 'SCT016', 'FEW030CB', 'OVC080']
  METAR: 202506160302 METAR VABB 160302Z 25016G26KT 0800 R27/1000 +RA SCT010 SCT016 FEW030CB OVC080 25/24 Q0997 TEMPO 0350+SHRA=
    Wind Dir: 250, Gust: 26, Clouds: ['SCT010', 'SCT016', 'FEW030CB', 'OVC080']
  METAR: 202506160330 METAR VABB 160330Z 25010G20KT 2100 RA SCT010 SCT016 FEW030CB OVC080 26/25 Q0998 TEMPO 1500+SHRA=
    Wind Dir: 250, Gust: 20, Clouds: ['SCT010', 'SCT016', 'FEW030CB', 'OVC080']
  METAR: 202506160400 METAR VABB 160400Z 25012G24KT 2100 RA SCT010 SCT016 FEW030CB OVC080 27/25 Q0998 TEMPO 1500 SHRA=
    Wind Dir: 250, Gust: 24, Clouds: ['SCT010', 'SCT016', 'FEW030CB', 'OVC080']
  METAR: 202506160430 METAR VABB 160430Z 24013G23KT 2100 -RA SCT010 SCT016 FEW030CB OVC080 27/25 Q0998 TEMPO 1500 SHRA=
    Wind Dir: 240, Gust: 23, Clouds: ['SCT010', 'SCT016', 'FEW030CB', 'OVC080']
  METAR: 202506160500 METAR VABB 160500Z 24016G26KT 2100 -RA SCT010 SCT016 FEW030CB OVC080 27/25 Q0998 TEMPO 1500 SHRA=
    Wind Dir: 240, Gust: 26, Clouds: ['SCT010', 'SCT016', 'FEW030CB', 'OVC080']
  METAR: 202506160530 METAR VABB 160530Z 25011G21KT 2100 -RA SCT010 SCT016 FEW030CB OVC080 27/25 Q0998 TEMPO 1500 SHRA=
    Wind Dir: 250, Gust: 21, Clouds: ['SCT010', 'SCT016', 'FEW030CB', 'OVC080']
  METAR: 202506160600 METAR VABB 160600Z 25012G22KT 0800 R27/1000 +RA SCT010 SCT016 FEW030CB OVC080 28/25 Q0998 TEMPO 0600 +SHRA=
    Wind Dir: 250, Gust: 22, Clouds: ['SCT010', 'SCT016', 'FEW030CB', 'OVC080']
  METAR: 202506160630 METAR VABB 160630Z 24014G24KT 2100 -RA SCT010 SCT016 FEW030CB OVC080 27/25 Q0998 TEMPO 1500 SHRA=
    Wind Dir: 240, Gust: 24, Clouds: ['SCT010', 'SCT016', 'FEW030CB', 'OVC080']

Row 49: FCST/OBS is OBS, skipping extraction.

Row 50: Validity 161000 to 161400
  METAR: 202506161000 METAR VABB 161000Z 25008KT 1800 RA SCT010 SCT016 FEW030CB OVC080 26/25 Q0998 TEMPO 1500 +SHRA=
    Wind Dir: 250, Gust: None, Clouds: ['SCT010', 'SCT016', 'FEW030CB', 'OVC080']
  METAR: 202506161030 METAR VABB 161030Z 27010KT 0350 R27/0500 +RA SCT010 SCT016 FEW030CB OVC080 25/24 Q0998 NOSIG=
    Wind Dir: 270, Gust: None, Clouds: ['SCT010', 'SCT016', 'FEW030CB', 'OVC080']
  METAR: 202506161100 METAR VABB 161100Z 26015G25KT 1800 RA SCT010 SCT016 FEW030CB OVC080 25/24 Q0998 TEMPO 1500 SHRA=
    Wind Dir: 260, Gust: 25, Clouds: ['SCT010', 'SCT016', 'FEW030CB', 'OVC080']
  METAR: 202506161130 METAR VABB 161130Z 24007G17KT 1200 R27/1500 RA SCT008 SCT016 FEW030CB OVC080 25/24 Q0998 TEMPO 0800 +SHRA=
    Wind Dir: 240, Gust: 17, Clouds: ['SCT008', 'SCT016', 'FEW030CB', 'OVC080']
  METAR: 202506161200 METAR VABB 161200Z 24009G19KT 1200 R27/1500 RA SCT008 SCT016 FEW030CB OVC080 25/24 Q0998 TEMPO 0800 +SHRA=
    Wind Dir: 240, Gust: 19, Clouds: ['SCT008', 'SCT016', 'FEW030CB', 'OVC080']
  METAR: 202506161230 METAR VABB 161230Z 25007KT 1800 RA SCT008 SCT016 FEW030CB OVC080 26/25 Q0998 TEMPO 1500 SHRA=
    Wind Dir: 250, Gust: None, Clouds: ['SCT008', 'SCT016', 'FEW030CB', 'OVC080']
  METAR: 202506161300 METAR VABB 161300Z 27006KT 1800 RA SCT008 SCT016 FEW030CB OVC080 25/24 Q0998 TEMPO 1500 SHRA=
    Wind Dir: 270, Gust: None, Clouds: ['SCT008', 'SCT016', 'FEW030CB', 'OVC080']
  METAR: 202506161330 METAR VABB 161330Z 25005KT 1500 -RA SCT008 SCT016 FEW030CB OVC080 25/24 Q0999 TEMPO 0800 +SHRA=
    Wind Dir: 250, Gust: None, Clouds: ['SCT008', 'SCT016', 'FEW030CB', 'OVC080']
  METAR: 202506161400 METAR VABB 161400Z 25005KT 1800 -RA SCT008 SCT016 FEW030CB OVC080 25/25 Q0999 TEMPO 1500 SHRA=
    Wind Dir: 250, Gust: None, Clouds: ['SCT008', 'SCT016', 'FEW030CB', 'OVC080']
  METAR: 202506161430 METAR VABB 161430Z 25006KT 2100 DZ SCT008 SCT016 FEW030CB OVC080 26/25 Q0999 TEMPO 1500 SHRA=
    Wind Dir: 250, Gust: None, Clouds: ['SCT008', 'SCT016', 'FEW030CB', 'OVC080']

Row 51: Validity 161100 to 161500
  METAR: 202506161100 METAR VABB 161100Z 26015G25KT 1800 RA SCT010 SCT016 FEW030CB OVC080 25/24 Q0998 TEMPO 1500 SHRA=
    Wind Dir: 260, Gust: 25, Clouds: ['SCT010', 'SCT016', 'FEW030CB', 'OVC080']
  METAR: 202506161130 METAR VABB 161130Z 24007G17KT 1200 R27/1500 RA SCT008 SCT016 FEW030CB OVC080 25/24 Q0998 TEMPO 0800 +SHRA=
    Wind Dir: 240, Gust: 17, Clouds: ['SCT008', 'SCT016', 'FEW030CB', 'OVC080']
  METAR: 202506161200 METAR VABB 161200Z 24009G19KT 1200 R27/1500 RA SCT008 SCT016 FEW030CB OVC080 25/24 Q0998 TEMPO 0800 +SHRA=
    Wind Dir: 240, Gust: 19, Clouds: ['SCT008', 'SCT016', 'FEW030CB', 'OVC080']
  METAR: 202506161230 METAR VABB 161230Z 25007KT 1800 RA SCT008 SCT016 FEW030CB OVC080 26/25 Q0998 TEMPO 1500 SHRA=
    Wind Dir: 250, Gust: None, Clouds: ['SCT008', 'SCT016', 'FEW030CB', 'OVC080']
  METAR: 202506161300 METAR VABB 161300Z 27006KT 1800 RA SCT008 SCT016 FEW030CB OVC080 25/24 Q0998 TEMPO 1500 SHRA=
    Wind Dir: 270, Gust: None, Clouds: ['SCT008', 'SCT016', 'FEW030CB', 'OVC080']
  METAR: 202506161330 METAR VABB 161330Z 25005KT 1500 -RA SCT008 SCT016 FEW030CB OVC080 25/24 Q0999 TEMPO 0800 +SHRA=
    Wind Dir: 250, Gust: None, Clouds: ['SCT008', 'SCT016', 'FEW030CB', 'OVC080']
  METAR: 202506161400 METAR VABB 161400Z 25005KT 1800 -RA SCT008 SCT016 FEW030CB OVC080 25/25 Q0999 TEMPO 1500 SHRA=
    Wind Dir: 250, Gust: None, Clouds: ['SCT008', 'SCT016', 'FEW030CB', 'OVC080']
  METAR: 202506161430 METAR VABB 161430Z 25006KT 2100 DZ SCT008 SCT016 FEW030CB OVC080 26/25 Q0999 TEMPO 1500 SHRA=
    Wind Dir: 250, Gust: None, Clouds: ['SCT008', 'SCT016', 'FEW030CB', 'OVC080']
  METAR: 202506161500 METAR VABB 161500Z 24006KT 2100 DZ SCT008 SCT016 FEW030CB OVC080 26/25 Q1000 NOSIG=
    Wind Dir: 240, Gust: None, Clouds: ['SCT008', 'SCT016', 'FEW030CB', 'OVC080']
  METAR: 202506161530 METAR VABB 161530Z 25007KT 2200 BR SCT010 SCT016 FEW030CB BKN080 27/25 Q1000 NOSIG=
    Wind Dir: 250, Gust: None, Clouds: ['SCT010', 'SCT016', 'FEW030CB', 'BKN080']

Row 52: Validity 161500 to 161900
  METAR: 202506161500 METAR VABB 161500Z 24006KT 2100 DZ SCT008 SCT016 FEW030CB OVC080 26/25 Q1000 NOSIG=
    Wind Dir: 240, Gust: None, Clouds: ['SCT008', 'SCT016', 'FEW030CB', 'OVC080']
  METAR: 202506161530 METAR VABB 161530Z 25007KT 2200 BR SCT010 SCT016 FEW030CB BKN080 27/25 Q1000 NOSIG=
    Wind Dir: 250, Gust: None, Clouds: ['SCT010', 'SCT016', 'FEW030CB', 'BKN080']
  METAR: 202506161600 METAR VABB 161600Z 25006KT 2500 BR SCT018 FEW030CB BKN090 27/25 Q1000 NOSIG=
    Wind Dir: 250, Gust: None, Clouds: ['SCT018', 'FEW030CB', 'BKN090']
  METAR: 202506161630 METAR VABB 161630Z 24005KT 2500 BR SCT020 FEW030CB BKN090 27/25 Q1001 NOSIG=
    Wind Dir: 240, Gust: None, Clouds: ['SCT020', 'FEW030CB', 'BKN090']
  METAR: 202506161700 METAR VABB 161700Z 22003KT 2500 BR SCT020 FEW025TCU BKN090 28/25 Q1001 NOSIG=
    Wind Dir: 220, Gust: None, Clouds: ['SCT020', 'FEW025TCU', 'BKN090']
  METAR: 202506161730 METAR VABB 161730Z 23004KT 2500 BR SCT020 FEW025TCU BKN090 28/25 Q1001 NOSIG=
    Wind Dir: 230, Gust: None, Clouds: ['SCT020', 'FEW025TCU', 'BKN090']
  METAR: 202506161800 METAR VABB 161800Z 24008KT 1500 R27/1800 RA FEW010 SCT018 FEW025TCU BKN090 28/25 Q1001 TEMPO 0800 +RA=
    Wind Dir: 240, Gust: None, Clouds: ['FEW010', 'SCT018', 'FEW025TCU', 'BKN090']
  METAR: 202506161830 METAR VABB 161830Z 25006KT 2100 -SHRA FEW012 SCT018 FEW025TCU BKN090 27/25 Q1001 TEMPO 1500 SHRA=
    Wind Dir: 250, Gust: None, Clouds: ['FEW012', 'SCT018', 'FEW025TCU', 'BKN090']
  METAR: 202506161900 METAR VABB 161900Z 29007KT 2100 -SHRA FEW012 SCT018 FEW025TCU BKN090 27/25 Q1000 TEMPO 1500 SHRA=
    Wind Dir: 290, Gust: None, Clouds: ['FEW012', 'SCT018', 'FEW025TCU', 'BKN090']
  METAR: 202506161930 METAR VABB 161930Z 25011KT 2100 BR SCT018 FEW025TCU BKN090 28/26 Q1000 NOSIG=
    Wind Dir: 250, Gust: None, Clouds: ['SCT018', 'FEW025TCU', 'BKN090']

Row 53: Validity 161900 to 162300
  METAR: 202506161900 METAR VABB 161900Z 29007KT 2100 -SHRA FEW012 SCT018 FEW025TCU BKN090 27/25 Q1000 TEMPO 1500 SHRA=
    Wind Dir: 290, Gust: None, Clouds: ['FEW012', 'SCT018', 'FEW025TCU', 'BKN090']
  METAR: 202506161930 METAR VABB 161930Z 25011KT 2100 BR SCT018 FEW025TCU BKN090 28/26 Q1000 NOSIG=
    Wind Dir: 250, Gust: None, Clouds: ['SCT018', 'FEW025TCU', 'BKN090']
  METAR: 202506162000 METAR VABB 162000Z 25012G22KT 2100 -RA SCT018 FEW025TCU BKN090 29/26 Q1000 NOSIG=
    Wind Dir: 250, Gust: 22, Clouds: ['SCT018', 'FEW025TCU', 'BKN090']
  METAR: 202506162030 METAR VABB 162030Z 25012G22KT 2100 -RA SCT018 FEW025TCU BKN090 29/25 Q1000 NOSIG=
    Wind Dir: 250, Gust: 22, Clouds: ['SCT018', 'FEW025TCU', 'BKN090']
  METAR: 202506162100 METAR VABB 162100Z 24012G22KT 2100 -RA SCT018 FEW025TCU BKN090 28/25 Q0999 NOSIG=
    Wind Dir: 240, Gust: 22, Clouds: ['SCT018', 'FEW025TCU', 'BKN090']
  METAR: 202506162130 METAR VABB 162130Z 24009G19KT 2100 BR SCT018 FEW025TCU BKN090 29/26 Q0999 NOSIG=
    Wind Dir: 240, Gust: 19, Clouds: ['SCT018', 'FEW025TCU', 'BKN090']
  METAR: 202506162200 METAR VABB 162200Z 25007G17KT 2200 BR SCT018 FEW025TCU BKN090 28/25 Q0999 NOSIG=
    Wind Dir: 250, Gust: 17, Clouds: ['SCT018', 'FEW025TCU', 'BKN090']
  METAR: 202506162230 METAR VABB 162230Z 24009KT 2200 BR SCT018 FEW025TCU BKN090 28/25 Q0999 NOSIG=
    Wind Dir: 240, Gust: None, Clouds: ['SCT018', 'FEW025TCU', 'BKN090']
  METAR: 202506162300 METAR VABB 162300Z 25008G18KT 2200 -DZ SCT018 FEW025TCU BKN090 28/25 Q0999 NOSIG=
    Wind Dir: 250, Gust: 18, Clouds: ['SCT018', 'FEW025TCU', 'BKN090']
  METAR: 202506162330 METAR VABB 162330Z 25009G19KT 2200 BR SCT018 FEW025TCU BKN090 28/25 Q1000 NOSIG=
    Wind Dir: 250, Gust: 19, Clouds: ['SCT018', 'FEW025TCU', 'BKN090']

Row 54: Validity 162300 to 170300
  METAR: 202506162300 METAR VABB 162300Z 25008G18KT 2200 -DZ SCT018 FEW025TCU BKN090 28/25 Q0999 NOSIG=
    Wind Dir: 250, Gust: 18, Clouds: ['SCT018', 'FEW025TCU', 'BKN090']
  METAR: 202506162330 METAR VABB 162330Z 25009G19KT 2200 BR SCT018 FEW025TCU BKN090 28/25 Q1000 NOSIG=
    Wind Dir: 250, Gust: 19, Clouds: ['SCT018', 'FEW025TCU', 'BKN090']
  METAR: 202506170000 METAR VABB 170000Z 25008G18KT 2200 BR SCT018 FEW025TCU BKN090 28/25 Q1000 NOSIG=
    Wind Dir: 250, Gust: 18, Clouds: ['SCT018', 'FEW025TCU', 'BKN090']
  METAR: 202506170030 METAR VABB 170030Z 24011G21KT 2200 -DZ SCT018 FEW025TCU BKN090 29/25 Q1000 NOSIG=
    Wind Dir: 240, Gust: 21, Clouds: ['SCT018', 'FEW025TCU', 'BKN090']
  METAR: 202506170100 METAR VABB 170100Z 25007G17KT 2500 BR SCT018 FEW025TCU BKN090 28/25 Q1000 NOSIG=
    Wind Dir: 250, Gust: 17, Clouds: ['SCT018', 'FEW025TCU', 'BKN090']
  METAR: 202506170130 METAR VABB 170130Z 26007G17KT 2500 BR SCT018 FEW025TCU BKN090 29/25 Q1000 NOSIG=
    Wind Dir: 260, Gust: 17, Clouds: ['SCT018', 'FEW025TCU', 'BKN090']
  METAR: 202506170200 METAR VABB 170200Z 25008G18KT 2500 BR SCT020 FEW025TCU BKN100 29/25 Q1001 NOSIG=
    Wind Dir: 250, Gust: 18, Clouds: ['SCT020', 'FEW025TCU', 'BKN100']
  METAR: 202506170230 METAR VABB 170230Z 24011G21KT 2500 BR SCT020 SCT025 BKN100 29/25 Q1001 NOSIG=
    Wind Dir: 240, Gust: 21, Clouds: ['SCT020', 'SCT025', 'BKN100']
  METAR: 202506170300 METAR VABB 170300Z 24011G21KT 2500 BR SCT020 SCT025 BKN100 29/25 Q1001 NOSIG=
    Wind Dir: 240, Gust: 21, Clouds: ['SCT020', 'SCT025', 'BKN100']
  METAR: 202506170330 METAR VABB 170330Z 25008G18KT 2500 BR SCT020 SCT025 BKN100 30/25 Q1002 NOSIG=
    Wind Dir: 250, Gust: 18, Clouds: ['SCT020', 'SCT025', 'BKN100']

Row 55: Validity 170300 to 170700
  METAR: 202506170300 METAR VABB 170300Z 24011G21KT 2500 BR SCT020 SCT025 BKN100 29/25 Q1001 NOSIG=
    Wind Dir: 240, Gust: 21, Clouds: ['SCT020', 'SCT025', 'BKN100']
  METAR: 202506170330 METAR VABB 170330Z 25008G18KT 2500 BR SCT020 SCT025 BKN100 30/25 Q1002 NOSIG=
    Wind Dir: 250, Gust: 18, Clouds: ['SCT020', 'SCT025', 'BKN100']
  METAR: 202506170400 METAR VABB 170400Z 24011KT 2200 BR SCT020 SCT025 BKN100 30/25 Q1002 NOSIG=
    Wind Dir: 240, Gust: None, Clouds: ['SCT020', 'SCT025', 'BKN100']
  METAR: 202506170430 METAR VABB 170430Z 25013G23KT 2500 HZ SCT018 FEW025TCU BKN100 31/25 Q1002 NOSIG=
    Wind Dir: 250, Gust: 23, Clouds: ['SCT018', 'FEW025TCU', 'BKN100']
  METAR: 202506170432 METAR VABB 170432Z 25013G23KT 2500 HZ SCT018 FEW025TCU BKN100 31/25 Q1002 NOSIG=
    Wind Dir: 250, Gust: 23, Clouds: ['SCT018', 'FEW025TCU', 'BKN100']
  METAR: 202506170500 METAR VABB 170500Z 24011G21KT 2500 HZ SCT018 FEW025TCU BKN100 31/25 Q1002 NOSIG=
    Wind Dir: 240, Gust: 21, Clouds: ['SCT018', 'FEW025TCU', 'BKN100']
  METAR: 202506170530 METAR VABB 170530Z 24009G19KT 2500 HZ SCT018 SCT025 BKN100 31/25 Q1002 NOSIG=
    Wind Dir: 240, Gust: 19, Clouds: ['SCT018', 'SCT025', 'BKN100']
  METAR: 202506170559 METAR VABB 170559Z 24011G21KT 2500 BR SCT018 SCT025 BKN100 31/26 Q1002 BECMG 3000 BR=
    Wind Dir: 240, Gust: 21, Clouds: ['SCT018', 'SCT025', 'BKN100']
  METAR: 202506170630 METAR VABB 170630Z 24015G25KT 3000 HZ SCT018 SCT025 BKN100 31/25 Q1002 NOSIG=
    Wind Dir: 240, Gust: 25, Clouds: ['SCT018', 'SCT025', 'BKN100']
  METAR: 202506170700 METAR VABB 170700Z 24015G25KT 3000 HZ SCT018 SCT025 BKN100 31/25 Q1002 NOSIG=
    Wind Dir: 240, Gust: 25, Clouds: ['SCT018', 'SCT025', 'BKN100']
  METAR: 202506170730 METAR VABB 170730Z 24019G29KT 2500 HZ SCT018 SCT025 BKN100 31/25 Q1002 NOSIG=
    Wind Dir: 240, Gust: 29, Clouds: ['SCT018', 'SCT025', 'BKN100']

Row 56: Validity 170700 to 171100
  METAR: 202506170700 METAR VABB 170700Z 24015G25KT 3000 HZ SCT018 SCT025 BKN100 31/25 Q1002 NOSIG=
    Wind Dir: 240, Gust: 25, Clouds: ['SCT018', 'SCT025', 'BKN100']
  METAR: 202506170730 METAR VABB 170730Z 24019G29KT 2500 HZ SCT018 SCT025 BKN100 31/25 Q1002 NOSIG=
    Wind Dir: 240, Gust: 29, Clouds: ['SCT018', 'SCT025', 'BKN100']
  METAR: 202506170800 METAR VABB 170800Z 23014G24KT 2500 HZ SCT018 SCT025 BKN100 31/26 Q1002 NOSIG=
    Wind Dir: 230, Gust: 24, Clouds: ['SCT018', 'SCT025', 'BKN100']
  METAR: 202506170830 METAR VABB 170830Z 24018G28KT 2500 HZ SCT018 FEW025TCU BKN100 31/25 Q1002 NOSIG=
    Wind Dir: 240, Gust: 28, Clouds: ['SCT018', 'FEW025TCU', 'BKN100']
  METAR: 202506170900 METAR VABB 170900Z 25014G27KT 2500 HZ SCT018 FEW025TCU BKN100 31/25 Q1002 NOSIG=
    Wind Dir: 250, Gust: 27, Clouds: ['SCT018', 'FEW025TCU', 'BKN100']
  METAR: 202506170930 METAR VABB 170930Z 24012G22KT 2500 HZ SCT018 FEW025TCU BKN100 31/25 Q1001 NOSIG=
    Wind Dir: 240, Gust: 22, Clouds: ['SCT018', 'FEW025TCU', 'BKN100']
  METAR: 202506171000 METAR VABB 171000Z 24015G28KT 2500 HZ SCT018 FEW025TCU BKN100 31/25 Q1001 NOSIG=
    Wind Dir: 240, Gust: 28, Clouds: ['SCT018', 'FEW025TCU', 'BKN100']
  METAR: 202506171030 METAR VABB 171030Z 23012G22KT 2500 HZ SCT018 FEW025TCU BKN100 31/26 Q1001 NOSIG=
    Wind Dir: 230, Gust: 22, Clouds: ['SCT018', 'FEW025TCU', 'BKN100']
  METAR: 202506171100 METAR VABB 171100Z 23012G22KT 2500 HZ SCT018 FEW025TCU BKN100 31/25 Q1000 NOSIG=
    Wind Dir: 230, Gust: 22, Clouds: ['SCT018', 'FEW025TCU', 'BKN100']
  METAR: 202506171130 METAR VABB 171130Z 23015G25KT 2500 HZ SCT018 FEW025TCU BKN100 30/25 Q1000 NOSIG=
    Wind Dir: 230, Gust: 25, Clouds: ['SCT018', 'FEW025TCU', 'BKN100']

Row 57: Validity 171100 to 171500
  METAR: 202506171100 METAR VABB 171100Z 23012G22KT 2500 HZ SCT018 FEW025TCU BKN100 31/25 Q1000 NOSIG=
    Wind Dir: 230, Gust: 22, Clouds: ['SCT018', 'FEW025TCU', 'BKN100']
  METAR: 202506171130 METAR VABB 171130Z 23015G25KT 2500 HZ SCT018 FEW025TCU BKN100 30/25 Q1000 NOSIG=
    Wind Dir: 230, Gust: 25, Clouds: ['SCT018', 'FEW025TCU', 'BKN100']
  METAR: 202506171200 METAR VABB 171200Z 23022G32KT 1800 -SHRA SCT018 FEW025TCU BKN100 30/24 Q1000 NOSIG=
    Wind Dir: 230, Gust: 32, Clouds: ['SCT018', 'FEW025TCU', 'BKN100']
  METAR: 202506171230 METAR VABB 171230Z 24012G22KT 2500 HZ SCT018 FEW025TCU BKN100 29/25 Q1000 NOSIG=
    Wind Dir: 240, Gust: 22, Clouds: ['SCT018', 'FEW025TCU', 'BKN100']
  METAR: 202506171300 METAR VABB 171300Z 23016G32KT 2500 HZ FEW012 SCT018 FEW025TCU BKN090 29/25 Q1000 NOSIG=
    Wind Dir: 230, Gust: 32, Clouds: ['FEW012', 'SCT018', 'FEW025TCU', 'BKN090']
  METAR: 202506171330 METAR VABB 171330Z 23012G26KT 2500 BR FEW012 SCT018 FEW025TCU BKN090 29/25 Q1001 NOSIG=
    Wind Dir: 230, Gust: 26, Clouds: ['FEW012', 'SCT018', 'FEW025TCU', 'BKN090']
  METAR: 202506171400 METAR VABB 171400Z 23012G26KT 2500 BR FEW012 SCT018 FEW025TCU BKN090 29/25 Q1001 NOSIG=
    Wind Dir: 230, Gust: 26, Clouds: ['FEW012', 'SCT018', 'FEW025TCU', 'BKN090']
  METAR: 202506171430 METAR VABB 171430Z 23013G27KT 2500 HZ SCT018 FEW025TCU BKN090 29/25 Q1001 NOSIG=
    Wind Dir: 230, Gust: 27, Clouds: ['SCT018', 'FEW025TCU', 'BKN090']
  METAR: 202506171500 METAR VABB 171500Z 23009G19KT 2500 -DZ SCT018 FEW025TCU BKN090 28/25 Q1002 TEMPO 1500 SHRA=
    Wind Dir: 230, Gust: 19, Clouds: ['SCT018', 'FEW025TCU', 'BKN090']
  METAR: 202506171530 METAR VABB 171530Z 23009G19KT 2500 BR SCT018 FEW025TCU BKN090 29/25 Q1002 NOSIG=
    Wind Dir: 230, Gust: 19, Clouds: ['SCT018', 'FEW025TCU', 'BKN090']

Row 58: FCST/OBS is OBS, skipping extraction.

Row 59: Validity 171900 to 172300
  METAR: 202506171900 METAR VABB 171900Z 26011G25KT 1800 RA FEW010 SCT018 FEW030CB OVC090 28/25 Q1002 TEMPO 0800 +SHRA=
    Wind Dir: 260, Gust: 25, Clouds: ['FEW010', 'SCT018', 'FEW030CB', 'OVC090']
  METAR: 202506171930 METAR VABB 171930Z 26008G18KT 2100 -RA FEW010 SCT018 FEW030CB OVC090 27/25 Q1002 TEMPO 1500 SHRA=
    Wind Dir: 260, Gust: 18, Clouds: ['FEW010', 'SCT018', 'FEW030CB', 'OVC090']
  METAR: 202506172000 METAR VABB 172000Z 27014G24KT 1200 R27/1500 RA SCT010 SCT015 FEW030CB OVC080 26/25 Q1001 TEMPO 0800 +SHRA=
    Wind Dir: 270, Gust: 24, Clouds: ['SCT010', 'SCT015', 'FEW030CB', 'OVC080']
  METAR: 202506172030 METAR VABB 172030Z 24009KT 2100 -RA FEW010 SCT018 FEW030CB OVC080 27/25 Q1000 TEMPO 1500 SHRA=
    Wind Dir: 240, Gust: None, Clouds: ['FEW010', 'SCT018', 'FEW030CB', 'OVC080']
  METAR: 202506172100 METAR VABB 172100Z 25008G18KT 2100 -DZ FEW010 SCT018 FEW030CB OVC080 27/25 Q1001 TEMPO 1500 SHRA=
    Wind Dir: 250, Gust: 18, Clouds: ['FEW010', 'SCT018', 'FEW030CB', 'OVC080']
  METAR: 202506172130 METAR VABB 172130Z 26008KT 2200 -DZ FEW012 SCT018 FEW030CB OVC090 27/25 Q1000 TEMPO 1500 SHRA=
    Wind Dir: 260, Gust: None, Clouds: ['FEW012', 'SCT018', 'FEW030CB', 'OVC090']
  METAR: 202506172200 METAR VABB 172200Z 24009KT 2200 -DZ FEW012 SCT018 FEW030CB OVC090 28/26 Q1000 TEMPO 1500 SHRA=
    Wind Dir: 240, Gust: None, Clouds: ['FEW012', 'SCT018', 'FEW030CB', 'OVC090']
  METAR: 202506172230 METAR VABB 172230Z 24010KT 2200 BR FEW012 SCT018 FEW030CB OVC090 28/25 Q1000 TEMPO 1500 SHRA=
    Wind Dir: 240, Gust: None, Clouds: ['FEW012', 'SCT018', 'FEW030CB', 'OVC090']
  METAR: 202506172300 METAR VABB 172300Z 25009KT 2200 BR FEW012 SCT018 FEW030CB OVC090 28/25 Q1000 NOSIG=
    Wind Dir: 250, Gust: None, Clouds: ['FEW012', 'SCT018', 'FEW030CB', 'OVC090']
  METAR: 202506172330 METAR VABB 172330Z 27012G22KT 1700 -RA FEW012 SCT018 FEW030CB OVC090 27/25 Q1000 TEMPO 1500 SHRA=
    Wind Dir: 270, Gust: 22, Clouds: ['FEW012', 'SCT018', 'FEW030CB', 'OVC090']

Row 60: Validity 172300 to 180300
  METAR: 202506172300 METAR VABB 172300Z 25009KT 2200 BR FEW012 SCT018 FEW030CB OVC090 28/25 Q1000 NOSIG=
    Wind Dir: 250, Gust: None, Clouds: ['FEW012', 'SCT018', 'FEW030CB', 'OVC090']
  METAR: 202506172330 METAR VABB 172330Z 27012G22KT 1700 -RA FEW012 SCT018 FEW030CB OVC090 27/25 Q1000 TEMPO 1500 SHRA=
    Wind Dir: 270, Gust: 22, Clouds: ['FEW012', 'SCT018', 'FEW030CB', 'OVC090']
  METAR: 202506180000 METAR VABB 180000Z 27007G17KT 1700 -RA FEW012 SCT018 FEW030CB OVC080 26/24 Q1001 TEMPO 1500 SHRA=
    Wind Dir: 270, Gust: 17, Clouds: ['FEW012', 'SCT018', 'FEW030CB', 'OVC080']
  METAR: 202506180030 METAR VABB 180030Z 26010KT 2100 -DZ FEW012 SCT018 FEW030CB OVC080 27/25 Q1001 TEMPO 1500 SHRA=
    Wind Dir: 260, Gust: None, Clouds: ['FEW012', 'SCT018', 'FEW030CB', 'OVC080']
  METAR: 202506180100 METAR VABB 180100Z 26009KT 2100 BR FEW012 SCT018 FEW030CB OVC090 28/25 Q1001 TEMPO 1500 SHRA=
    Wind Dir: 260, Gust: None, Clouds: ['FEW012', 'SCT018', 'FEW030CB', 'OVC090']
  METAR: 202506180130 METAR VABB 180130Z 25008G18KT 2100 -DZ FEW012 SCT018 FEW030CB BKN090 28/25 Q1002 TEMPO 1500 SHRA=
    Wind Dir: 250, Gust: 18, Clouds: ['FEW012', 'SCT018', 'FEW030CB', 'BKN090']
  METAR: 202506180200 METAR VABB 180200Z 26011KT 2100 BR FEW012 SCT018 FEW030CB BKN090 29/25 Q1002 TEMPO 1500 SHRA=
    Wind Dir: 260, Gust: None, Clouds: ['FEW012', 'SCT018', 'FEW030CB', 'BKN090']
  METAR: 202506180230 METAR VABB 180230Z 25008G18KT 2500 HZ SCT018 FEW030CB BKN090 29/26 Q1002 NOSIG=
    Wind Dir: 250, Gust: 18, Clouds: ['SCT018', 'FEW030CB', 'BKN090']
  METAR: 202506180300 METAR VABB 180300Z 26010G20KT 2500 HZ SCT018 FEW030CB BKN090 29/25 Q1002 NOSIG=
    Wind Dir: 260, Gust: 20, Clouds: ['SCT018', 'FEW030CB', 'BKN090']
  METAR: 202506180330 METAR VABB 180330Z 26010G20KT 2500 HZ FEW012 SCT015 FEW030CB BKN090 28/25 Q1002 TEMPO 1500 SHRA=
    Wind Dir: 260, Gust: 20, Clouds: ['FEW012', 'SCT015', 'FEW030CB', 'BKN090']

Row 61: Validity 172300 to 180300
  METAR: 202506172300 METAR VABB 172300Z 25009KT 2200 BR FEW012 SCT018 FEW030CB OVC090 28/25 Q1000 NOSIG=
    Wind Dir: 250, Gust: None, Clouds: ['FEW012', 'SCT018', 'FEW030CB', 'OVC090']
  METAR: 202506172330 METAR VABB 172330Z 27012G22KT 1700 -RA FEW012 SCT018 FEW030CB OVC090 27/25 Q1000 TEMPO 1500 SHRA=
    Wind Dir: 270, Gust: 22, Clouds: ['FEW012', 'SCT018', 'FEW030CB', 'OVC090']
  METAR: 202506180000 METAR VABB 180000Z 27007G17KT 1700 -RA FEW012 SCT018 FEW030CB OVC080 26/24 Q1001 TEMPO 1500 SHRA=
    Wind Dir: 270, Gust: 17, Clouds: ['FEW012', 'SCT018', 'FEW030CB', 'OVC080']
  METAR: 202506180030 METAR VABB 180030Z 26010KT 2100 -DZ FEW012 SCT018 FEW030CB OVC080 27/25 Q1001 TEMPO 1500 SHRA=
    Wind Dir: 260, Gust: None, Clouds: ['FEW012', 'SCT018', 'FEW030CB', 'OVC080']
  METAR: 202506180100 METAR VABB 180100Z 26009KT 2100 BR FEW012 SCT018 FEW030CB OVC090 28/25 Q1001 TEMPO 1500 SHRA=
    Wind Dir: 260, Gust: None, Clouds: ['FEW012', 'SCT018', 'FEW030CB', 'OVC090']
  METAR: 202506180130 METAR VABB 180130Z 25008G18KT 2100 -DZ FEW012 SCT018 FEW030CB BKN090 28/25 Q1002 TEMPO 1500 SHRA=
    Wind Dir: 250, Gust: 18, Clouds: ['FEW012', 'SCT018', 'FEW030CB', 'BKN090']
  METAR: 202506180200 METAR VABB 180200Z 26011KT 2100 BR FEW012 SCT018 FEW030CB BKN090 29/25 Q1002 TEMPO 1500 SHRA=
    Wind Dir: 260, Gust: None, Clouds: ['FEW012', 'SCT018', 'FEW030CB', 'BKN090']
  METAR: 202506180230 METAR VABB 180230Z 25008G18KT 2500 HZ SCT018 FEW030CB BKN090 29/26 Q1002 NOSIG=
    Wind Dir: 250, Gust: 18, Clouds: ['SCT018', 'FEW030CB', 'BKN090']
  METAR: 202506180300 METAR VABB 180300Z 26010G20KT 2500 HZ SCT018 FEW030CB BKN090 29/25 Q1002 NOSIG=
    Wind Dir: 260, Gust: 20, Clouds: ['SCT018', 'FEW030CB', 'BKN090']
  METAR: 202506180330 METAR VABB 180330Z 26010G20KT 2500 HZ FEW012 SCT015 FEW030CB BKN090 28/25 Q1002 TEMPO 1500 SHRA=
    Wind Dir: 260, Gust: 20, Clouds: ['FEW012', 'SCT015', 'FEW030CB', 'BKN090']

Row 62: Validity 180300 to 180700
  METAR: 202506180300 METAR VABB 180300Z 26010G20KT 2500 HZ SCT018 FEW030CB BKN090 29/25 Q1002 NOSIG=
    Wind Dir: 260, Gust: 20, Clouds: ['SCT018', 'FEW030CB', 'BKN090']
  METAR: 202506180330 METAR VABB 180330Z 26010G20KT 2500 HZ FEW012 SCT015 FEW030CB BKN090 28/25 Q1002 TEMPO 1500 SHRA=
    Wind Dir: 260, Gust: 20, Clouds: ['FEW012', 'SCT015', 'FEW030CB', 'BKN090']
  METAR: 202506180400 METAR VABB 180400Z 28014G24KT 2500 BR SCT015 FEW030CB BKN090 27/25 Q1003 TEMPO 1500 SHRA=
    Wind Dir: 280, Gust: 24, Clouds: ['SCT015', 'FEW030CB', 'BKN090']
  METAR: 202506180430 METAR VABB 180430Z 28011KT 2500 BR SCT018 FEW030CB BKN090 28/25 Q1003 NOSIG=
    Wind Dir: 280, Gust: None, Clouds: ['SCT018', 'FEW030CB', 'BKN090']
  METAR: 202506180500 METAR VABB 180500Z 25007KT 2500 BR SCT018 FEW030CB BKN090 28/25 Q1003 TEMPO 1500 SHRA=
    Wind Dir: 250, Gust: None, Clouds: ['SCT018', 'FEW030CB', 'BKN090']
  METAR: 202506180530 METAR VABB 180530Z 26008G18KT 1200 R27/1400 +SHRA FEW010 SCT015 FEW030CB OVC090 29/25 Q1002 TEMPO 0800 SHRA=
    Wind Dir: 260, Gust: 18, Clouds: ['FEW010', 'SCT015', 'FEW030CB', 'OVC090']
  METAR: 202506180600 METAR VABB 180600Z 26007G17KT 1200 R27/1400 RA FEW010 SCT015 FEW030CB OVC090 27/25 Q1003 TEMPO 0800 +RA=
    Wind Dir: 260, Gust: 17, Clouds: ['FEW010', 'SCT015', 'FEW030CB', 'OVC090']
  METAR: 202506180630 METAR VABB 180630Z 24007KT 2100 -DZ FEW010 SCT015 FEW030CB OVC090 26/25 Q1003 TEMPO 1500 SHRA=
    Wind Dir: 240, Gust: None, Clouds: ['FEW010', 'SCT015', 'FEW030CB', 'OVC090']
  METAR: 202506180700 METAR VABB 180700Z 26006KT 1200 R27/1500 SHRA FEW010 SCT015 FEW030CB OVC090 26/25 Q1003 TEMPO 0800 +SHRA=
    Wind Dir: 260, Gust: None, Clouds: ['FEW010', 'SCT015', 'FEW030CB', 'OVC090']
  METAR: 202506180730 METAR VABB 180730Z 26009KT 2500 BR FEW010 SCT015 FEW030CB OVC090 27/26 Q1002 TEMPO 1500 SHRA=
    Wind Dir: 260, Gust: None, Clouds: ['FEW010', 'SCT015', 'FEW030CB', 'OVC090']

Row 63: Validity 180700 to 181100
  METAR: 202506180700 METAR VABB 180700Z 26006KT 1200 R27/1500 SHRA FEW010 SCT015 FEW030CB OVC090 26/25 Q1003 TEMPO 0800 +SHRA=
    Wind Dir: 260, Gust: None, Clouds: ['FEW010', 'SCT015', 'FEW030CB', 'OVC090']
  METAR: 202506180730 METAR VABB 180730Z 26009KT 2500 BR FEW010 SCT015 FEW030CB OVC090 27/26 Q1002 TEMPO 1500 SHRA=
    Wind Dir: 260, Gust: None, Clouds: ['FEW010', 'SCT015', 'FEW030CB', 'OVC090']
  METAR: 202506180800 METAR VABB 180800Z 27008KT 2500 BR SCT018 FEW030CB OVC090 27/25 Q1002 TEMPO 1500 SHRA=
    Wind Dir: 270, Gust: None, Clouds: ['SCT018', 'FEW030CB', 'OVC090']
  METAR: 202506180830 METAR VABB 180830Z 26008KT 2500 BR SCT018 FEW030CB OVC090 27/25 Q1002 TEMPO 1500 SHRA=
    Wind Dir: 260, Gust: None, Clouds: ['SCT018', 'FEW030CB', 'OVC090']
  METAR: 202506180900 METAR VABB 180900Z 24009G22KT 1500 R27/2000 SHRA SCT018 FEW030CB OVC090 27/25 Q1002 TEMPO 0800 +SHRA=
    Wind Dir: 240, Gust: 22, Clouds: ['SCT018', 'FEW030CB', 'OVC090']
  METAR: 202506180930 METAR VABB 180930Z 24005KT 2100 -SHRA FEW012 SCT018 FEW030CB OVC090 27/25 Q1002 TEMPO 1500 SHRA=
    Wind Dir: 240, Gust: None, Clouds: ['FEW012', 'SCT018', 'FEW030CB', 'OVC090']
  METAR: 202506181000 METAR VABB 181000Z 22006KT 2500 VCSH FEW012 SCT018 FEW030CB OVC090 27/25 Q1001 TEMPO 1500 SHRA=
    Wind Dir: 220, Gust: None, Clouds: ['FEW012', 'SCT018', 'FEW030CB', 'OVC090']
  METAR: 202506181030 METAR VABB 181030Z 23006G18KT 2500 VCSH FEW012 SCT018 FEW030CB OVC090 27/26 Q1001 TEMPO 1500 SHRA=
    Wind Dir: 230, Gust: 18, Clouds: ['FEW012', 'SCT018', 'FEW030CB', 'OVC090']
  METAR: 202506181100 METAR VABB 181100Z 24008G18KT 2500 -DZ FEW012 SCT018 FEW030CB OVC090 28/26 Q1001 TEMPO 1500 SHRA=
    Wind Dir: 240, Gust: 18, Clouds: ['FEW012', 'SCT018', 'FEW030CB', 'OVC090']
  METAR: 202506181130 METAR VABB 181130Z 25009KT 2500 VCSH FEW012 SCT018 FEW030CB OVC090 28/26 Q1001 TEMPO 1500 SHRA=
    Wind Dir: 250, Gust: None, Clouds: ['FEW012', 'SCT018', 'FEW030CB', 'OVC090']

Row 64: Validity 181130 to 181530
  METAR: 202506181130 METAR VABB 181130Z 25009KT 2500 VCSH FEW012 SCT018 FEW030CB OVC090 28/26 Q1001 TEMPO 1500 SHRA=
    Wind Dir: 250, Gust: None, Clouds: ['FEW012', 'SCT018', 'FEW030CB', 'OVC090']
  METAR: 202506181200 METAR VABB 181200Z 26010KT 1500 R27/2000 SHRA FEW012 SCT018 FEW030CB OVC090 27/25 Q1001 TEMPO 0800 +SHRA=
    Wind Dir: 260, Gust: None, Clouds: ['FEW012', 'SCT018', 'FEW030CB', 'OVC090']
  METAR: 202506181230 METAR VABB 181230Z 26007KT 2100 VCSH FEW012 SCT018 FEW030CB OVC090 26/24 Q1001 TEMPO 1500 SHRA=
    Wind Dir: 260, Gust: None, Clouds: ['FEW012', 'SCT018', 'FEW030CB', 'OVC090']
  METAR: 202506181300 METAR VABB 181300Z 26006G22KT 0800 R27/1000 +RA FEW008 SCT018 FEW030CB OVC080 26/25 Q1001 TEMPO 0600 +SHRA=
    Wind Dir: 260, Gust: 22, Clouds: ['FEW008', 'SCT018', 'FEW030CB', 'OVC080']
  METAR: 202506181330 METAR VABB 181330Z 32008KT 2100 DZ FEW010 SCT018 FEW030CB OVC080 26/25 Q1002 TEMPO 1500 SHRA=
    Wind Dir: 320, Gust: None, Clouds: ['FEW010', 'SCT018', 'FEW030CB', 'OVC080']
  METAR: 202506181400 METAR VABB 181400Z 31005KT 2500 BR FEW010 SCT018 FEW030CB OVC080 27/25 Q1002 TEMPO 1500 SHRA=
    Wind Dir: 310, Gust: None, Clouds: ['FEW010', 'SCT018', 'FEW030CB', 'OVC080']
  METAR: 202506181430 METAR VABB 181430Z 32007KT 2500 BR FEW010 SCT018 FEW030CB OVC080 27/25 Q1002 TEMPO 1500 SHRA=
    Wind Dir: 320, Gust: None, Clouds: ['FEW010', 'SCT018', 'FEW030CB', 'OVC080']
  METAR: 202506181500 METAR VABB 181500Z 32004KT 2500 BR FEW010 SCT018 FEW030CB OVC080 27/25 Q1002 TEMPO 1500 SHRA=
    Wind Dir: 320, Gust: None, Clouds: ['FEW010', 'SCT018', 'FEW030CB', 'OVC080']
  METAR: 202506181530 METAR VABB 181530Z 27008G18KT 1800 -RA FEW010 SCT018 FEW030CB OVC080 27/25 Q1003 TEMPO 1500 SHRA=
    Wind Dir: 270, Gust: 18, Clouds: ['FEW010', 'SCT018', 'FEW030CB', 'OVC080']
  METAR: 202506181600 METAR VABB 181600Z 27009KT 1800 -RA FEW010 SCT018 FEW030CB OVC080 27/26 Q1003 TEMPO 1500 SHRA=
    Wind Dir: 270, Gust: None, Clouds: ['FEW010', 'SCT018', 'FEW030CB', 'OVC080']

Row 65: Validity 181430 to 181830
  METAR: 202506181430 METAR VABB 181430Z 32007KT 2500 BR FEW010 SCT018 FEW030CB OVC080 27/25 Q1002 TEMPO 1500 SHRA=
    Wind Dir: 320, Gust: None, Clouds: ['FEW010', 'SCT018', 'FEW030CB', 'OVC080']
  METAR: 202506181500 METAR VABB 181500Z 32004KT 2500 BR FEW010 SCT018 FEW030CB OVC080 27/25 Q1002 TEMPO 1500 SHRA=
    Wind Dir: 320, Gust: None, Clouds: ['FEW010', 'SCT018', 'FEW030CB', 'OVC080']
  METAR: 202506181530 METAR VABB 181530Z 27008G18KT 1800 -RA FEW010 SCT018 FEW030CB OVC080 27/25 Q1003 TEMPO 1500 SHRA=
    Wind Dir: 270, Gust: 18, Clouds: ['FEW010', 'SCT018', 'FEW030CB', 'OVC080']
  METAR: 202506181600 METAR VABB 181600Z 27009KT 1800 -RA FEW010 SCT018 FEW030CB OVC080 27/26 Q1003 TEMPO 1500 SHRA=
    Wind Dir: 270, Gust: None, Clouds: ['FEW010', 'SCT018', 'FEW030CB', 'OVC080']
  METAR: 202506181630 METAR VABB 181630Z 22008KT 1800 -RA FEW010 SCT018 FEW030CB OVC080 27/25 Q1003 TEMPO 1500 SHRA=
    Wind Dir: 220, Gust: None, Clouds: ['FEW010', 'SCT018', 'FEW030CB', 'OVC080']
  METAR: 202506181700 METAR VABB 181700Z 23007KT 1800 -RA FEW010 SCT018 FEW030CB OVC080 27/26 Q1003 TEMPO 1500 SHRA=
    Wind Dir: 230, Gust: None, Clouds: ['FEW010', 'SCT018', 'FEW030CB', 'OVC080']
  METAR: 202506181730 METAR VABB 181730Z 22007KT 2100 -RA FEW010 SCT018 FEW030CB OVC080 27/25 Q1003 TEMPO 1500 SHRA=
    Wind Dir: 220, Gust: None, Clouds: ['FEW010', 'SCT018', 'FEW030CB', 'OVC080']
  METAR: 202506181800 METAR VABB 181800Z 24009G19KT 2100 -DZ FEW010 SCT018 FEW030CB OVC080 27/26 Q1002 TEMPO 1500 SHRA=
    Wind Dir: 240, Gust: 19, Clouds: ['FEW010', 'SCT018', 'FEW030CB', 'OVC080']
  METAR: 202506181830 METAR VABB 181830Z 26012G22KT 1500 RA FEW010 SCT018 FEW030CB OVC080 27/26 Q1002 TEMPO 0800 +SHRA=
    Wind Dir: 260, Gust: 22, Clouds: ['FEW010', 'SCT018', 'FEW030CB', 'OVC080']
  METAR: 202506181900 METAR VABB 181900Z 26010KT 2100 -DZ FEW010 SCT018 FEW030CB OVC080 27/26 Q1002 TEMPO 1500 SHRA=
    Wind Dir: 260, Gust: None, Clouds: ['FEW010', 'SCT018', 'FEW030CB', 'OVC080']

Row 66: Validity 181530 to 181930
  METAR: 202506181530 METAR VABB 181530Z 27008G18KT 1800 -RA FEW010 SCT018 FEW030CB OVC080 27/25 Q1003 TEMPO 1500 SHRA=
    Wind Dir: 270, Gust: 18, Clouds: ['FEW010', 'SCT018', 'FEW030CB', 'OVC080']
  METAR: 202506181600 METAR VABB 181600Z 27009KT 1800 -RA FEW010 SCT018 FEW030CB OVC080 27/26 Q1003 TEMPO 1500 SHRA=
    Wind Dir: 270, Gust: None, Clouds: ['FEW010', 'SCT018', 'FEW030CB', 'OVC080']
  METAR: 202506181630 METAR VABB 181630Z 22008KT 1800 -RA FEW010 SCT018 FEW030CB OVC080 27/25 Q1003 TEMPO 1500 SHRA=
    Wind Dir: 220, Gust: None, Clouds: ['FEW010', 'SCT018', 'FEW030CB', 'OVC080']
  METAR: 202506181700 METAR VABB 181700Z 23007KT 1800 -RA FEW010 SCT018 FEW030CB OVC080 27/26 Q1003 TEMPO 1500 SHRA=
    Wind Dir: 230, Gust: None, Clouds: ['FEW010', 'SCT018', 'FEW030CB', 'OVC080']
  METAR: 202506181730 METAR VABB 181730Z 22007KT 2100 -RA FEW010 SCT018 FEW030CB OVC080 27/25 Q1003 TEMPO 1500 SHRA=
    Wind Dir: 220, Gust: None, Clouds: ['FEW010', 'SCT018', 'FEW030CB', 'OVC080']
  METAR: 202506181800 METAR VABB 181800Z 24009G19KT 2100 -DZ FEW010 SCT018 FEW030CB OVC080 27/26 Q1002 TEMPO 1500 SHRA=
    Wind Dir: 240, Gust: 19, Clouds: ['FEW010', 'SCT018', 'FEW030CB', 'OVC080']
  METAR: 202506181830 METAR VABB 181830Z 26012G22KT 1500 RA FEW010 SCT018 FEW030CB OVC080 27/26 Q1002 TEMPO 0800 +SHRA=
    Wind Dir: 260, Gust: 22, Clouds: ['FEW010', 'SCT018', 'FEW030CB', 'OVC080']
  METAR: 202506181900 METAR VABB 181900Z 26010KT 2100 -DZ FEW010 SCT018 FEW030CB OVC080 27/26 Q1002 TEMPO 1500 SHRA=
    Wind Dir: 260, Gust: None, Clouds: ['FEW010', 'SCT018', 'FEW030CB', 'OVC080']
  METAR: 202506181930 METAR VABB 181930Z 25010KT 2500 TS FEW010 SCT018 FEW030CB OVC080 28/26 Q1001 TEMPO 1500 SHRA=
    Wind Dir: 250, Gust: None, Clouds: ['FEW010', 'SCT018', 'FEW030CB', 'OVC080']
  METAR: 202506182000 METAR VABB 182000Z 26009G19KT 2500 TS FEW012 SCT018 FEW030CB OVC090 28/26 Q1001 TEMPO 1500 SHRA=
    Wind Dir: 260, Gust: 19, Clouds: ['FEW012', 'SCT018', 'FEW030CB', 'OVC090']

Row 67: Validity 181830 to 182230
  METAR: 202506181830 METAR VABB 181830Z 26012G22KT 1500 RA FEW010 SCT018 FEW030CB OVC080 27/26 Q1002 TEMPO 0800 +SHRA=
    Wind Dir: 260, Gust: 22, Clouds: ['FEW010', 'SCT018', 'FEW030CB', 'OVC080']
  METAR: 202506181900 METAR VABB 181900Z 26010KT 2100 -DZ FEW010 SCT018 FEW030CB OVC080 27/26 Q1002 TEMPO 1500 SHRA=
    Wind Dir: 260, Gust: None, Clouds: ['FEW010', 'SCT018', 'FEW030CB', 'OVC080']
  METAR: 202506181930 METAR VABB 181930Z 25010KT 2500 TS FEW010 SCT018 FEW030CB OVC080 28/26 Q1001 TEMPO 1500 SHRA=
    Wind Dir: 250, Gust: None, Clouds: ['FEW010', 'SCT018', 'FEW030CB', 'OVC080']
  METAR: 202506182000 METAR VABB 182000Z 26009G19KT 2500 TS FEW012 SCT018 FEW030CB OVC090 28/26 Q1001 TEMPO 1500 SHRA=
    Wind Dir: 260, Gust: 19, Clouds: ['FEW012', 'SCT018', 'FEW030CB', 'OVC090']
  METAR: 202506182030 METAR VABB 182030Z 25009G19KT 2500 TS FEW012 SCT018 FEW030CB OVC090 28/26 Q1000 TEMPO 1500 SHRA=
    Wind Dir: 250, Gust: 19, Clouds: ['FEW012', 'SCT018', 'FEW030CB', 'OVC090']
  METAR: 202506182100 METAR VABB 182100Z 26017G27KT 2500 TS SCT018 FEW030CB BKN090 27/24 Q1000 TEMPO 1500 TSRA=
    Wind Dir: 260, Gust: 27, Clouds: ['SCT018', 'FEW030CB', 'BKN090']
  METAR: 202506182130 METAR VABB 182130Z 26013G23KT 2500 TS SCT018 FEW030CB BKN090 27/25 Q1000 TEMPO 1500 TSRA=
    Wind Dir: 260, Gust: 23, Clouds: ['SCT018', 'FEW030CB', 'BKN090']
  METAR: 202506182200 METAR VABB 182200Z 26013G23KT 2200 -TSRA SCT018 FEW030CB BKN090 27/25 Q1000 TEMPO 1500 TSRA=
    Wind Dir: 260, Gust: 23, Clouds: ['SCT018', 'FEW030CB', 'BKN090']
  METAR: 202506182230 METAR VABB 182230Z 25012G22KT 1600 -RA FEW012 SCT018 FEW030CB BKN090 27/25 Q1000 TEMPO 0800 +TSRA=
    Wind Dir: 250, Gust: 22, Clouds: ['FEW012', 'SCT018', 'FEW030CB', 'BKN090']
  METAR: 202506182300 METAR VABB 182300Z 27012G22KT 1600 -RA SCT008 SCT015 FEW030CB OVC080 27/25 Q1000 TEMPO 0800 +SHRA=
    Wind Dir: 270, Gust: 22, Clouds: ['SCT008', 'SCT015', 'FEW030CB', 'OVC080']

Row 68: Validity 182230 to 190230
  METAR: 202506182230 METAR VABB 182230Z 25012G22KT 1600 -RA FEW012 SCT018 FEW030CB BKN090 27/25 Q1000 TEMPO 0800 +TSRA=
    Wind Dir: 250, Gust: 22, Clouds: ['FEW012', 'SCT018', 'FEW030CB', 'BKN090']
  METAR: 202506182300 METAR VABB 182300Z 27012G22KT 1600 -RA SCT008 SCT015 FEW030CB OVC080 27/25 Q1000 TEMPO 0800 +SHRA=
    Wind Dir: 270, Gust: 22, Clouds: ['SCT008', 'SCT015', 'FEW030CB', 'OVC080']
  METAR: 202506182330 METAR VABB 182330Z 27014G24KT 1600 -RA SCT008 SCT015 FEW030CB OVC080 26/25 Q1001 TEMPO 0800 +SHRA=
    Wind Dir: 270, Gust: 24, Clouds: ['SCT008', 'SCT015', 'FEW030CB', 'OVC080']
  METAR: 202506190000 METAR VABB 190000Z 28015G25KT 1600 -RA SCT008 SCT015 FEW030CB OVC080 26/25 Q1001 TEMPO 0800 +SHRA=
    Wind Dir: 280, Gust: 25, Clouds: ['SCT008', 'SCT015', 'FEW030CB', 'OVC080']
  METAR: 202506190030 METAR VABB 190030Z 28010G20KT 1600 -RA SCT010 SCT015 FEW030CB OVC080 27/25 Q1001 TEMPO 0800 +SHRA=
    Wind Dir: 280, Gust: 20, Clouds: ['SCT010', 'SCT015', 'FEW030CB', 'OVC080']
  METAR: 202506190050 METAR VABB 190050Z 27012G22KT 1200 R27/1400 RA SCT010 SCT015 FEW030CB OVC080 26/25 Q1001 TEMPO 0600 +SHRA=
    Wind Dir: 270, Gust: 22, Clouds: ['SCT010', 'SCT015', 'FEW030CB', 'OVC080']
  METAR: 202506190100 METAR VABB 190100Z 28014G24KT 1600 RA SCT008 SCT015 FEW030CB OVC080 26/25 Q1002 TEMPO 0800 +SHRA=
    Wind Dir: 280, Gust: 24, Clouds: ['SCT008', 'SCT015', 'FEW030CB', 'OVC080']
  METAR: 202506190130 METAR VABB 190130Z 27009KT 1600 -RA SCT008 SCT015 FEW030CB OVC080 26/25 Q1002 TEMPO0800 +SHRA=
    Wind Dir: 270, Gust: None, Clouds: ['SCT008', 'SCT015', 'FEW030CB', 'OVC080']
  METAR: 202506190200 METAR VABB 190200Z 27007G17KT 2100 -RA SCT010 SCT015 FEW030CB OVC080 27/25 Q1002 TEMPO 1500 SHRA=
    Wind Dir: 270, Gust: 17, Clouds: ['SCT010', 'SCT015', 'FEW030CB', 'OVC080']
  METAR: 202506190230 METAR VABB 190230Z 26008G18KT 2100 -RA FEW012 SCT018 FEW030CB OVC080 27/25 Q1002 NOSIG=
    Wind Dir: 260, Gust: 18, Clouds: ['FEW012', 'SCT018', 'FEW030CB', 'OVC080']
  METAR: 202506190300 METAR VABB 190300Z 26007G17KT 2100 -RA FEW012 SCT018 FEW030CB OVC080 28/26 Q1002 NOSIG=
    Wind Dir: 260, Gust: 17, Clouds: ['FEW012', 'SCT018', 'FEW030CB', 'OVC080']

Row 69: Validity 190230 to 190630
  METAR: 202506190230 METAR VABB 190230Z 26008G18KT 2100 -RA FEW012 SCT018 FEW030CB OVC080 27/25 Q1002 NOSIG=
    Wind Dir: 260, Gust: 18, Clouds: ['FEW012', 'SCT018', 'FEW030CB', 'OVC080']
  METAR: 202506190300 METAR VABB 190300Z 26007G17KT 2100 -RA FEW012 SCT018 FEW030CB OVC080 28/26 Q1002 NOSIG=
    Wind Dir: 260, Gust: 17, Clouds: ['FEW012', 'SCT018', 'FEW030CB', 'OVC080']
  METAR: 202506190330 METAR VABB 190330Z 26010KT 2100 -RA FEW012 SCT018 FEW030CB OVC080 28/26 Q1003 TEMPO 1500 SHRA=
    Wind Dir: 260, Gust: None, Clouds: ['FEW012', 'SCT018', 'FEW030CB', 'OVC080']
  METAR: 202506190400 METAR VABB 190400Z 26010KT 2100 DZ FEW012 SCT018 FEW030CB OVC080 29/26 Q1003 NOSIG=
    Wind Dir: 260, Gust: None, Clouds: ['FEW012', 'SCT018', 'FEW030CB', 'OVC080']
  METAR: 202506190430 METAR VABB 190430Z 25011KT 2100 -DZ FEW012 SCT018 FEW030CB OVC080 29/26 Q1003 TEMPO 1500 SHRA=
    Wind Dir: 250, Gust: None, Clouds: ['FEW012', 'SCT018', 'FEW030CB', 'OVC080']
  METAR: 202506190500 METAR VABB 190500Z 26011G21KT 2100 VCSH FEW012 SCT018 FEW030CB OVC080 29/26 Q1003 TEMPO 1500 SHRA=
    Wind Dir: 260, Gust: 21, Clouds: ['FEW012', 'SCT018', 'FEW030CB', 'OVC080']
  METAR: 202506190530 METAR VABB 190530Z 26011G21KT 2100 -DZ FEW012 SCT018 FEW030CB OVC080 29/26 Q1003 TEMPO 1500 SHRA=
    Wind Dir: 260, Gust: 21, Clouds: ['FEW012', 'SCT018', 'FEW030CB', 'OVC080']
  METAR: 202506190600 METAR VABB 190600Z 25013G23KT 2100 -DZ FEW012 SCT018 FEW030CB OVC080 29/26 Q1003 TEMPO 1500 SHRA=
    Wind Dir: 250, Gust: 23, Clouds: ['FEW012', 'SCT018', 'FEW030CB', 'OVC080']
  METAR: 202506190630 METAR VABB 190630Z 25011KT 2100 -RA FEW012 SCT018 FEW030CB OVC080 29/26 Q1003 TEMPO 1500 SHRA=
    Wind Dir: 250, Gust: None, Clouds: ['FEW012', 'SCT018', 'FEW030CB', 'OVC080']
  METAR: 202506190700 METAR VABB 190700Z 24013G23KT 1800 -RA FEW010 SCT018 FEW030CB OVC080 26/24 Q1003 TEMPO 1500 SHRA=
    Wind Dir: 240, Gust: 23, Clouds: ['FEW010', 'SCT018', 'FEW030CB', 'OVC080']

Row 70: Validity 190630 to 191030
  METAR: 202506190630 METAR VABB 190630Z 25011KT 2100 -RA FEW012 SCT018 FEW030CB OVC080 29/26 Q1003 TEMPO 1500 SHRA=
    Wind Dir: 250, Gust: None, Clouds: ['FEW012', 'SCT018', 'FEW030CB', 'OVC080']
  METAR: 202506190700 METAR VABB 190700Z 24013G23KT 1800 -RA FEW010 SCT018 FEW030CB OVC080 26/24 Q1003 TEMPO 1500 SHRA=
    Wind Dir: 240, Gust: 23, Clouds: ['FEW010', 'SCT018', 'FEW030CB', 'OVC080']
  METAR: 202506190730 METAR VABB 190730Z 26010G20KT 1800 +RA FEW010 SCT018 FEW030CB OVC080 27/26 Q1003 TEMPO 0800 +SHRA=
    Wind Dir: 260, Gust: 20, Clouds: ['FEW010', 'SCT018', 'FEW030CB', 'OVC080']
  METAR: 202506190800 METAR VABB 190800Z 26008G18KT 2100 -RA FEW010 SCT018 FEW030CB OVC080 28/26 Q1003 TEMPO 1500 SHRA=
    Wind Dir: 260, Gust: 18, Clouds: ['FEW010', 'SCT018', 'FEW030CB', 'OVC080']
  METAR: 202506190830 METAR VABB 190830Z 25009G19KT 2100 -RA FEW010 SCT018 FEW030CB OVC080 28/26 Q1003 TEMPO 1500 SHRA=
    Wind Dir: 250, Gust: 19, Clouds: ['FEW010', 'SCT018', 'FEW030CB', 'OVC080']
  METAR: 202506190900 METAR VABB 190900Z 25008G18KT 2100 -RA FEW010 SCT018 FEW030CB OVC080 28/26 Q1003 TEMPO 1500 SHRA=
    Wind Dir: 250, Gust: 18, Clouds: ['FEW010', 'SCT018', 'FEW030CB', 'OVC080']
  METAR: 202506190930 METAR VABB 190930Z 26010G20KT 2100 -RA SCT010 SCT018 FEW030CB OVC080 28/26 Q1003 TEMPO 1500 SHRA=
    Wind Dir: 260, Gust: 20, Clouds: ['SCT010', 'SCT018', 'FEW030CB', 'OVC080']
  METAR: 202506191000 METAR VABB 191000Z 26008G18KT 2100 -RA SCT010 SCT018 FEW030CB OVC080 28/26 Q1002 TEMPO 1500 SHRA=
    Wind Dir: 260, Gust: 18, Clouds: ['SCT010', 'SCT018', 'FEW030CB', 'OVC080']
  METAR: 202506191030 METAR VABB 191030Z 27010G20KT 2200 -DZ SCT010 SCT018 FEW030CB OVC080 28/26 Q1002 TEMPO 1500 SHRA=
    Wind Dir: 270, Gust: 20, Clouds: ['SCT010', 'SCT018', 'FEW030CB', 'OVC080']
  METAR: 202506191103 METAR VABB 191103Z 27013KT 2500 VCSH FEW012 SCT018 FEW030CB OVC090 28/26 Q1002 BECMG 3000 BR=
    Wind Dir: 270, Gust: None, Clouds: ['FEW012', 'SCT018', 'FEW030CB', 'OVC090']

Row 71: Validity 191430 to 191830
  METAR: 202506191430 METAR VABB 191430Z 26007G17KT 2200 BR FEW012 SCT018 FEW030CB OVC080 28/25 Q1003 TEMPO 1500 SHRA=
    Wind Dir: 260, Gust: 17, Clouds: ['FEW012', 'SCT018', 'FEW030CB', 'OVC080']
  METAR: 202506191500 METAR VABB 191500Z 25010KT 2200 BR FEW012 SCT018 FEW030CB OVC080 28/25 Q1004 TEMPO 1500 SHRA=
    Wind Dir: 250, Gust: None, Clouds: ['FEW012', 'SCT018', 'FEW030CB', 'OVC080']
  METAR: 202506191530 METAR VABB 191530Z 25009KT 2200 BR FEW012 SCT018 FEW030CB OVC080 28/25 Q1004 TEMPO 1500 SHRA=
    Wind Dir: 250, Gust: None, Clouds: ['FEW012', 'SCT018', 'FEW030CB', 'OVC080']
  METAR: 202506191600 METAR VABB 191600Z 25009KT 2200 BR FEW012 SCT018 FEW030CB OVC080 28/26 Q1004 TEMPO 1500 SHRA=
    Wind Dir: 250, Gust: None, Clouds: ['FEW012', 'SCT018', 'FEW030CB', 'OVC080']
  METAR: 202506191630 METAR VABB 191630Z 26010KT 2200 BR FEW012 SCT018 FEW025TCU OVC090 28/25 Q1004 NOSIG=
    Wind Dir: 260, Gust: None, Clouds: ['FEW012', 'SCT018', 'FEW025TCU', 'OVC090']
  METAR: 202506191700 METAR VABB 191700Z 25009KT 2200 BR FEW012 SCT018 FEW025TCU OVC090 28/25 Q1004 NOSIG=
    Wind Dir: 250, Gust: None, Clouds: ['FEW012', 'SCT018', 'FEW025TCU', 'OVC090']
  METAR: 202506191730 METAR VABB 191730Z 25008KT 2200 BR FEW012 SCT018 FEW025TCU OVC090 28/25 Q1005 NOSIG=
    Wind Dir: 250, Gust: None, Clouds: ['FEW012', 'SCT018', 'FEW025TCU', 'OVC090']
  METAR: 202506191800 METAR VABB 191800Z 24009KT 2200 BR FEW012 SCT018 FEW025TCU OVC090 28/25 Q1004 NOSIG=
    Wind Dir: 240, Gust: None, Clouds: ['FEW012', 'SCT018', 'FEW025TCU', 'OVC090']
  METAR: 202506191830 METAR VABB 191830Z 25008G18KT 2200 BR FEW012 SCT018 FEW025TCU OVC090 28/26 Q1004 NOSIG=
    Wind Dir: 250, Gust: 18, Clouds: ['FEW012', 'SCT018', 'FEW025TCU', 'OVC090']
  METAR: 202506191900 METAR VABB 191900Z 24009KT 2200 BR FEW012 SCT018 FEW025TCU OVC090 28/26 Q1004 NOSIG=
    Wind Dir: 240, Gust: None, Clouds: ['FEW012', 'SCT018', 'FEW025TCU', 'OVC090']

Row 72: Validity 192230 to 200230
  METAR: 202506192230 METAR VABB 192230Z 24006KT 2200 BR FEW012 SCT018 FEW025TCU OVC090 28/25 Q1003 NOSIG=
    Wind Dir: 240, Gust: None, Clouds: ['FEW012', 'SCT018', 'FEW025TCU', 'OVC090']
  METAR: 202506192300 METAR VABB 192300Z 24009KT 2200 BR FEW012 SCT018 FEW025TCU OVC090 28/25 Q1003 NOSIG=
    Wind Dir: 240, Gust: None, Clouds: ['FEW012', 'SCT018', 'FEW025TCU', 'OVC090']
  METAR: 202506192330 METAR VABB 192330Z 24007G17KT 2200 DZ FEW012 SCT018 FEW025TCU OVC090 28/25 Q1003 NOSIG=
    Wind Dir: 240, Gust: 17, Clouds: ['FEW012', 'SCT018', 'FEW025TCU', 'OVC090']
  METAR: 202506200000 METAR VABB 200000Z 24008G18KT 2200 BR SCT018 FEW025TCU OVC090 28/25 Q1003 NOSIG=
    Wind Dir: 240, Gust: 18, Clouds: ['SCT018', 'FEW025TCU', 'OVC090']
  METAR: 202506200030 METAR VABB 200030Z 24009G22KT 2200 BR SCT018 FEW025TCU OVC090 28/25 Q1003 NOSIG=
    Wind Dir: 240, Gust: 22, Clouds: ['SCT018', 'FEW025TCU', 'OVC090']
  METAR: 202506200100 METAR VABB 200100Z 24009KT 2500 BR SCT018 FEW025TCU OVC090 28/25 Q1004 NOSIG=
    Wind Dir: 240, Gust: None, Clouds: ['SCT018', 'FEW025TCU', 'OVC090']
  METAR: 202506200130 METAR VABB 200130Z 24007KT 2500 BR SCT018 FEW025TCU OVC090 28/25 Q1004 NOSIG=
    Wind Dir: 240, Gust: None, Clouds: ['SCT018', 'FEW025TCU', 'OVC090']
  METAR: 202506200200 METAR VABB 200200Z 25010KT 2500 BR FEW018 FEW025TCU BKN100 29/25 Q1005 NOSIG=
    Wind Dir: 250, Gust: None, Clouds: ['FEW018', 'FEW025TCU', 'BKN100']
  METAR: 202506200230 METAR VABB 200230Z 24010G20KT 2500 BR FEW018 FEW025TCU BKN100 29/25 Q1005 BECMG 3000 BR=
    Wind Dir: 240, Gust: 20, Clouds: ['FEW018', 'FEW025TCU', 'BKN100']
  METAR: 202506200300 METAR VABB 200300Z 24008G18KT 3000 HZ FEW018 FEW025TCU SCT100 29/25 Q1005 NOSIG=
    Wind Dir: 240, Gust: 18, Clouds: ['FEW018', 'FEW025TCU', 'SCT100']

Row 73: Validity 200230 to 200630
  METAR: 202506200230 METAR VABB 200230Z 24010G20KT 2500 BR FEW018 FEW025TCU BKN100 29/25 Q1005 BECMG 3000 BR=
    Wind Dir: 240, Gust: 20, Clouds: ['FEW018', 'FEW025TCU', 'BKN100']
  METAR: 202506200300 METAR VABB 200300Z 24008G18KT 3000 HZ FEW018 FEW025TCU SCT100 29/25 Q1005 NOSIG=
    Wind Dir: 240, Gust: 18, Clouds: ['FEW018', 'FEW025TCU', 'SCT100']
  METAR: 202506200330 METAR VABB 200330Z 22012G22KT 3000 HZ FEW020 FEW025TCU SCT100 29/25 Q1005 NOSIG=
    Wind Dir: 220, Gust: 22, Clouds: ['FEW020', 'FEW025TCU', 'SCT100']
  METAR: 202506200400 METAR VABB 200400Z 24012KT 3000 HZ FEW020 FEW025TCU BKN100 30/26 Q1006 NOSIG=
    Wind Dir: 240, Gust: None, Clouds: ['FEW020', 'FEW025TCU', 'BKN100']
  METAR: 202506200430 METAR VABB 200430Z 25013G26KT 1500 RA FEW012 SCT015 FEW025TCU BKN090 30/25 Q1006 TEMPO 0800 +SHRA=
    Wind Dir: 250, Gust: 26, Clouds: ['FEW012', 'SCT015', 'FEW025TCU', 'BKN090']
  METAR: 202506200500 METAR VABB 200500Z 24008KT 2100 BR SCT018 FEW025TCU BKN090 27/24 Q1006 TEMPO 1500 SHRA=
    Wind Dir: 240, Gust: None, Clouds: ['SCT018', 'FEW025TCU', 'BKN090']
  METAR: 202506200530 METAR VABB 200530Z 26006KT 2100 BR SCT018 FEW030CB BKN090 28/26 Q1005 TEMPO 1500 SHRA=
    Wind Dir: 260, Gust: None, Clouds: ['SCT018', 'FEW030CB', 'BKN090']
  METAR: 202506200600 METAR VABB 200600Z 25011G21KT 2100 BR SCT018 FEW030CB BKN090 29/26 Q1005 TEMPO 1500 SHRA=
    Wind Dir: 250, Gust: 21, Clouds: ['SCT018', 'FEW030CB', 'BKN090']
  METAR: 202506200630 METAR VABB 200630Z 24008G18KT 2500 HZ SCT018 FEW030CB BKN090 30/26 Q1005 NOSIG=
    Wind Dir: 240, Gust: 18, Clouds: ['SCT018', 'FEW030CB', 'BKN090']
  METAR: 202506200700 METAR VABB 200700Z 23011G21KT 2500 HZ SCT018 FEW025TCU BKN090 30/26 Q1005 NOSIG=
    Wind Dir: 230, Gust: 21, Clouds: ['SCT018', 'FEW025TCU', 'BKN090']

Row 74: Validity 200630 to 201030
  METAR: 202506200630 METAR VABB 200630Z 24008G18KT 2500 HZ SCT018 FEW030CB BKN090 30/26 Q1005 NOSIG=
    Wind Dir: 240, Gust: 18, Clouds: ['SCT018', 'FEW030CB', 'BKN090']
  METAR: 202506200700 METAR VABB 200700Z 23011G21KT 2500 HZ SCT018 FEW025TCU BKN090 30/26 Q1005 NOSIG=
    Wind Dir: 230, Gust: 21, Clouds: ['SCT018', 'FEW025TCU', 'BKN090']
  METAR: 202506200730 METAR VABB 200730Z 25013G25KT 2500 HZ SCT018 FEW025TCU BKN090 30/25 Q1005 NOSIG=
    Wind Dir: 250, Gust: 25, Clouds: ['SCT018', 'FEW025TCU', 'BKN090']
  METAR: 202506200800 METAR VABB 200800Z 25013KT 2500 HZ SCT018 FEW025TCU BKN090 30/25 Q1005 NOSIG=
    Wind Dir: 250, Gust: None, Clouds: ['SCT018', 'FEW025TCU', 'BKN090']
  METAR: 202506200830 METAR VABB 200830Z 25015G25KT 2500 HZ SCT020 FEW025TCU BKN100 31/25 Q1004 NOSIG=
    Wind Dir: 250, Gust: 25, Clouds: ['SCT020', 'FEW025TCU', 'BKN100']
  METAR: 202506200900 METAR VABB 200900Z 24014G24KT 1500 -SHRA SCT020 FEW025TCU BKN100 30/26 Q1004 TEMPO 0800 +SHRA=
    Wind Dir: 240, Gust: 24, Clouds: ['SCT020', 'FEW025TCU', 'BKN100']
  METAR: 202506200930 METAR VABB 200930Z 25015G25KT 2100 BR SCT020 FEW025TCU BKN100 30/26 Q1004 NOSIG=
    Wind Dir: 250, Gust: 25, Clouds: ['SCT020', 'FEW025TCU', 'BKN100']
  METAR: 202506201000 METAR VABB 201000Z 26008G18KT 2100 BR SCT020 FEW030CB BKN100 29/25 Q1004 NOSIG=
    Wind Dir: 260, Gust: 18, Clouds: ['SCT020', 'FEW030CB', 'BKN100']
  METAR: 202506201004 METAR VABB 201004Z 26008G18KT 2100 BR SCT020 FEW030CB BKN100 29/25 Q1004 TEMPO 1500 SHRA=
    Wind Dir: 260, Gust: 18, Clouds: ['SCT020', 'FEW030CB', 'BKN100']
  METAR: 202506201030 METAR VABB 201030Z 25008G18KT 2100 BR SCT020 FEW030CB BKN100 29/25 Q1004 TEMPO 1500 SHRA=
    Wind Dir: 250, Gust: 18, Clouds: ['SCT020', 'FEW030CB', 'BKN100']
  METAR: 202506201100 METAR VABB 201100Z 26010KT 2500 BR SCT020 FEW030CB BKN100 30/25 Q1003 BECMG 3000 BR=
    Wind Dir: 260, Gust: None, Clouds: ['SCT020', 'FEW030CB', 'BKN100']

Row 75: Validity 201030 to 201430
  METAR: 202506201030 METAR VABB 201030Z 25008G18KT 2100 BR SCT020 FEW030CB BKN100 29/25 Q1004 TEMPO 1500 SHRA=
    Wind Dir: 250, Gust: 18, Clouds: ['SCT020', 'FEW030CB', 'BKN100']
  METAR: 202506201100 METAR VABB 201100Z 26010KT 2500 BR SCT020 FEW030CB BKN100 30/25 Q1003 BECMG 3000 BR=
    Wind Dir: 260, Gust: None, Clouds: ['SCT020', 'FEW030CB', 'BKN100']
  METAR: 202506201130 METAR VABB 201130Z 25011G21KT 3000 BR SCT020 FEW025TCU BKN100 30/25 Q1003 NOSIG=
    Wind Dir: 250, Gust: 21, Clouds: ['SCT020', 'FEW025TCU', 'BKN100']
  METAR: 202506201200 METAR VABB 201200Z 26012G22KT 3000 BR FEW020 SCT025 BKN100 29/25 Q1003 NOSIG=
    Wind Dir: 260, Gust: 22, Clouds: ['FEW020', 'SCT025', 'BKN100']
  METAR: 202506201230 METAR VABB 201230Z 25009G19KT 3000 BR FEW020 SCT025 BKN100 29/25 Q1004 TEMPO 1500 SHRA=
    Wind Dir: 250, Gust: 19, Clouds: ['FEW020', 'SCT025', 'BKN100']
  METAR: 202506201300 METAR VABB 201300Z 26010G20KT 2500 BR SCT020 FEW025TCU BKN100 29/26 Q1004 NOSIG=
    Wind Dir: 260, Gust: 20, Clouds: ['SCT020', 'FEW025TCU', 'BKN100']
  METAR: 202506201330 METAR VABB 201330Z 26009G19KT 2500 BR SCT020 FEW025TCU BKN100 29/25 Q1004 NOSIG=
    Wind Dir: 260, Gust: 19, Clouds: ['SCT020', 'FEW025TCU', 'BKN100']
  METAR: 202506201400 METAR VABB 201400Z 26008G18KT 2500 BR SCT020 FEW025TCU BKN100 29/25 Q1004 NOSIG=
    Wind Dir: 260, Gust: 18, Clouds: ['SCT020', 'FEW025TCU', 'BKN100']
  METAR: 202506201430 METAR VABB 201430Z 25008G18KT 2500 BR SCT020 FEW025TCU BKN100 29/25 Q1004 NOSIG=
    Wind Dir: 250, Gust: 18, Clouds: ['SCT020', 'FEW025TCU', 'BKN100']
  METAR: 202506201500 METAR VABB 201500Z 24009G19KT 2500 BR SCT020 FEW025TCU BKN090 29/25 Q1004 NOSIG=
    Wind Dir: 240, Gust: 19, Clouds: ['SCT020', 'FEW025TCU', 'BKN090']

Row 76: Validity 201430 to 201830
  METAR: 202506201430 METAR VABB 201430Z 25008G18KT 2500 BR SCT020 FEW025TCU BKN100 29/25 Q1004 NOSIG=
    Wind Dir: 250, Gust: 18, Clouds: ['SCT020', 'FEW025TCU', 'BKN100']
  METAR: 202506201500 METAR VABB 201500Z 24009G19KT 2500 BR SCT020 FEW025TCU BKN090 29/25 Q1004 NOSIG=
    Wind Dir: 240, Gust: 19, Clouds: ['SCT020', 'FEW025TCU', 'BKN090']
  METAR: 202506201530 METAR VABB 201530Z 25010KT 2500 BR SCT020 FEW025TCU OVC090 29/25 Q1005 NOSIG=
    Wind Dir: 250, Gust: None, Clouds: ['SCT020', 'FEW025TCU', 'OVC090']
  METAR: 202506201600 METAR VABB 201600Z 25011G21KT 2500 BR SCT020 FEW025TCU BKN090 29/25 Q1005 NOSIG=
    Wind Dir: 250, Gust: 21, Clouds: ['SCT020', 'FEW025TCU', 'BKN090']
  METAR: 202506201630 METAR VABB 201630Z 24009KT 2500 BR SCT020 FEW025TCU BKN090 29/25 Q1005 NOSIG=
    Wind Dir: 240, Gust: None, Clouds: ['SCT020', 'FEW025TCU', 'BKN090']
  METAR: 202506201700 METAR VABB 201700Z 25009KT 2500 BR SCT020 FEW025TCU BKN090 29/25 Q1006 NOSIG=
    Wind Dir: 250, Gust: None, Clouds: ['SCT020', 'FEW025TCU', 'BKN090']
  METAR: 202506201730 METAR VABB 201730Z 24009KT 2500 BR SCT020 FEW025TCU BKN090 29/25 Q1006 NOSIG=
    Wind Dir: 240, Gust: None, Clouds: ['SCT020', 'FEW025TCU', 'BKN090']
  METAR: 202506201800 METAR VABB 201800Z 25010KT 2500 BR SCT020 FEW025TCU BKN090 29/25 Q1006 NOSIG=
    Wind Dir: 250, Gust: None, Clouds: ['SCT020', 'FEW025TCU', 'BKN090']
  METAR: 202506201830 METAR VABB 201830Z 24008G18KT 2500 BR SCT020 FEW025TCU BKN090 29/25 Q1005 NOSIG=
    Wind Dir: 240, Gust: 18, Clouds: ['SCT020', 'FEW025TCU', 'BKN090']
  METAR: 202506201900 METAR VABB 201900Z 24010G20KT 2500 BR SCT020 SCT025 BKN090 29/26 Q1005 NOSIG=
    Wind Dir: 240, Gust: 20, Clouds: ['SCT020', 'SCT025', 'BKN090']

Row 77: Validity 201830 to 202230
  METAR: 202506201830 METAR VABB 201830Z 24008G18KT 2500 BR SCT020 FEW025TCU BKN090 29/25 Q1005 NOSIG=
    Wind Dir: 240, Gust: 18, Clouds: ['SCT020', 'FEW025TCU', 'BKN090']
  METAR: 202506201900 METAR VABB 201900Z 24010G20KT 2500 BR SCT020 SCT025 BKN090 29/26 Q1005 NOSIG=
    Wind Dir: 240, Gust: 20, Clouds: ['SCT020', 'SCT025', 'BKN090']
  METAR: 202506201930 METAR VABB 201930Z 24012G22KT 2500 BR SCT020 SCT025 BKN090 29/25 Q1005 NOSIG=
    Wind Dir: 240, Gust: 22, Clouds: ['SCT020', 'SCT025', 'BKN090']
  METAR: 202506202000 METAR VABB 202000Z 24011G21KT 2500 BR SCT020 SCT025 BKN090 29/26 Q1004 NOSIG=
    Wind Dir: 240, Gust: 21, Clouds: ['SCT020', 'SCT025', 'BKN090']
  METAR: 202506202030 METAR VABB 202030Z 25012G22KT 2500 BR SCT020 SCT025 BKN090 29/25 Q1004 NOSIG=
    Wind Dir: 250, Gust: 22, Clouds: ['SCT020', 'SCT025', 'BKN090']
  METAR: 202506202100 METAR VABB 202100Z 24010G20KT 2500 BR SCT020 SCT025 BKN090 29/25 Q1004 NOSIG=
    Wind Dir: 240, Gust: 20, Clouds: ['SCT020', 'SCT025', 'BKN090']
  METAR: 202506202130 METAR VABB 202130Z 24007G17KT 2500 BR SCT020 SCT025 BKN090 29/25 Q1004 NOSIG=
    Wind Dir: 240, Gust: 17, Clouds: ['SCT020', 'SCT025', 'BKN090']
  METAR: 202506202200 METAR VABB 202200Z 24008G18KT 2500 BR SCT020 SCT025 BKN090 28/25 Q1004 NOSIG=
    Wind Dir: 240, Gust: 18, Clouds: ['SCT020', 'SCT025', 'BKN090']
  METAR: 202506202230 METAR VABB 202230Z 24009G19KT 2500 BR SCT020 SCT025 BKN090 28/25 Q1004 NOSIG=
    Wind Dir: 240, Gust: 19, Clouds: ['SCT020', 'SCT025', 'BKN090']
  METAR: 202506202300 METAR VABB 202300Z 24013G23KT 2500 BR SCT020 SCT025 BKN090 28/25 Q1004 NOSIG=
    Wind Dir: 240, Gust: 23, Clouds: ['SCT020', 'SCT025', 'BKN090']

Row 78: Validity 202230 to 210230
  METAR: 202506202230 METAR VABB 202230Z 24009G19KT 2500 BR SCT020 SCT025 BKN090 28/25 Q1004 NOSIG=
    Wind Dir: 240, Gust: 19, Clouds: ['SCT020', 'SCT025', 'BKN090']
  METAR: 202506202300 METAR VABB 202300Z 24013G23KT 2500 BR SCT020 SCT025 BKN090 28/25 Q1004 NOSIG=
    Wind Dir: 240, Gust: 23, Clouds: ['SCT020', 'SCT025', 'BKN090']
  METAR: 202506202330 METAR VABB 202330Z 24009KT 2500 BR SCT020 SCT025 BKN090 28/25 Q1004 NOSIG=
    Wind Dir: 240, Gust: None, Clouds: ['SCT020', 'SCT025', 'BKN090']
  METAR: 202506210000 METAR VABB 210000Z 24009KT 2500 BR SCT020 SCT025 BKN090 28/25 Q1004 NOSIG=
    Wind Dir: 240, Gust: None, Clouds: ['SCT020', 'SCT025', 'BKN090']
  METAR: 202506210030 METAR VABB 210030Z 24008G18KT 2500 BR SCT020 SCT025 BKN090 28/25 Q1004 NOSIG=
    Wind Dir: 240, Gust: 18, Clouds: ['SCT020', 'SCT025', 'BKN090']
  METAR: 202506210100 METAR VABB 210100Z 24008G18KT 2500 BR SCT020 SCT025 BKN090 29/24 Q1004 BECMG 3000 HZ=
    Wind Dir: 240, Gust: 18, Clouds: ['SCT020', 'SCT025', 'BKN090']
  METAR: 202506210130 METAR VABB 210130Z 24011G22KT 3000 HZ SCT020 SCT025 BKN100 28/24 Q1005 NOSIG=
    Wind Dir: 240, Gust: 22, Clouds: ['SCT020', 'SCT025', 'BKN100']
  METAR: 202506210200 METAR VABB 210200Z 24011G21KT 3000 HZ SCT020 SCT025 BKN100 29/25 Q1005 NOSIG=
    Wind Dir: 240, Gust: 21, Clouds: ['SCT020', 'SCT025', 'BKN100']
  METAR: 202506210230 METAR VABB 210230Z 25011G21KT 3000 HZ FEW020 SCT025 BKN100 29/24 Q1005 NOSIG=
    Wind Dir: 250, Gust: 21, Clouds: ['FEW020', 'SCT025', 'BKN100']
  METAR: 202506210300 METAR VABB 210300Z 25011G21KT 3000 BR FEW020 SCT025 BKN100 29/25 Q1006 NOSIG=
    Wind Dir: 250, Gust: 21, Clouds: ['FEW020', 'SCT025', 'BKN100']

Row 79: Validity 210230 to 210630
  METAR: 202506210230 METAR VABB 210230Z 25011G21KT 3000 HZ FEW020 SCT025 BKN100 29/24 Q1005 NOSIG=
    Wind Dir: 250, Gust: 21, Clouds: ['FEW020', 'SCT025', 'BKN100']
  METAR: 202506210300 METAR VABB 210300Z 25011G21KT 3000 BR FEW020 SCT025 BKN100 29/25 Q1006 NOSIG=
    Wind Dir: 250, Gust: 21, Clouds: ['FEW020', 'SCT025', 'BKN100']
  METAR: 202506210330 METAR VABB 210330Z 25010KT 3000 BR FEW020 SCT025 BKN100 29/24 Q1006 NOSIG=
    Wind Dir: 250, Gust: None, Clouds: ['FEW020', 'SCT025', 'BKN100']
  METAR: 202506210400 METAR COR VABB 210400Z 24007G17KT 3000 BR FEW020 FEW025TCU BKN100 30/24 Q1006 NOSIG=
    Wind Dir: 240, Gust: 17, Clouds: ['FEW020', 'FEW025TCU', 'BKN100']
  METAR: 202506210402 METAR VABB 210402Z 24007G17KT 3000 BR FEW020 FEW025TCU BKN100 30/24 Q1006 NOSIG=
    Wind Dir: 240, Gust: 17, Clouds: ['FEW020', 'FEW025TCU', 'BKN100']
  METAR: 202506210430 METAR VABB 210430Z 26008G18KT 3000 HZ FEW020 SCT025 BKN100 30/24 Q1006 NOSIG=
    Wind Dir: 260, Gust: 18, Clouds: ['FEW020', 'SCT025', 'BKN100']
  METAR: 202506210500 METAR VABB 210500Z 24008G18KT 3000 HZ FEW020 SCT025 BKN100 30/25 Q1006 NOSIG=
    Wind Dir: 240, Gust: 18, Clouds: ['FEW020', 'SCT025', 'BKN100']
  METAR: 202506210530 METAR VABB 210530Z 25015G25KT 3000 HZ FEW020 FEW025 BKN100 30/25 Q1006 NOSIG=
    Wind Dir: 250, Gust: 25, Clouds: ['FEW020', 'FEW025', 'BKN100']
  METAR: 202506210555 METAR VABB 210555Z 25014G24KT 3000 HZ FEW020 FEW025 BKN100 31/25 Q1006 NOSIG=
    Wind Dir: 250, Gust: 24, Clouds: ['FEW020', 'FEW025', 'BKN100']
  METAR: 202506210600 METAR VABB 210600Z 25014G24KT 3000 HZ FEW020 FEW025 BKN100 31/25 Q1006 NOSIG=
    Wind Dir: 250, Gust: 24, Clouds: ['FEW020', 'FEW025', 'BKN100']
  METAR: 202506210630 METAR VABB 210630Z 26016G26KT 3000 HZ FEW020 SCT025 BKN100 31/25 Q1006 NOSIG=
    Wind Dir: 260, Gust: 26, Clouds: ['FEW020', 'SCT025', 'BKN100']
  METAR: 202506210700 METAR VABB 210700Z 25013G23KT 3500 HZ FEW020 SCT025 BKN100 31/25 Q1006 NOSIG=
    Wind Dir: 250, Gust: 23, Clouds: ['FEW020', 'SCT025', 'BKN100']

Row 80: Validity 210630 to 211030
  METAR: 202506210630 METAR VABB 210630Z 26016G26KT 3000 HZ FEW020 SCT025 BKN100 31/25 Q1006 NOSIG=
    Wind Dir: 260, Gust: 26, Clouds: ['FEW020', 'SCT025', 'BKN100']
  METAR: 202506210700 METAR VABB 210700Z 25013G23KT 3500 HZ FEW020 SCT025 BKN100 31/25 Q1006 NOSIG=
    Wind Dir: 250, Gust: 23, Clouds: ['FEW020', 'SCT025', 'BKN100']
  METAR: 202506210730 METAR VABB 210730Z 25014G24KT 3500 HZ FEW020 SCT025 BKN100 31/26 Q1005 NOSIG=
    Wind Dir: 250, Gust: 24, Clouds: ['FEW020', 'SCT025', 'BKN100']
  METAR: 202506210800 METAR VABB 210800Z 25015G25KT 3500 HZ FEW020 FEW025TCU BKN100 31/24 Q1005 NOSIG=
    Wind Dir: 250, Gust: 25, Clouds: ['FEW020', 'FEW025TCU', 'BKN100']
  METAR: 202506210830 METAR VABB 210830Z 20013G23KT 3500 HZ FEW020 FEW025TCU BKN100 31/25 Q1005 NOSIG=
    Wind Dir: 200, Gust: 23, Clouds: ['FEW020', 'FEW025TCU', 'BKN100']
  METAR: 202506210900 METAR VABB 210900Z 20019G29KT 3500 HZ FEW020 FEW025TCU BKN100 32/26 Q1005 NOSIG=
    Wind Dir: 200, Gust: 29, Clouds: ['FEW020', 'FEW025TCU', 'BKN100']
  METAR: 202506210930 METAR VABB 210930Z 21008G18KT 3500 HZ FEW020 SCT025 BKN100 31/25 Q1005 NOSIG=
    Wind Dir: 210, Gust: 18, Clouds: ['FEW020', 'SCT025', 'BKN100']
  METAR: 202506211000 METAR VABB 211000Z 20012G31KT 3500 HZ FEW020 SCT025 BKN100 31/25 Q1004 NOSIG=
    Wind Dir: 200, Gust: 31, Clouds: ['FEW020', 'SCT025', 'BKN100']
  METAR: 202506211030 METAR VABB 211030Z 25011G21KT 3500 HZ FEW020 SCT025 BKN100 31/25 Q1004 NOSIG=
    Wind Dir: 250, Gust: 21, Clouds: ['FEW020', 'SCT025', 'BKN100']
  METAR: 202506211100 METAR VABB 211100Z 23009G19KT 3500 HZ FEW020 SCT025 BKN100 31/25 Q1004 NOSIG=
    Wind Dir: 230, Gust: 19, Clouds: ['FEW020', 'SCT025', 'BKN100']

Row 81: Validity 211030 to 211430
  METAR: 202506211030 METAR VABB 211030Z 25011G21KT 3500 HZ FEW020 SCT025 BKN100 31/25 Q1004 NOSIG=
    Wind Dir: 250, Gust: 21, Clouds: ['FEW020', 'SCT025', 'BKN100']
  METAR: 202506211100 METAR VABB 211100Z 23009G19KT 3500 HZ FEW020 SCT025 BKN100 31/25 Q1004 NOSIG=
    Wind Dir: 230, Gust: 19, Clouds: ['FEW020', 'SCT025', 'BKN100']
  METAR: 202506211130 METAR VABB 211130Z 25008G18KT 3500 HZ FEW020 SCT025 BKN100 30/25 Q1003 NOSIG=
    Wind Dir: 250, Gust: 18, Clouds: ['FEW020', 'SCT025', 'BKN100']
  METAR: 202506211200 METAR VABB 211200Z 25011G21KT 3500 HZ FEW020 SCT025 BKN100 30/25 Q1004 NOSIG=
    Wind Dir: 250, Gust: 21, Clouds: ['FEW020', 'SCT025', 'BKN100']
  METAR: 202506211230 METAR VABB 211230Z 25011G21KT 3500 -SHRA FEW012 SCT018 FEW025TCU BKN100 30/25 Q1004 BECMG 3000 -SHRA=
    Wind Dir: 250, Gust: 21, Clouds: ['FEW012', 'SCT018', 'FEW025TCU', 'BKN100']
  METAR: 202506211300 METAR VABB 211300Z 25008G18KT 3000 -SHRA FEW012 SCT018 FEW025TCU BKN100 29/25 Q1004 NOSIG=
    Wind Dir: 250, Gust: 18, Clouds: ['FEW012', 'SCT018', 'FEW025TCU', 'BKN100']
  METAR: 202506211330 METAR VABB 211330Z 25011KT 3000 HZ FEW012 SCT018 FEW025TCU BKN100 29/25 Q1004 NOSIG=
    Wind Dir: 250, Gust: None, Clouds: ['FEW012', 'SCT018', 'FEW025TCU', 'BKN100']
  METAR: 202506211400 METAR VABB 211400Z 25010KT 3000 HZ FEW012 SCT018 FEW025TCU BKN100 29/25 Q1004 NOSIG=
    Wind Dir: 250, Gust: None, Clouds: ['FEW012', 'SCT018', 'FEW025TCU', 'BKN100']
  METAR: 202506211430 METAR VABB 211430Z 24011G27KT 3000 -SHRA FEW012 SCT018 FEW025TCU BKN100 29/25 Q1005 TEMPO 1500 SHRA=
    Wind Dir: 240, Gust: 27, Clouds: ['FEW012', 'SCT018', 'FEW025TCU', 'BKN100']
  METAR: 202506211500 METAR VABB 211500Z 25007G17KT 3000 HZ FEW012 SCT018 FEW025TCU BKN100 29/25 Q1005 TEMPO 1500 SHRA=
    Wind Dir: 250, Gust: 17, Clouds: ['FEW012', 'SCT018', 'FEW025TCU', 'BKN100']

Row 82: Validity 211430 to 211830
  METAR: 202506211430 METAR VABB 211430Z 24011G27KT 3000 -SHRA FEW012 SCT018 FEW025TCU BKN100 29/25 Q1005 TEMPO 1500 SHRA=
    Wind Dir: 240, Gust: 27, Clouds: ['FEW012', 'SCT018', 'FEW025TCU', 'BKN100']
  METAR: 202506211500 METAR VABB 211500Z 25007G17KT 3000 HZ FEW012 SCT018 FEW025TCU BKN100 29/25 Q1005 TEMPO 1500 SHRA=
    Wind Dir: 250, Gust: 17, Clouds: ['FEW012', 'SCT018', 'FEW025TCU', 'BKN100']
  METAR: 202506211530 METAR VABB 211530Z 25007G17KT 3000 HZ SCT018 FEW025TCU BKN100 29/25 Q1005 NOSIG=
    Wind Dir: 250, Gust: 17, Clouds: ['SCT018', 'FEW025TCU', 'BKN100']
  METAR: 202506211600 METAR VABB 211600Z 24009G19KT 3000 HZ SCT018 FEW025TCU BKN100 29/25 Q1005 NOSIG=
    Wind Dir: 240, Gust: 19, Clouds: ['SCT018', 'FEW025TCU', 'BKN100']
  METAR: 202506211630 METAR VABB 211630Z 24010G26KT 3000 HZ SCT018 FEW025TCU BKN100 29/25 Q1005 NOSIG=
    Wind Dir: 240, Gust: 26, Clouds: ['SCT018', 'FEW025TCU', 'BKN100']
  METAR: 202506211700 METAR VABB 211700Z 24010G20KT 3000 HZ SCT018 FEW025TCU BKN100 29/25 Q1006 NOSIG=
    Wind Dir: 240, Gust: 20, Clouds: ['SCT018', 'FEW025TCU', 'BKN100']
  METAR: 202506211730 METAR VABB 211730Z 24008G18KT 3000 HZ SCT018 FEW025TCU BKN100 29/25 Q1006 NOSIG=
    Wind Dir: 240, Gust: 18, Clouds: ['SCT018', 'FEW025TCU', 'BKN100']
  METAR: 202506211800 METAR VABB 211800Z 24008KT 2500 HZ SCT018 FEW025TCU BKN100 28/25 Q1006 NOSIG=
    Wind Dir: 240, Gust: None, Clouds: ['SCT018', 'FEW025TCU', 'BKN100']
  METAR: 202506211830 METAR VABB 211830Z 27008KT 2500 HZ SCT018 FEW025TCU BKN100 27/24 Q1005 NOSIG=
    Wind Dir: 270, Gust: None, Clouds: ['SCT018', 'FEW025TCU', 'BKN100']
  METAR: 202506211900 METAR VABB 211900Z 26005KT 2200 -RA FEW012 SCT018 FEW025TCU BKN090 28/25 Q1005 TEMPO 1500 SHRA=
    Wind Dir: 260, Gust: None, Clouds: ['FEW012', 'SCT018', 'FEW025TCU', 'BKN090']

Row 83: Validity 211830 to 212230
  METAR: 202506211830 METAR VABB 211830Z 27008KT 2500 HZ SCT018 FEW025TCU BKN100 27/24 Q1005 NOSIG=
    Wind Dir: 270, Gust: None, Clouds: ['SCT018', 'FEW025TCU', 'BKN100']
  METAR: 202506211900 METAR VABB 211900Z 26005KT 2200 -RA FEW012 SCT018 FEW025TCU BKN090 28/25 Q1005 TEMPO 1500 SHRA=
    Wind Dir: 260, Gust: None, Clouds: ['FEW012', 'SCT018', 'FEW025TCU', 'BKN090']
  METAR: 202506211930 METAR VABB 211930Z 24008KT 2200 -DZ FEW012 SCT018 FEW025TCU BKN090 28/25 Q1005 NOSIG=
    Wind Dir: 240, Gust: None, Clouds: ['FEW012', 'SCT018', 'FEW025TCU', 'BKN090']
  METAR: 202506212000 METAR VABB 212000Z 25008G18KT 2200 HZ SCT018 FEW025TCU BKN090 28/25 Q1004 NOSIG=
    Wind Dir: 250, Gust: 18, Clouds: ['SCT018', 'FEW025TCU', 'BKN090']
  METAR: 202506212030 METAR VABB 212030Z 25008G18KT 2200 HZ SCT018 FEW025TCU BKN090 28/25 Q1004 NOSIG=
    Wind Dir: 250, Gust: 18, Clouds: ['SCT018', 'FEW025TCU', 'BKN090']
  METAR: 202506212100 METAR VABB 212100Z 24009G20KT 2200 HZ SCT018 FEW025TCU BKN090 28/25 Q1004 NOSIG=
    Wind Dir: 240, Gust: 20, Clouds: ['SCT018', 'FEW025TCU', 'BKN090']
  METAR: 202506212130 METAR VABB 212130Z 24010G20KT 2200 HZ SCT018 FEW025TCU BKN090 28/25 Q1003 NOSIG=
    Wind Dir: 240, Gust: 20, Clouds: ['SCT018', 'FEW025TCU', 'BKN090']
  METAR: 202506212200 METAR VABB 212200Z 24008KT 2200 HZ SCT018 FEW025TCU BKN090 28/25 Q1003 NOSIG=
    Wind Dir: 240, Gust: None, Clouds: ['SCT018', 'FEW025TCU', 'BKN090']
  METAR: 202506212230 METAR VABB 212230Z 24009KT 2200 HZ SCT018 FEW025TCU BKN090 28/24 Q1003 NOSIG=
    Wind Dir: 240, Gust: None, Clouds: ['SCT018', 'FEW025TCU', 'BKN090']
  METAR: 202506212300 METAR VABB 212300Z 24010G20KT 2200 HZ SCT018 FEW025TCU BKN090 28/24 Q1003 TEMPO 1500 SHRA=
    Wind Dir: 240, Gust: 20, Clouds: ['SCT018', 'FEW025TCU', 'BKN090']

Row 84: Validity 212230 to 220230
  METAR: 202506212230 METAR VABB 212230Z 24009KT 2200 HZ SCT018 FEW025TCU BKN090 28/24 Q1003 NOSIG=
    Wind Dir: 240, Gust: None, Clouds: ['SCT018', 'FEW025TCU', 'BKN090']
  METAR: 202506212300 METAR VABB 212300Z 24010G20KT 2200 HZ SCT018 FEW025TCU BKN090 28/24 Q1003 TEMPO 1500 SHRA=
    Wind Dir: 240, Gust: 20, Clouds: ['SCT018', 'FEW025TCU', 'BKN090']
  METAR: 202506212330 METAR VABB 212330Z 23008G18KT 2200 -SHRA SCT018 FEW025TCU BKN090 28/25 Q1003 TEMPO 1500 SHRA=
    Wind Dir: 230, Gust: 18, Clouds: ['SCT018', 'FEW025TCU', 'BKN090']
  METAR: 202506220000 METAR VABB 220000Z 26016G27KT 1800 -RA FEW012 SCT018 FEW025TCU BKN090 25/23 Q1004 TEMPO 1500 SHRA=
    Wind Dir: 260, Gust: 27, Clouds: ['FEW012', 'SCT018', 'FEW025TCU', 'BKN090']
  METAR: 202506220030 METAR VABB 220030Z 24006KT 2100 BR FEW012 SCT018 FEW030CB OVC090 26/24 Q1003 TEMPO 1500 SHRA=
    Wind Dir: 240, Gust: None, Clouds: ['FEW012', 'SCT018', 'FEW030CB', 'OVC090']
  METAR: 202506220100 METAR VABB 220100Z 24009G19KT 2100 BR FEW012 SCT018 FEW025TCU BKN090 27/25 Q1004 NOSIG=
    Wind Dir: 240, Gust: 19, Clouds: ['FEW012', 'SCT018', 'FEW025TCU', 'BKN090']
  METAR: 202506220130 METAR VABB 220130Z 25007G17KT 2500 HZ SCT018 FEW025TCU BKN090 28/25 Q1004 NOSIG=
    Wind Dir: 250, Gust: 17, Clouds: ['SCT018', 'FEW025TCU', 'BKN090']
  METAR: 202506220200 METAR VABB 220200Z 25008G18KT 2500 HZ SCT018 FEW025TCU BKN090 28/25 Q1004 NOSIG=
    Wind Dir: 250, Gust: 18, Clouds: ['SCT018', 'FEW025TCU', 'BKN090']
  METAR: 202506220230 METAR VABB 220230Z 25008KT 2500 HZ SCT018 FEW025TCU BKN090 28/23 Q1005 NOSIG=
    Wind Dir: 250, Gust: None, Clouds: ['SCT018', 'FEW025TCU', 'BKN090']
  METAR: 202506220300 METAR VABB 220300Z 24007G17KT 2500 HZ SCT018 FEW025TCU BKN090 28/23 Q1005 NOSIG=
    Wind Dir: 240, Gust: 17, Clouds: ['SCT018', 'FEW025TCU', 'BKN090']

Row 85: Validity 230030 to 230430
  METAR: 202506230030 METAR VABB 230030Z 24009G19KT 2500 BR SCT020 FEW025TCU BKN100 28/25 Q1002 NOSIG=
    Wind Dir: 240, Gust: 19, Clouds: ['SCT020', 'FEW025TCU', 'BKN100']
  METAR: 202506230100 METAR VABB 230100Z 24010G20KT 2500 BR SCT020 FEW025TCU BKN100 28/25 Q1002 NOSIG=
    Wind Dir: 240, Gust: 20, Clouds: ['SCT020', 'FEW025TCU', 'BKN100']
  METAR: 202506230130 METAR VABB 230130Z 25008KT 2500 BR SCT020 FEW025TCU BKN100 28/25 Q1002 NOSIG=
    Wind Dir: 250, Gust: None, Clouds: ['SCT020', 'FEW025TCU', 'BKN100']
  METAR: 202506230200 METAR VABB 230200Z 25012G22KT 2500 -RA FEW012 SCT018 FEW025TCU BKN100 27/25 Q1003 NOSIG=
    Wind Dir: 250, Gust: 22, Clouds: ['FEW012', 'SCT018', 'FEW025TCU', 'BKN100']
  METAR: 202506230230 METAR VABB 230230Z 26013G23KT 2500 -DZ FEW012 SCT018 FEW025TCU BKN100 28/25 Q1003 NOSIG=
    Wind Dir: 260, Gust: 23, Clouds: ['FEW012', 'SCT018', 'FEW025TCU', 'BKN100']
  METAR: 202506230300 METAR VABB 230300Z 25015G25KT 2500 BR FEW012 SCT018 FEW025TCU BKN100 29/25 Q1003 NOSIG=
    Wind Dir: 250, Gust: 25, Clouds: ['FEW012', 'SCT018', 'FEW025TCU', 'BKN100']
  METAR: 202506230330 METAR VABB 230330Z 24012G22KT 2500 BR FEW012 SCT018 FEW025TCU BKN100 29/25 Q1003 NOSIG=
    Wind Dir: 240, Gust: 22, Clouds: ['FEW012', 'SCT018', 'FEW025TCU', 'BKN100']
  METAR: 202506230400 METAR VABB 230400Z 25008G18KT 2500 DZ FEW012 SCT018 FEW025TCU BKN090 29/25 Q1003 TEMPO 1500 SHRA=
    Wind Dir: 250, Gust: 18, Clouds: ['FEW012', 'SCT018', 'FEW025TCU', 'BKN090']
  METAR: 202506230430 METAR VABB 230430Z 24011G21KT 2500 HZ FEW012 SCT018 FEW025TCU BKN090 29/25 Q1003 NOSIG=
    Wind Dir: 240, Gust: 21, Clouds: ['FEW012', 'SCT018', 'FEW025TCU', 'BKN090']
  METAR: 202506230500 METAR VABB 230500Z 24010G20KT 2500 BR FEW012 SCT018 FEW030CB BKN090 29/25 Q1003 TEMPO 1500 SHRA=
    Wind Dir: 240, Gust: 20, Clouds: ['FEW012', 'SCT018', 'FEW030CB', 'BKN090']

Row 86: Validity 230430 to 230830
  METAR: 202506230430 METAR VABB 230430Z 24011G21KT 2500 HZ FEW012 SCT018 FEW025TCU BKN090 29/25 Q1003 NOSIG=
    Wind Dir: 240, Gust: 21, Clouds: ['FEW012', 'SCT018', 'FEW025TCU', 'BKN090']
  METAR: 202506230500 METAR VABB 230500Z 24010G20KT 2500 BR FEW012 SCT018 FEW030CB BKN090 29/25 Q1003 TEMPO 1500 SHRA=
    Wind Dir: 240, Gust: 20, Clouds: ['FEW012', 'SCT018', 'FEW030CB', 'BKN090']
  METAR: 202506230530 METAR VABB 230530Z 24013G23KT 2500 -SHRA FEW012 SCT018 FEW030CB BKN090 28/25 Q1003 TEMPO 1500 SHRA=
    Wind Dir: 240, Gust: 23, Clouds: ['FEW012', 'SCT018', 'FEW030CB', 'BKN090']
  METAR: 202506230600 METAR VABB 230600Z 24012G22KT 2500 -DZ FEW012 SCT018 FEW030CB BKN090 29/25 Q1003 TEMPO 1500 SHRA=
    Wind Dir: 240, Gust: 22, Clouds: ['FEW012', 'SCT018', 'FEW030CB', 'BKN090']
  METAR: 202506230630 METAR VABB 230630Z 23017G27KT 2500 -DZ FEW012 SCT018 FEW030CB BKN090 29/25 Q1003 TEMPO 1500 SHRA=
    Wind Dir: 230, Gust: 27, Clouds: ['FEW012', 'SCT018', 'FEW030CB', 'BKN090']
  METAR: 202506230700 METAR VABB 230700Z 25012KT 2500 HZ FEW012 SCT018 FEW030CB BKN090 29/25 Q1003 NOSIG=
    Wind Dir: 250, Gust: None, Clouds: ['FEW012', 'SCT018', 'FEW030CB', 'BKN090']
  METAR: 202506230730 METAR VABB 230730Z 25009G19KT 1900 RA FEW010 SCT018 FEW030CB OVC090 30/25 Q1002 TEMPO 1500 SHRA=
    Wind Dir: 250, Gust: 19, Clouds: ['FEW010', 'SCT018', 'FEW030CB', 'OVC090']
  METAR: 202506230800 METAR VABB 230800Z 25009G19KT 2500 -DZ FEW010 SCT018 FEW030CB OVC090 29/25 Q1002 TEMPO 1500 SHRA=
    Wind Dir: 250, Gust: 19, Clouds: ['FEW010', 'SCT018', 'FEW030CB', 'OVC090']
  METAR: 202506230830 METAR VABB 230830Z 25010G20KT 2500 HZ FEW010 SCT018 FEW030CB OVC090 29/25 Q1002 TEMPO 1500 SHRA=
    Wind Dir: 250, Gust: 20, Clouds: ['FEW010', 'SCT018', 'FEW030CB', 'OVC090']
  METAR: 202506230900 METAR VABB 230900Z 26010G20KT 2500 DZ FEW010 SCT018 FEW030CB OVC080 29/25 Q1002 TEMPO 1500 SHRA=
    Wind Dir: 260, Gust: 20, Clouds: ['FEW010', 'SCT018', 'FEW030CB', 'OVC080']

Row 87: Validity 230830 to 231230
  METAR: 202506230830 METAR VABB 230830Z 25010G20KT 2500 HZ FEW010 SCT018 FEW030CB OVC090 29/25 Q1002 TEMPO 1500 SHRA=
    Wind Dir: 250, Gust: 20, Clouds: ['FEW010', 'SCT018', 'FEW030CB', 'OVC090']
  METAR: 202506230900 METAR VABB 230900Z 26010G20KT 2500 DZ FEW010 SCT018 FEW030CB OVC080 29/25 Q1002 TEMPO 1500 SHRA=
    Wind Dir: 260, Gust: 20, Clouds: ['FEW010', 'SCT018', 'FEW030CB', 'OVC080']
  METAR: 202506230930 METAR VABB 230930Z 26012KT 2500 HZ FEW012 SCT020 FEW030CB OVC080 29/25 Q1001 TEMPO 1500 SHRA=
    Wind Dir: 260, Gust: None, Clouds: ['FEW012', 'SCT020', 'FEW030CB', 'OVC080']
  METAR: 202506231000 METAR VABB 231000Z 26008G18KT 2500 HZ SCT020 FEW030CB BKN090 30/25 Q1001 NOSIG=
    Wind Dir: 260, Gust: 18, Clouds: ['SCT020', 'FEW030CB', 'BKN090']
  METAR: 202506231030 METAR VABB 231030Z 25010G20KT 2500 HZ SCT020 FEW025TCU BKN090 30/25 Q1001 NOSIG=
    Wind Dir: 250, Gust: 20, Clouds: ['SCT020', 'FEW025TCU', 'BKN090']
  METAR: 202506231100 METAR VABB 231100Z 25012G22KT 2500 HZ SCT020 FEW025TCU BKN090 30/25 Q1001 NOSIG=
    Wind Dir: 250, Gust: 22, Clouds: ['SCT020', 'FEW025TCU', 'BKN090']
  METAR: 202506231130 METAR VABB 231130Z 24013G25KT 2500 HZ SCT020 FEW025TCU BKN090 30/25 Q1001 NOSIG=
    Wind Dir: 240, Gust: 25, Clouds: ['SCT020', 'FEW025TCU', 'BKN090']
  METAR: 202506231200 METAR VABB 231200Z 25013G27KT 2500 HZ SCT018 FEW025TCU BKN090 29/25 Q1000 NOSIG=
    Wind Dir: 250, Gust: 27, Clouds: ['SCT018', 'FEW025TCU', 'BKN090']
  METAR: 202506231230 METAR VABB 231230Z 25008G18KT 2500 HZ SCT018 FEW025TCU BKN090 29/25 Q1001 NOSIG=
    Wind Dir: 250, Gust: 18, Clouds: ['SCT018', 'FEW025TCU', 'BKN090']
  METAR: 202506231300 METAR VABB 231300Z 25011G24KT 2500 HZ SCT018 FEW025TCU BKN090 29/25 Q1000 NOSIG=
    Wind Dir: 250, Gust: 24, Clouds: ['SCT018', 'FEW025TCU', 'BKN090']

Row 88: Validity 231230 to 231630
  METAR: 202506231230 METAR VABB 231230Z 25008G18KT 2500 HZ SCT018 FEW025TCU BKN090 29/25 Q1001 NOSIG=
    Wind Dir: 250, Gust: 18, Clouds: ['SCT018', 'FEW025TCU', 'BKN090']
  METAR: 202506231300 METAR VABB 231300Z 25011G24KT 2500 HZ SCT018 FEW025TCU BKN090 29/25 Q1000 NOSIG=
    Wind Dir: 250, Gust: 24, Clouds: ['SCT018', 'FEW025TCU', 'BKN090']
  METAR: 202506231330 METAR VABB 231330Z 24011G21KT 2500 HZ SCT018 FEW025TCU BKN090 29/25 Q1001 NOSIG=
    Wind Dir: 240, Gust: 21, Clouds: ['SCT018', 'FEW025TCU', 'BKN090']
  METAR: 202506231400 METAR VABB 231400Z 25010G20KT 2500 HZ FEW010 SCT018 FEW030CB OVC080 27/25 Q1001 TEMPO 1500 SHRA=
    Wind Dir: 250, Gust: 20, Clouds: ['FEW010', 'SCT018', 'FEW030CB', 'OVC080']
  METAR: 202506231430 METAR VABB 231430Z 24011G24KT 2500 -DZ FEW012 SCT018 FEW030CB OVC080 26/24 Q1001 TEMPO 1500 SHRA=
    Wind Dir: 240, Gust: 24, Clouds: ['FEW012', 'SCT018', 'FEW030CB', 'OVC080']
  METAR: 202506231500 METAR VABB 231500Z 25008KT 2500 BR FEW012 SCT018 FEW030CB OVC080 26/24 Q1001 TEMPO 1500 SHRA=
    Wind Dir: 250, Gust: None, Clouds: ['FEW012', 'SCT018', 'FEW030CB', 'OVC080']
  METAR: 202506231530 METAR VABB 231530Z 24008KT 2500 BR FEW012 SCT018 FEW030CB OVC080 27/25 Q1002 TEMPO 1500 SHRA=
    Wind Dir: 240, Gust: None, Clouds: ['FEW012', 'SCT018', 'FEW030CB', 'OVC080']
  METAR: 202506231600 METAR VABB 231600Z 28011KT 2500 -RA FEW012 SCT018 FEW030CB OVC080 26/24 Q1002 TEMPO 1500 SHRA=
    Wind Dir: 280, Gust: None, Clouds: ['FEW012', 'SCT018', 'FEW030CB', 'OVC080']
  METAR: 202506231630 METAR VABB 231630Z 24007KT 2500 -RA FEW012 SCT018 FEW030CB OVC080 26/24 Q1002 TEMPO 1500 SHRA=
    Wind Dir: 240, Gust: None, Clouds: ['FEW012', 'SCT018', 'FEW030CB', 'OVC080']
  METAR: 202506231700 METAR VABB 231700Z 24007KT 2500 -RA FEW012 SCT018 FEW030CB OVC080 26/24 Q1002 TEMPO 1500 SHRA=
    Wind Dir: 240, Gust: None, Clouds: ['FEW012', 'SCT018', 'FEW030CB', 'OVC080']

Row 89: Validity 231630 to 232030
  METAR: 202506231630 METAR VABB 231630Z 24007KT 2500 -RA FEW012 SCT018 FEW030CB OVC080 26/24 Q1002 TEMPO 1500 SHRA=
    Wind Dir: 240, Gust: None, Clouds: ['FEW012', 'SCT018', 'FEW030CB', 'OVC080']
  METAR: 202506231700 METAR VABB 231700Z 24007KT 2500 -RA FEW012 SCT018 FEW030CB OVC080 26/24 Q1002 TEMPO 1500 SHRA=
    Wind Dir: 240, Gust: None, Clouds: ['FEW012', 'SCT018', 'FEW030CB', 'OVC080']
  METAR: 202506231730 METAR VABB 231730Z 25015KT 2500 -RA FEW012 SCT018 FEW030CB OVC080 26/24 Q1002 TEMPO 1500 SHRA=
    Wind Dir: 250, Gust: None, Clouds: ['FEW012', 'SCT018', 'FEW030CB', 'OVC080']
  METAR: 202506231800 METAR VABB 231800Z 25012KT 2500 -RA FEW012 SCT018 FEW030CB OVC080 26/24 Q1002 TEMPO 1500 SHRA=
    Wind Dir: 250, Gust: None, Clouds: ['FEW012', 'SCT018', 'FEW030CB', 'OVC080']
  METAR: 202506231830 METAR VABB 231830Z 26011KT 2500 BR FEW012 SCT018 FEW030CB OVC080 26/24 Q1002 TEMPO 1500 SHRA=
    Wind Dir: 260, Gust: None, Clouds: ['FEW012', 'SCT018', 'FEW030CB', 'OVC080']
  METAR: 202506231900 METAR VABB 231900Z 26011KT 2500 BR FEW012 SCT018 FEW030CB OVC080 26/24 Q1002 TEMPO 1500 SHRA=
    Wind Dir: 260, Gust: None, Clouds: ['FEW012', 'SCT018', 'FEW030CB', 'OVC080']
  METAR: 202506231930 METAR VABB 231930Z 24004KT 2500 BR FEW012 SCT018 FEW030CB OVC080 26/24 Q1001 TEMPO 1500 SHRA=
    Wind Dir: 240, Gust: None, Clouds: ['FEW012', 'SCT018', 'FEW030CB', 'OVC080']
  METAR: 202506232000 METAR VABB 232000Z 24009G19KT 2500 SHRA FEW012 SCT018 FEW030CB OVC080 26/25 Q1000 TEMPO 1500 SHRA=
    Wind Dir: 240, Gust: 19, Clouds: ['FEW012', 'SCT018', 'FEW030CB', 'OVC080']
  METAR: 202506232030 METAR VABB 232030Z 26010KT 2500 SHRA FEW012 SCT018 FEW030CB OVC080 27/25 Q1000 TEMPO 1500 SHRA=
    Wind Dir: 260, Gust: None, Clouds: ['FEW012', 'SCT018', 'FEW030CB', 'OVC080']
  METAR: 202506232100 METAR VABB 232100Z 28016G26KT 2500 -SHRA FEW012 SCT018 FEW030CB OVC080 26/23 Q1000 TEMPO 1500 SHRA=
    Wind Dir: 280, Gust: 26, Clouds: ['FEW012', 'SCT018', 'FEW030CB', 'OVC080']

Row 90: Validity 232030 to 240030
  METAR: 202506232030 METAR VABB 232030Z 26010KT 2500 SHRA FEW012 SCT018 FEW030CB OVC080 27/25 Q1000 TEMPO 1500 SHRA=
    Wind Dir: 260, Gust: None, Clouds: ['FEW012', 'SCT018', 'FEW030CB', 'OVC080']
  METAR: 202506232100 METAR VABB 232100Z 28016G26KT 2500 -SHRA FEW012 SCT018 FEW030CB OVC080 26/23 Q1000 TEMPO 1500 SHRA=
    Wind Dir: 280, Gust: 26, Clouds: ['FEW012', 'SCT018', 'FEW030CB', 'OVC080']
  METAR: 202506232130 METAR VABB 232130Z 31015G27KT 1500 R27/2000 +RA FEW012 SCT018 FEW030CB OVC080 23/22 Q1001 TEMPO 0800 +RA=
    Wind Dir: 310, Gust: 27, Clouds: ['FEW012', 'SCT018', 'FEW030CB', 'OVC080']
  METAR: 202506232200 METAR VABB 232200Z 00000KT 2500 -RA FEW012 SCT018 FEW030CB OVC080 24/21 Q1000 TEMPO 1500 SHRA=
    Wind Dir: 0, Gust: None, Clouds: ['FEW012', 'SCT018', 'FEW030CB', 'OVC080']
  METAR: 202506232230 METAR VABB 232230Z 31005KT 2500 -RA FEW012 SCT018 FEW030CB OVC080 25/23 Q1000 TEMPO 1500 SHRA=
    Wind Dir: 310, Gust: None, Clouds: ['FEW012', 'SCT018', 'FEW030CB', 'OVC080']
  METAR: 202506232300 METAR VABB 232300Z 25007KT 2500 -RA FEW012 SCT018 FEW030CB OVC080 25/23 Q1000 TEMPO 1500 SHRA=
    Wind Dir: 250, Gust: None, Clouds: ['FEW012', 'SCT018', 'FEW030CB', 'OVC080']
  METAR: 202506232330 METAR VABB 232330Z 22004KT 2500 -RA FEW012 SCT018 FEW030CB OVC080 26/24 Q1000 TEMPO 1500 SHRA=
    Wind Dir: 220, Gust: None, Clouds: ['FEW012', 'SCT018', 'FEW030CB', 'OVC080']
  METAR: 202506240000 METAR VABB 240000Z 20004KT 2500 -RA FEW012 SCT018 FEW030CB OVC080 24/22 Q1000 TEMPO 1500 SHRA=
    Wind Dir: 200, Gust: None, Clouds: ['FEW012', 'SCT018', 'FEW030CB', 'OVC080']
  METAR: 202506240030 METAR VABB 240030Z 28014KT 2500 -RA FEW012 SCT018 FEW030CB OVC080 28/26 Q1000 TEMPO 1500 SHRA=
    Wind Dir: 280, Gust: None, Clouds: ['FEW012', 'SCT018', 'FEW030CB', 'OVC080']
  METAR: 202506240100 METAR VABB 240100Z 23010G20KT 2500 -DZ FEW012 SCT018 FEW030CB OVC080 26/22 Q1001 TEMPO 1500 SHRA=
    Wind Dir: 230, Gust: 20, Clouds: ['FEW012', 'SCT018', 'FEW030CB', 'OVC080']

Row 91: Validity 230030 to 230430
  METAR: 202506230030 METAR VABB 230030Z 24009G19KT 2500 BR SCT020 FEW025TCU BKN100 28/25 Q1002 NOSIG=
    Wind Dir: 240, Gust: 19, Clouds: ['SCT020', 'FEW025TCU', 'BKN100']
  METAR: 202506230100 METAR VABB 230100Z 24010G20KT 2500 BR SCT020 FEW025TCU BKN100 28/25 Q1002 NOSIG=
    Wind Dir: 240, Gust: 20, Clouds: ['SCT020', 'FEW025TCU', 'BKN100']
  METAR: 202506230130 METAR VABB 230130Z 25008KT 2500 BR SCT020 FEW025TCU BKN100 28/25 Q1002 NOSIG=
    Wind Dir: 250, Gust: None, Clouds: ['SCT020', 'FEW025TCU', 'BKN100']
  METAR: 202506230200 METAR VABB 230200Z 25012G22KT 2500 -RA FEW012 SCT018 FEW025TCU BKN100 27/25 Q1003 NOSIG=
    Wind Dir: 250, Gust: 22, Clouds: ['FEW012', 'SCT018', 'FEW025TCU', 'BKN100']
  METAR: 202506230230 METAR VABB 230230Z 26013G23KT 2500 -DZ FEW012 SCT018 FEW025TCU BKN100 28/25 Q1003 NOSIG=
    Wind Dir: 260, Gust: 23, Clouds: ['FEW012', 'SCT018', 'FEW025TCU', 'BKN100']
  METAR: 202506230300 METAR VABB 230300Z 25015G25KT 2500 BR FEW012 SCT018 FEW025TCU BKN100 29/25 Q1003 NOSIG=
    Wind Dir: 250, Gust: 25, Clouds: ['FEW012', 'SCT018', 'FEW025TCU', 'BKN100']
  METAR: 202506230330 METAR VABB 230330Z 24012G22KT 2500 BR FEW012 SCT018 FEW025TCU BKN100 29/25 Q1003 NOSIG=
    Wind Dir: 240, Gust: 22, Clouds: ['FEW012', 'SCT018', 'FEW025TCU', 'BKN100']
  METAR: 202506230400 METAR VABB 230400Z 25008G18KT 2500 DZ FEW012 SCT018 FEW025TCU BKN090 29/25 Q1003 TEMPO 1500 SHRA=
    Wind Dir: 250, Gust: 18, Clouds: ['FEW012', 'SCT018', 'FEW025TCU', 'BKN090']
  METAR: 202506230430 METAR VABB 230430Z 24011G21KT 2500 HZ FEW012 SCT018 FEW025TCU BKN090 29/25 Q1003 NOSIG=
    Wind Dir: 240, Gust: 21, Clouds: ['FEW012', 'SCT018', 'FEW025TCU', 'BKN090']
  METAR: 202506230500 METAR VABB 230500Z 24010G20KT 2500 BR FEW012 SCT018 FEW030CB BKN090 29/25 Q1003 TEMPO 1500 SHRA=
    Wind Dir: 240, Gust: 20, Clouds: ['FEW012', 'SCT018', 'FEW030CB', 'BKN090']

Row 92: Validity 230430 to 230830
  METAR: 202506230430 METAR VABB 230430Z 24011G21KT 2500 HZ FEW012 SCT018 FEW025TCU BKN090 29/25 Q1003 NOSIG=
    Wind Dir: 240, Gust: 21, Clouds: ['FEW012', 'SCT018', 'FEW025TCU', 'BKN090']
  METAR: 202506230500 METAR VABB 230500Z 24010G20KT 2500 BR FEW012 SCT018 FEW030CB BKN090 29/25 Q1003 TEMPO 1500 SHRA=
    Wind Dir: 240, Gust: 20, Clouds: ['FEW012', 'SCT018', 'FEW030CB', 'BKN090']
  METAR: 202506230530 METAR VABB 230530Z 24013G23KT 2500 -SHRA FEW012 SCT018 FEW030CB BKN090 28/25 Q1003 TEMPO 1500 SHRA=
    Wind Dir: 240, Gust: 23, Clouds: ['FEW012', 'SCT018', 'FEW030CB', 'BKN090']
  METAR: 202506230600 METAR VABB 230600Z 24012G22KT 2500 -DZ FEW012 SCT018 FEW030CB BKN090 29/25 Q1003 TEMPO 1500 SHRA=
    Wind Dir: 240, Gust: 22, Clouds: ['FEW012', 'SCT018', 'FEW030CB', 'BKN090']
  METAR: 202506230630 METAR VABB 230630Z 23017G27KT 2500 -DZ FEW012 SCT018 FEW030CB BKN090 29/25 Q1003 TEMPO 1500 SHRA=
    Wind Dir: 230, Gust: 27, Clouds: ['FEW012', 'SCT018', 'FEW030CB', 'BKN090']
  METAR: 202506230700 METAR VABB 230700Z 25012KT 2500 HZ FEW012 SCT018 FEW030CB BKN090 29/25 Q1003 NOSIG=
    Wind Dir: 250, Gust: None, Clouds: ['FEW012', 'SCT018', 'FEW030CB', 'BKN090']
  METAR: 202506230730 METAR VABB 230730Z 25009G19KT 1900 RA FEW010 SCT018 FEW030CB OVC090 30/25 Q1002 TEMPO 1500 SHRA=
    Wind Dir: 250, Gust: 19, Clouds: ['FEW010', 'SCT018', 'FEW030CB', 'OVC090']
  METAR: 202506230800 METAR VABB 230800Z 25009G19KT 2500 -DZ FEW010 SCT018 FEW030CB OVC090 29/25 Q1002 TEMPO 1500 SHRA=
    Wind Dir: 250, Gust: 19, Clouds: ['FEW010', 'SCT018', 'FEW030CB', 'OVC090']
  METAR: 202506230830 METAR VABB 230830Z 25010G20KT 2500 HZ FEW010 SCT018 FEW030CB OVC090 29/25 Q1002 TEMPO 1500 SHRA=
    Wind Dir: 250, Gust: 20, Clouds: ['FEW010', 'SCT018', 'FEW030CB', 'OVC090']
  METAR: 202506230900 METAR VABB 230900Z 26010G20KT 2500 DZ FEW010 SCT018 FEW030CB OVC080 29/25 Q1002 TEMPO 1500 SHRA=
    Wind Dir: 260, Gust: 20, Clouds: ['FEW010', 'SCT018', 'FEW030CB', 'OVC080']

Row 93: Validity 230830 to 231230
  METAR: 202506230830 METAR VABB 230830Z 25010G20KT 2500 HZ FEW010 SCT018 FEW030CB OVC090 29/25 Q1002 TEMPO 1500 SHRA=
    Wind Dir: 250, Gust: 20, Clouds: ['FEW010', 'SCT018', 'FEW030CB', 'OVC090']
  METAR: 202506230900 METAR VABB 230900Z 26010G20KT 2500 DZ FEW010 SCT018 FEW030CB OVC080 29/25 Q1002 TEMPO 1500 SHRA=
    Wind Dir: 260, Gust: 20, Clouds: ['FEW010', 'SCT018', 'FEW030CB', 'OVC080']
  METAR: 202506230930 METAR VABB 230930Z 26012KT 2500 HZ FEW012 SCT020 FEW030CB OVC080 29/25 Q1001 TEMPO 1500 SHRA=
    Wind Dir: 260, Gust: None, Clouds: ['FEW012', 'SCT020', 'FEW030CB', 'OVC080']
  METAR: 202506231000 METAR VABB 231000Z 26008G18KT 2500 HZ SCT020 FEW030CB BKN090 30/25 Q1001 NOSIG=
    Wind Dir: 260, Gust: 18, Clouds: ['SCT020', 'FEW030CB', 'BKN090']
  METAR: 202506231030 METAR VABB 231030Z 25010G20KT 2500 HZ SCT020 FEW025TCU BKN090 30/25 Q1001 NOSIG=
    Wind Dir: 250, Gust: 20, Clouds: ['SCT020', 'FEW025TCU', 'BKN090']
  METAR: 202506231100 METAR VABB 231100Z 25012G22KT 2500 HZ SCT020 FEW025TCU BKN090 30/25 Q1001 NOSIG=
    Wind Dir: 250, Gust: 22, Clouds: ['SCT020', 'FEW025TCU', 'BKN090']
  METAR: 202506231130 METAR VABB 231130Z 24013G25KT 2500 HZ SCT020 FEW025TCU BKN090 30/25 Q1001 NOSIG=
    Wind Dir: 240, Gust: 25, Clouds: ['SCT020', 'FEW025TCU', 'BKN090']
  METAR: 202506231200 METAR VABB 231200Z 25013G27KT 2500 HZ SCT018 FEW025TCU BKN090 29/25 Q1000 NOSIG=
    Wind Dir: 250, Gust: 27, Clouds: ['SCT018', 'FEW025TCU', 'BKN090']
  METAR: 202506231230 METAR VABB 231230Z 25008G18KT 2500 HZ SCT018 FEW025TCU BKN090 29/25 Q1001 NOSIG=
    Wind Dir: 250, Gust: 18, Clouds: ['SCT018', 'FEW025TCU', 'BKN090']
  METAR: 202506231300 METAR VABB 231300Z 25011G24KT 2500 HZ SCT018 FEW025TCU BKN090 29/25 Q1000 NOSIG=
    Wind Dir: 250, Gust: 24, Clouds: ['SCT018', 'FEW025TCU', 'BKN090']

Row 94: Validity 231230 to 231630
  METAR: 202506231230 METAR VABB 231230Z 25008G18KT 2500 HZ SCT018 FEW025TCU BKN090 29/25 Q1001 NOSIG=
    Wind Dir: 250, Gust: 18, Clouds: ['SCT018', 'FEW025TCU', 'BKN090']
  METAR: 202506231300 METAR VABB 231300Z 25011G24KT 2500 HZ SCT018 FEW025TCU BKN090 29/25 Q1000 NOSIG=
    Wind Dir: 250, Gust: 24, Clouds: ['SCT018', 'FEW025TCU', 'BKN090']
  METAR: 202506231330 METAR VABB 231330Z 24011G21KT 2500 HZ SCT018 FEW025TCU BKN090 29/25 Q1001 NOSIG=
    Wind Dir: 240, Gust: 21, Clouds: ['SCT018', 'FEW025TCU', 'BKN090']
  METAR: 202506231400 METAR VABB 231400Z 25010G20KT 2500 HZ FEW010 SCT018 FEW030CB OVC080 27/25 Q1001 TEMPO 1500 SHRA=
    Wind Dir: 250, Gust: 20, Clouds: ['FEW010', 'SCT018', 'FEW030CB', 'OVC080']
  METAR: 202506231430 METAR VABB 231430Z 24011G24KT 2500 -DZ FEW012 SCT018 FEW030CB OVC080 26/24 Q1001 TEMPO 1500 SHRA=
    Wind Dir: 240, Gust: 24, Clouds: ['FEW012', 'SCT018', 'FEW030CB', 'OVC080']
  METAR: 202506231500 METAR VABB 231500Z 25008KT 2500 BR FEW012 SCT018 FEW030CB OVC080 26/24 Q1001 TEMPO 1500 SHRA=
    Wind Dir: 250, Gust: None, Clouds: ['FEW012', 'SCT018', 'FEW030CB', 'OVC080']
  METAR: 202506231530 METAR VABB 231530Z 24008KT 2500 BR FEW012 SCT018 FEW030CB OVC080 27/25 Q1002 TEMPO 1500 SHRA=
    Wind Dir: 240, Gust: None, Clouds: ['FEW012', 'SCT018', 'FEW030CB', 'OVC080']
  METAR: 202506231600 METAR VABB 231600Z 28011KT 2500 -RA FEW012 SCT018 FEW030CB OVC080 26/24 Q1002 TEMPO 1500 SHRA=
    Wind Dir: 280, Gust: None, Clouds: ['FEW012', 'SCT018', 'FEW030CB', 'OVC080']
  METAR: 202506231630 METAR VABB 231630Z 24007KT 2500 -RA FEW012 SCT018 FEW030CB OVC080 26/24 Q1002 TEMPO 1500 SHRA=
    Wind Dir: 240, Gust: None, Clouds: ['FEW012', 'SCT018', 'FEW030CB', 'OVC080']
  METAR: 202506231700 METAR VABB 231700Z 24007KT 2500 -RA FEW012 SCT018 FEW030CB OVC080 26/24 Q1002 TEMPO 1500 SHRA=
    Wind Dir: 240, Gust: None, Clouds: ['FEW012', 'SCT018', 'FEW030CB', 'OVC080']

Row 95: Validity 231630 to 232030
  METAR: 202506231630 METAR VABB 231630Z 24007KT 2500 -RA FEW012 SCT018 FEW030CB OVC080 26/24 Q1002 TEMPO 1500 SHRA=
    Wind Dir: 240, Gust: None, Clouds: ['FEW012', 'SCT018', 'FEW030CB', 'OVC080']
  METAR: 202506231700 METAR VABB 231700Z 24007KT 2500 -RA FEW012 SCT018 FEW030CB OVC080 26/24 Q1002 TEMPO 1500 SHRA=
    Wind Dir: 240, Gust: None, Clouds: ['FEW012', 'SCT018', 'FEW030CB', 'OVC080']
  METAR: 202506231730 METAR VABB 231730Z 25015KT 2500 -RA FEW012 SCT018 FEW030CB OVC080 26/24 Q1002 TEMPO 1500 SHRA=
    Wind Dir: 250, Gust: None, Clouds: ['FEW012', 'SCT018', 'FEW030CB', 'OVC080']
  METAR: 202506231800 METAR VABB 231800Z 25012KT 2500 -RA FEW012 SCT018 FEW030CB OVC080 26/24 Q1002 TEMPO 1500 SHRA=
    Wind Dir: 250, Gust: None, Clouds: ['FEW012', 'SCT018', 'FEW030CB', 'OVC080']
  METAR: 202506231830 METAR VABB 231830Z 26011KT 2500 BR FEW012 SCT018 FEW030CB OVC080 26/24 Q1002 TEMPO 1500 SHRA=
    Wind Dir: 260, Gust: None, Clouds: ['FEW012', 'SCT018', 'FEW030CB', 'OVC080']
  METAR: 202506231900 METAR VABB 231900Z 26011KT 2500 BR FEW012 SCT018 FEW030CB OVC080 26/24 Q1002 TEMPO 1500 SHRA=
    Wind Dir: 260, Gust: None, Clouds: ['FEW012', 'SCT018', 'FEW030CB', 'OVC080']
  METAR: 202506231930 METAR VABB 231930Z 24004KT 2500 BR FEW012 SCT018 FEW030CB OVC080 26/24 Q1001 TEMPO 1500 SHRA=
    Wind Dir: 240, Gust: None, Clouds: ['FEW012', 'SCT018', 'FEW030CB', 'OVC080']
  METAR: 202506232000 METAR VABB 232000Z 24009G19KT 2500 SHRA FEW012 SCT018 FEW030CB OVC080 26/25 Q1000 TEMPO 1500 SHRA=
    Wind Dir: 240, Gust: 19, Clouds: ['FEW012', 'SCT018', 'FEW030CB', 'OVC080']
  METAR: 202506232030 METAR VABB 232030Z 26010KT 2500 SHRA FEW012 SCT018 FEW030CB OVC080 27/25 Q1000 TEMPO 1500 SHRA=
    Wind Dir: 260, Gust: None, Clouds: ['FEW012', 'SCT018', 'FEW030CB', 'OVC080']
  METAR: 202506232100 METAR VABB 232100Z 28016G26KT 2500 -SHRA FEW012 SCT018 FEW030CB OVC080 26/23 Q1000 TEMPO 1500 SHRA=
    Wind Dir: 280, Gust: 26, Clouds: ['FEW012', 'SCT018', 'FEW030CB', 'OVC080']

Row 96: Validity 232030 to 240030
  METAR: 202506232030 METAR VABB 232030Z 26010KT 2500 SHRA FEW012 SCT018 FEW030CB OVC080 27/25 Q1000 TEMPO 1500 SHRA=
    Wind Dir: 260, Gust: None, Clouds: ['FEW012', 'SCT018', 'FEW030CB', 'OVC080']
  METAR: 202506232100 METAR VABB 232100Z 28016G26KT 2500 -SHRA FEW012 SCT018 FEW030CB OVC080 26/23 Q1000 TEMPO 1500 SHRA=
    Wind Dir: 280, Gust: 26, Clouds: ['FEW012', 'SCT018', 'FEW030CB', 'OVC080']
  METAR: 202506232130 METAR VABB 232130Z 31015G27KT 1500 R27/2000 +RA FEW012 SCT018 FEW030CB OVC080 23/22 Q1001 TEMPO 0800 +RA=
    Wind Dir: 310, Gust: 27, Clouds: ['FEW012', 'SCT018', 'FEW030CB', 'OVC080']
  METAR: 202506232200 METAR VABB 232200Z 00000KT 2500 -RA FEW012 SCT018 FEW030CB OVC080 24/21 Q1000 TEMPO 1500 SHRA=
    Wind Dir: 0, Gust: None, Clouds: ['FEW012', 'SCT018', 'FEW030CB', 'OVC080']
  METAR: 202506232230 METAR VABB 232230Z 31005KT 2500 -RA FEW012 SCT018 FEW030CB OVC080 25/23 Q1000 TEMPO 1500 SHRA=
    Wind Dir: 310, Gust: None, Clouds: ['FEW012', 'SCT018', 'FEW030CB', 'OVC080']
  METAR: 202506232300 METAR VABB 232300Z 25007KT 2500 -RA FEW012 SCT018 FEW030CB OVC080 25/23 Q1000 TEMPO 1500 SHRA=
    Wind Dir: 250, Gust: None, Clouds: ['FEW012', 'SCT018', 'FEW030CB', 'OVC080']
  METAR: 202506232330 METAR VABB 232330Z 22004KT 2500 -RA FEW012 SCT018 FEW030CB OVC080 26/24 Q1000 TEMPO 1500 SHRA=
    Wind Dir: 220, Gust: None, Clouds: ['FEW012', 'SCT018', 'FEW030CB', 'OVC080']
  METAR: 202506240000 METAR VABB 240000Z 20004KT 2500 -RA FEW012 SCT018 FEW030CB OVC080 24/22 Q1000 TEMPO 1500 SHRA=
    Wind Dir: 200, Gust: None, Clouds: ['FEW012', 'SCT018', 'FEW030CB', 'OVC080']
  METAR: 202506240030 METAR VABB 240030Z 28014KT 2500 -RA FEW012 SCT018 FEW030CB OVC080 28/26 Q1000 TEMPO 1500 SHRA=
    Wind Dir: 280, Gust: None, Clouds: ['FEW012', 'SCT018', 'FEW030CB', 'OVC080']
  METAR: 202506240100 METAR VABB 240100Z 23010G20KT 2500 -DZ FEW012 SCT018 FEW030CB OVC080 26/22 Q1001 TEMPO 1500 SHRA=
    Wind Dir: 230, Gust: 20, Clouds: ['FEW012', 'SCT018', 'FEW030CB', 'OVC080']

Row 97: Validity 240030 to 240430
  METAR: 202506240030 METAR VABB 240030Z 28014KT 2500 -RA FEW012 SCT018 FEW030CB OVC080 28/26 Q1000 TEMPO 1500 SHRA=
    Wind Dir: 280, Gust: None, Clouds: ['FEW012', 'SCT018', 'FEW030CB', 'OVC080']
  METAR: 202506240100 METAR VABB 240100Z 23010G20KT 2500 -DZ FEW012 SCT018 FEW030CB OVC080 26/22 Q1001 TEMPO 1500 SHRA=
    Wind Dir: 230, Gust: 20, Clouds: ['FEW012', 'SCT018', 'FEW030CB', 'OVC080']
  METAR: 202506240130 METAR VABB 240130Z 26010KT 2500 BR FEW012 SCT018 FEW030CB OVC080 28/25 Q1001 TEMPO 1500 SHRA=
    Wind Dir: 260, Gust: None, Clouds: ['FEW012', 'SCT018', 'FEW030CB', 'OVC080']
  METAR: 202506240200 METAR VABB 240200Z 28008KT 2500 BR SCT018 FEW030CB OVC090 28/23 Q1002 NOSIG=
    Wind Dir: 280, Gust: None, Clouds: ['SCT018', 'FEW030CB', 'OVC090']
  METAR: 202506240230 METAR VABB 240230Z 26004KT 2500 BR SCT018 FEW025TCU OVC090 29/25 Q1002 NOSIG=
    Wind Dir: 260, Gust: None, Clouds: ['SCT018', 'FEW025TCU', 'OVC090']
  METAR: 202506240300 METAR VABB 240300Z 26009KT 2500 -DZ FEW012 SCT018 FEW025TCU OVC090 29/26 Q1002 TEMPO 1500 SHRA=
    Wind Dir: 260, Gust: None, Clouds: ['FEW012', 'SCT018', 'FEW025TCU', 'OVC090']
  METAR: 202506240330 METAR VABB 240330Z 27009KT 2500 BR SCT018 FEW025TCU OVC090 29/26 Q1002 NOSIG=
    Wind Dir: 270, Gust: None, Clouds: ['SCT018', 'FEW025TCU', 'OVC090']
  METAR: 202506240400 METAR VABB 240400Z 26009G19KT 2500 BR SCT018 FEW025TCU BKN090 29/25 Q1002 NOSIG=
    Wind Dir: 260, Gust: 19, Clouds: ['SCT018', 'FEW025TCU', 'BKN090']
  METAR: 202506240430 METAR VABB 240430Z 26014G24KT 2500 BR SCT018 FEW025TCU BKN090 29/25 Q1002 NOSIG=
    Wind Dir: 260, Gust: 24, Clouds: ['SCT018', 'FEW025TCU', 'BKN090']
  METAR: 202506240500 METAR VABB 240500Z 25008G18KT 2500 BR SCT018 FEW025TCU BKN090 29/25 Q1002 NOSIG=
    Wind Dir: 250, Gust: 18, Clouds: ['SCT018', 'FEW025TCU', 'BKN090']

Row 98: Validity 240430 to 240830
  METAR: 202506240430 METAR VABB 240430Z 26014G24KT 2500 BR SCT018 FEW025TCU BKN090 29/25 Q1002 NOSIG=
    Wind Dir: 260, Gust: 24, Clouds: ['SCT018', 'FEW025TCU', 'BKN090']
  METAR: 202506240500 METAR VABB 240500Z 25008G18KT 2500 BR SCT018 FEW025TCU BKN090 29/25 Q1002 NOSIG=
    Wind Dir: 250, Gust: 18, Clouds: ['SCT018', 'FEW025TCU', 'BKN090']
  METAR: 202506240530 METAR VABB 240530Z 25009G19KT 2500 BR SCT018 FEW025TCU BKN090 29/25 Q1002 NOSIG=
    Wind Dir: 250, Gust: 19, Clouds: ['SCT018', 'FEW025TCU', 'BKN090']
  METAR: 202506240600 METAR VABB 240600Z 25008G20KT 2500 BR SCT018 FEW025TCU BKN090 29/26 Q1002 BECMG 3000 BR=
    Wind Dir: 250, Gust: 20, Clouds: ['SCT018', 'FEW025TCU', 'BKN090']
  METAR: 202506240630 METAR VABB 240630Z 25010G20KT 3000 BR SCT018 SCT025 BKN090 29/26 Q1002 NOSIG=
    Wind Dir: 250, Gust: 20, Clouds: ['SCT018', 'SCT025', 'BKN090']
  METAR: 202506240700 METAR VABB 240700Z 25010G21KT 3000 BR SCT018 SCT025 BKN090 30/25 Q1002 NOSIG=
    Wind Dir: 250, Gust: 21, Clouds: ['SCT018', 'SCT025', 'BKN090']
  METAR: 202506240730 METAR VABB 240730Z 25013G23KT 3000 BR SCT018 SCT025 BKN090 29/25 Q1001 NOSIG=
    Wind Dir: 250, Gust: 23, Clouds: ['SCT018', 'SCT025', 'BKN090']
  METAR: 202506240800 METAR VABB 240800Z 23010G20KT 3000 BR SCT018 SCT025 BKN090 29/25 Q1001 NOSIG=
    Wind Dir: 230, Gust: 20, Clouds: ['SCT018', 'SCT025', 'BKN090']
  METAR: 202506240830 METAR VABB 240830Z 27011G23KT 3000 BR SCT018 SCT025 BKN090 30/25 Q1001 NOSIG=
    Wind Dir: 270, Gust: 23, Clouds: ['SCT018', 'SCT025', 'BKN090']
  METAR: 202506240900 METAR VABB 240900Z 26012G22KT 3000 HZ SCT018 SCT025 BKN090 30/25 Q1001 NOSIG=
    Wind Dir: 260, Gust: 22, Clouds: ['SCT018', 'SCT025', 'BKN090']

Row 99: Validity 241630 to 242030
  METAR: 202506241630 METAR VABB 241630Z 24009G19KT 2500 BR SCT018 FEW025TCU BKN090 29/25 Q1002 NOSIG=
    Wind Dir: 240, Gust: 19, Clouds: ['SCT018', 'FEW025TCU', 'BKN090']
  METAR: 202506241700 METAR VABB 241700Z 24010G20KT 2500 BR SCT018 SCT025 BKN090 29/25 Q1002 NOSIG=
    Wind Dir: 240, Gust: 20, Clouds: ['SCT018', 'SCT025', 'BKN090']
  METAR: 202506241730 METAR VABB 241730Z 25009G19KT 2500 BR SCT018 SCT025 BKN090 28/25 Q1002 NOSIG=
    Wind Dir: 250, Gust: 19, Clouds: ['SCT018', 'SCT025', 'BKN090']
  METAR: 202506241800 METAR VABB 241800Z 24011G21KT 2500 BR SCT018 FEW025TCU BKN090 28/25 Q1002 NOSIG=
    Wind Dir: 240, Gust: 21, Clouds: ['SCT018', 'FEW025TCU', 'BKN090']
  METAR: 202506241830 METAR VABB 241830Z 25008G18KT 2500 BR SCT018 FEW025TCU BKN090 28/25 Q1002 NOSIG=
    Wind Dir: 250, Gust: 18, Clouds: ['SCT018', 'FEW025TCU', 'BKN090']
  METAR: 202506241900 METAR VABB 241900Z 24007G17KT 2500 -DZ SCT018 FEW025TCU BKN090 28/25 Q1002 NOSIG=
    Wind Dir: 240, Gust: 17, Clouds: ['SCT018', 'FEW025TCU', 'BKN090']
  METAR: 202506241930 METAR VABB 241930Z 24011G21KT 2500 BR SCT018 SCT025 BKN090 28/25 Q1001 NOSIG=
    Wind Dir: 240, Gust: 21, Clouds: ['SCT018', 'SCT025', 'BKN090']
  METAR: 202506242000 METAR VABB 242000Z 25010KT 2500 BR SCT018 SCT025 BKN090 28/26 Q1001 NOSIG=
    Wind Dir: 250, Gust: None, Clouds: ['SCT018', 'SCT025', 'BKN090']
  METAR: 202506242030 METAR VABB 242030Z 24010G20KT 2500 BR SCT018 SCT025 BKN090 28/25 Q1001 NOSIG=
    Wind Dir: 240, Gust: 20, Clouds: ['SCT018', 'SCT025', 'BKN090']
  METAR: 202506242100 METAR VABB 242100Z 24010KT 2500 BR SCT018 SCT025 BKN090 28/25 Q1000 NOSIG=
    Wind Dir: 240, Gust: None, Clouds: ['SCT018', 'SCT025', 'BKN090']

Row 100: Validity 242030 to 250030
  METAR: 202506242030 METAR VABB 242030Z 24010G20KT 2500 BR SCT018 SCT025 BKN090 28/25 Q1001 NOSIG=
    Wind Dir: 240, Gust: 20, Clouds: ['SCT018', 'SCT025', 'BKN090']
  METAR: 202506242100 METAR VABB 242100Z 24010KT 2500 BR SCT018 SCT025 BKN090 28/25 Q1000 NOSIG=
    Wind Dir: 240, Gust: None, Clouds: ['SCT018', 'SCT025', 'BKN090']
  METAR: 202506242130 METAR VABB 242130Z 25007G17KT 2500 BR SCT018 SCT025 BKN090 28/25 Q1000 NOSIG=
    Wind Dir: 250, Gust: 17, Clouds: ['SCT018', 'SCT025', 'BKN090']
  METAR: 202506242200 METAR VABB 242200Z 25014G24KT 2500 BR SCT018 FEW025TCU BKN090 28/25 Q1000 NOSIG=
    Wind Dir: 250, Gust: 24, Clouds: ['SCT018', 'FEW025TCU', 'BKN090']
  METAR: 202506242230 METAR VABB 242230Z 25009KT 2500 BR SCT018 FEW025TCU BKN090 28/25 Q1000 NOSIG=
    Wind Dir: 250, Gust: None, Clouds: ['SCT018', 'FEW025TCU', 'BKN090']
  METAR: 202506242300 METAR VABB 242300Z 25008G18KT 2500 BR SCT018 FEW025TCU BKN090 28/25 Q1000 NOSIG=
    Wind Dir: 250, Gust: 18, Clouds: ['SCT018', 'FEW025TCU', 'BKN090']
  METAR: 202506242330 METAR VABB 242330Z 25007G17KT 2500 BR SCT018 FEW025TCU BKN090 28/25 Q1000 NOSIG=
    Wind Dir: 250, Gust: 17, Clouds: ['SCT018', 'FEW025TCU', 'BKN090']
  METAR: 202506250000 METAR VABB 250000Z 25009G19KT 2500 BR SCT018 FEW025TCU BKN090 28/25 Q1000 NOSIG=
    Wind Dir: 250, Gust: 19, Clouds: ['SCT018', 'FEW025TCU', 'BKN090']
  METAR: 202506250030 METAR VABB 250030Z 24009KT 2500 BR SCT018 FEW025TCU BKN090 28/25 Q1000 TEMPO 1500 SHRA=
    Wind Dir: 240, Gust: None, Clouds: ['SCT018', 'FEW025TCU', 'BKN090']
  METAR: 202506250100 METAR VABB 250100Z 25008KT 2500 BR SCT018 FEW025TCU BKN090 28/25 Q1000 NOSIG=
    Wind Dir: 250, Gust: None, Clouds: ['SCT018', 'FEW025TCU', 'BKN090']

Row 101: Validity 270100 to 270500
  METAR: 202506270100 METAR VABB 270100Z 25010KT 2500 -DZ SCT018 FEW025TCU OVC090 28/25 Q1000 TEMPO 1500 SHRA=
    Wind Dir: 250, Gust: None, Clouds: ['SCT018', 'FEW025TCU', 'OVC090']
  METAR: 202506270130 METAR VABB 270130Z 26010KT 2500 BR SCT018 FEW025TCU OVC090 28/25 Q1001 NOSIG=
    Wind Dir: 260, Gust: None, Clouds: ['SCT018', 'FEW025TCU', 'OVC090']
  METAR: 202506270200 METAR VABB 270200Z 25009G19KT 2500 BR SCT018 FEW030CB OVC090 28/25 Q1001 NOSIG=
    Wind Dir: 250, Gust: 19, Clouds: ['SCT018', 'FEW030CB', 'OVC090']
  METAR: 202506270230 METAR VABB 270230Z 25009G19KT 2500 BR SCT018 FEW030CB BKN090 28/25 Q1001 NOSIG=
    Wind Dir: 250, Gust: 19, Clouds: ['SCT018', 'FEW030CB', 'BKN090']
  METAR: 202506270300 METAR VABB 270300Z 25009KT 2500 BR SCT018 FEW030CB BKN090 29/25 Q1001 NOSIG=
    Wind Dir: 250, Gust: None, Clouds: ['SCT018', 'FEW030CB', 'BKN090']
  METAR: 202506270330 METAR VABB 270330Z 26009G19KT 2500 -DZ SCT018 FEW025TCU BKN090 29/25 Q1002 NOSIG=
    Wind Dir: 260, Gust: 19, Clouds: ['SCT018', 'FEW025TCU', 'BKN090']
  METAR: 202506270400 METAR VABB 270400Z 25011G23KT 2500 HZ SCT018 FEW025TCU BKN090 29/25 Q1002 NOSIG=
    Wind Dir: 250, Gust: 23, Clouds: ['SCT018', 'FEW025TCU', 'BKN090']
  METAR: 202506270430 METAR VABB 270430Z 25014KT 2500 VCSH SCT018 FEW025TCU BKN090 30/25 Q1002 NOSIG=
    Wind Dir: 250, Gust: None, Clouds: ['SCT018', 'FEW025TCU', 'BKN090']
  METAR: 202506270500 METAR VABB 270500Z 25013G23KT 2500 HZ SCT018 FEW025TCU BKN090 30/25 Q1002 NOSIG=
    Wind Dir: 250, Gust: 23, Clouds: ['SCT018', 'FEW025TCU', 'BKN090']
  METAR: 202506270530 METAR VABB 270530Z 24010G20KT 2500 HZ SCT018 FEW025TCU BKN090 30/26 Q1002 NOSIG=
    Wind Dir: 240, Gust: 20, Clouds: ['SCT018', 'FEW025TCU', 'BKN090']

Row 102: Validity 270500 to 270900
  METAR: 202506270500 METAR VABB 270500Z 25013G23KT 2500 HZ SCT018 FEW025TCU BKN090 30/25 Q1002 NOSIG=
    Wind Dir: 250, Gust: 23, Clouds: ['SCT018', 'FEW025TCU', 'BKN090']
  METAR: 202506270530 METAR VABB 270530Z 24010G20KT 2500 HZ SCT018 FEW025TCU BKN090 30/26 Q1002 NOSIG=
    Wind Dir: 240, Gust: 20, Clouds: ['SCT018', 'FEW025TCU', 'BKN090']
  METAR: 202506270600 METAR VABB 270600Z 24013G27KT 2500 HZ SCT018 FEW025TCU BKN090 30/25 Q1002 NOSIG=
    Wind Dir: 240, Gust: 27, Clouds: ['SCT018', 'FEW025TCU', 'BKN090']
  METAR: 202506270630 METAR VABB 270630Z 26010G21KT 1000 R27/1200 +SHRA FEW012 SCT018 FEW025TCU BKN090 28/24 Q1003 TEMPO 0800 +SHRA=
    Wind Dir: 260, Gust: 21, Clouds: ['FEW012', 'SCT018', 'FEW025TCU', 'BKN090']
  METAR: 202506270700 METAR VABB 270700Z 27009G19KT 2100 VCSH FEW012 SCT018 FEW025TCU BKN090 27/25 Q1002 TEMPO 1500 +SHRA=
    Wind Dir: 270, Gust: 19, Clouds: ['FEW012', 'SCT018', 'FEW025TCU', 'BKN090']
  METAR: 202506270730 METAR VABB 270730Z 23014KT 2500 HZ SCT018 FEW030CB BKN090 27/24 Q1003 NOSIG=
    Wind Dir: 230, Gust: None, Clouds: ['SCT018', 'FEW030CB', 'BKN090']
  METAR: 202506270800 METAR VABB 270800Z 23012G22KT 2500 HZ SCT018 FEW030CB BKN090 28/24 Q1002 NOSIG=
    Wind Dir: 230, Gust: 22, Clouds: ['SCT018', 'FEW030CB', 'BKN090']
  METAR: 202506270830 METAR VABB 270830Z 26007G17KT 2500 HZ SCT018 FEW030CB BKN090 28/25 Q1002 NOSIG=
    Wind Dir: 260, Gust: 17, Clouds: ['SCT018', 'FEW030CB', 'BKN090']
  METAR: 202506270900 METAR VABB 270900Z 23007G17KT 2500 BR SCT018 FEW030CB BKN090 29/25 Q1002 NOSIG=
    Wind Dir: 230, Gust: 17, Clouds: ['SCT018', 'FEW030CB', 'BKN090']
  METAR: 202506270930 METAR VABB 270930Z 25006KT 2500 BR SCT018 FEW025TCU BKN090 29/24 Q1002 NOSIG=
    Wind Dir: 250, Gust: None, Clouds: ['SCT018', 'FEW025TCU', 'BKN090']

Row 103: Validity 270900 to 271300
  METAR: 202506270900 METAR VABB 270900Z 23007G17KT 2500 BR SCT018 FEW030CB BKN090 29/25 Q1002 NOSIG=
    Wind Dir: 230, Gust: 17, Clouds: ['SCT018', 'FEW030CB', 'BKN090']
  METAR: 202506270930 METAR VABB 270930Z 25006KT 2500 BR SCT018 FEW025TCU BKN090 29/24 Q1002 NOSIG=
    Wind Dir: 250, Gust: None, Clouds: ['SCT018', 'FEW025TCU', 'BKN090']
  METAR: 202506271000 METAR VABB 271000Z 24008KT 2500 BR SCT018 FEW030CB BKN090 29/24 Q1002 NOSIG=
    Wind Dir: 240, Gust: None, Clouds: ['SCT018', 'FEW030CB', 'BKN090']
  METAR: 202506271030 METAR VABB 271030Z 24009KT 2500 BR SCT018 FEW030CB BKN090 29/25 Q1001 TEMPO 1500 SHRA=
    Wind Dir: 240, Gust: None, Clouds: ['SCT018', 'FEW030CB', 'BKN090']
  METAR: 202506271100 METAR VABB 271100Z 24011G21KT 2500 BR SCT018 FEW030CB BKN090 29/25 Q1001 TEMPO 1500 SHRA=
    Wind Dir: 240, Gust: 21, Clouds: ['SCT018', 'FEW030CB', 'BKN090']
  METAR: 202506271123 METAR VABB 271123Z 23012G22KT 1500 SHRA SCT018 FEW030CB BKN090 28/25 Q1001 TEMPO 0800 +SHRA=
    Wind Dir: 230, Gust: 22, Clouds: ['SCT018', 'FEW030CB', 'BKN090']
  METAR: 202506271130 METAR VABB 271130Z 24010G20KT 2500 -RA FEW012 SCT018 FEW030CB BKN090 28/25 Q1001 TEMPO 1500 SHRA=
    Wind Dir: 240, Gust: 20, Clouds: ['FEW012', 'SCT018', 'FEW030CB', 'BKN090']
  METAR: 202506271200 METAR VABB 271200Z 23010G20KT 2500 BR FEW012 SCT018 FEW030CB BKN090 29/26 Q1001 NOSIG=
    Wind Dir: 230, Gust: 20, Clouds: ['FEW012', 'SCT018', 'FEW030CB', 'BKN090']
  METAR: 202506271230 METAR VABB 271230Z 24007G17KT 2500 -RA FEW012 SCT018 FEW030CB BKN090 29/25 Q1001 TEMPO 1500 SHRA=
    Wind Dir: 240, Gust: 17, Clouds: ['FEW012', 'SCT018', 'FEW030CB', 'BKN090']
  METAR: 202506271300 METAR VABB 271300Z 26007G17KT 2500 -DZ FEW012 SCT018 FEW030CB BKN090 29/25 Q1001 TEMPO 1500 SHRA=
    Wind Dir: 260, Gust: 17, Clouds: ['FEW012', 'SCT018', 'FEW030CB', 'BKN090']
  METAR: 202506271330 METAR VABB 271330Z 24010KT 2500 BR FEW012 SCT018 FEW025TCU BKN090 28/25 Q1001 NOSIG=
    Wind Dir: 240, Gust: None, Clouds: ['FEW012', 'SCT018', 'FEW025TCU', 'BKN090']

Row 104: Validity 271300 to 271700
  METAR: 202506271300 METAR VABB 271300Z 26007G17KT 2500 -DZ FEW012 SCT018 FEW030CB BKN090 29/25 Q1001 TEMPO 1500 SHRA=
    Wind Dir: 260, Gust: 17, Clouds: ['FEW012', 'SCT018', 'FEW030CB', 'BKN090']
  METAR: 202506271330 METAR VABB 271330Z 24010KT 2500 BR FEW012 SCT018 FEW025TCU BKN090 28/25 Q1001 NOSIG=
    Wind Dir: 240, Gust: None, Clouds: ['FEW012', 'SCT018', 'FEW025TCU', 'BKN090']
  METAR: 202506271400 METAR VABB 271400Z 24010G20KT 2500 BR FEW012 SCT018 FEW025TCU BKN090 28/25 Q1002 NOSIG=
    Wind Dir: 240, Gust: 20, Clouds: ['FEW012', 'SCT018', 'FEW025TCU', 'BKN090']
  METAR: 202506271430 METAR VABB 271430Z 24009G19KT 2500 BR SCT018 FEW025TCU BKN090 28/25 Q1002 NOSIG=
    Wind Dir: 240, Gust: 19, Clouds: ['SCT018', 'FEW025TCU', 'BKN090']
  METAR: 202506271500 METAR VABB 271500Z 24011KT 2500 BR SCT018 FEW025TCU BKN090 28/25 Q1002 NOSIG=
    Wind Dir: 240, Gust: None, Clouds: ['SCT018', 'FEW025TCU', 'BKN090']
  METAR: 202506271530 METAR VABB 271530Z 24008KT 2500 BR SCT018 FEW025TCU BKN090 27/24 Q1003 NOSIG=
    Wind Dir: 240, Gust: None, Clouds: ['SCT018', 'FEW025TCU', 'BKN090']
  METAR: 202506271600 METAR VABB 271600Z 25011KT 2500 BR SCT018 FEW025TCU BKN090 27/24 Q1003 NOSIG=
    Wind Dir: 250, Gust: None, Clouds: ['SCT018', 'FEW025TCU', 'BKN090']
  METAR: 202506271630 METAR VABB 271630Z 25010KT 2500 BR SCT018 FEW025TCU BKN090 28/23 Q1004 NOSIG=
    Wind Dir: 250, Gust: None, Clouds: ['SCT018', 'FEW025TCU', 'BKN090']
  METAR: 202506271700 METAR VABB 271700Z 25009KT 2500 BR SCT018 FEW025TCU BKN090 28/24 Q1004 NOSIG=
    Wind Dir: 250, Gust: None, Clouds: ['SCT018', 'FEW025TCU', 'BKN090']
  METAR: 202506271730 METAR VABB 271730Z 24010G22KT 2500 BR SCT018 FEW025TCU BKN090 28/24 Q1004 NOSIG=
    Wind Dir: 240, Gust: 22, Clouds: ['SCT018', 'FEW025TCU', 'BKN090']

Row 105: Validity 271730 to 272130
  METAR: 202506271730 METAR VABB 271730Z 24010G22KT 2500 BR SCT018 FEW025TCU BKN090 28/24 Q1004 NOSIG=
    Wind Dir: 240, Gust: 22, Clouds: ['SCT018', 'FEW025TCU', 'BKN090']
  METAR: 202506271800 METAR VABB 271800Z 23008KT 2500 BR SCT018 FEW025TCU BKN090 28/24 Q1004 NOSIG=
    Wind Dir: 230, Gust: None, Clouds: ['SCT018', 'FEW025TCU', 'BKN090']
  METAR: 202506271830 METAR VABB 271830Z 24008KT 2500 BR SCT018 FEW025TCU BKN090 28/24 Q1004 NOSIG=
    Wind Dir: 240, Gust: None, Clouds: ['SCT018', 'FEW025TCU', 'BKN090']
  METAR: 202506271900 METAR VABB 271900Z 23009KT 2500 BR SCT018 FEW025TCU BKN090 28/24 Q1004 NOSIG=
    Wind Dir: 230, Gust: None, Clouds: ['SCT018', 'FEW025TCU', 'BKN090']
  METAR: 202506271930 METAR VABB 271930Z 24009KT 2500 BR SCT018 FEW025TCU BKN090 28/24 Q1003 NOSIG=
    Wind Dir: 240, Gust: None, Clouds: ['SCT018', 'FEW025TCU', 'BKN090']
  METAR: 202506272000 METAR VABB 272000Z 24010G20KT 2500 BR SCT018 FEW025TCU BKN090 28/23 Q1003 NOSIG=
    Wind Dir: 240, Gust: 20, Clouds: ['SCT018', 'FEW025TCU', 'BKN090']
  METAR: 202506272030 METAR VABB 272030Z 23009G19KT 2500 BR SCT018 FEW025TCU BKN090 28/24 Q1003 NOSIG=
    Wind Dir: 230, Gust: 19, Clouds: ['SCT018', 'FEW025TCU', 'BKN090']
  METAR: 202506272100 METAR VABB 272100Z 23010KT 2500 BR SCT018 FEW025TCU BKN090 28/24 Q1003 NOSIG=
    Wind Dir: 230, Gust: None, Clouds: ['SCT018', 'FEW025TCU', 'BKN090']
  METAR: 202506272130 METAR VABB 272130Z 23010KT 2500 BR SCT018 FEW025TCU BKN090 28/24 Q1003 NOSIG=
    Wind Dir: 230, Gust: None, Clouds: ['SCT018', 'FEW025TCU', 'BKN090']
  METAR: 202506272200 METAR VABB 272200Z 24009KT 2500 BR SCT018 FEW025TCU BKN090 28/24 Q1003 NOSIG=
    Wind Dir: 240, Gust: None, Clouds: ['SCT018', 'FEW025TCU', 'BKN090']

Row 106: Validity 272130 to 280130
  METAR: 202506272130 METAR VABB 272130Z 23010KT 2500 BR SCT018 FEW025TCU BKN090 28/24 Q1003 NOSIG=
    Wind Dir: 230, Gust: None, Clouds: ['SCT018', 'FEW025TCU', 'BKN090']
  METAR: 202506272200 METAR VABB 272200Z 24009KT 2500 BR SCT018 FEW025TCU BKN090 28/24 Q1003 NOSIG=
    Wind Dir: 240, Gust: None, Clouds: ['SCT018', 'FEW025TCU', 'BKN090']
  METAR: 202506272230 METAR VABB 272230Z 22007G17KT 2500 BR SCT018 FEW025TCU BKN090 28/24 Q1002 NOSIG=
    Wind Dir: 220, Gust: 17, Clouds: ['SCT018', 'FEW025TCU', 'BKN090']
  METAR: 202506272300 METAR VABB 272300Z 23012G24KT 2500 BR SCT018 FEW025TCU BKN090 28/24 Q1002 NOSIG=
    Wind Dir: 230, Gust: 24, Clouds: ['SCT018', 'FEW025TCU', 'BKN090']
  METAR: 202506272330 METAR VABB 272330Z 23009G19KT 2500 BR SCT018 FEW025TCU BKN090 28/24 Q1002 NOSIG=
    Wind Dir: 230, Gust: 19, Clouds: ['SCT018', 'FEW025TCU', 'BKN090']
  METAR: 202506280000 METAR VABB 280000Z 23012G27KT 2500 BR SCT018 FEW025TCU BKN090 28/24 Q1002 NOSIG=
    Wind Dir: 230, Gust: 27, Clouds: ['SCT018', 'FEW025TCU', 'BKN090']
  METAR: 202506280030 METAR VABB 280030Z 22011G21KT 2500 BR SCT018 SCT025 BKN100 28/24 Q1003 NOSIG=
    Wind Dir: 220, Gust: 21, Clouds: ['SCT018', 'SCT025', 'BKN100']
  METAR: 202506280100 METAR VABB 280100Z 23010KT 2500 BR SCT020 SCT025 BKN100 28/24 Q1003 NOSIG=
    Wind Dir: 230, Gust: None, Clouds: ['SCT020', 'SCT025', 'BKN100']
  METAR: 202506280130 METAR VABB 280130Z 22013KT 2500 BR SCT020 SCT025 BKN100 28/24 Q1003 NOSIG=
    Wind Dir: 220, Gust: None, Clouds: ['SCT020', 'SCT025', 'BKN100']
  METAR: 202506280200 METAR VABB 280200Z 24013G23KT 2500 HZ SCT020 SCT025 BKN100 28/24 Q1003 BECMG 3000 HZ=
    Wind Dir: 240, Gust: 23, Clouds: ['SCT020', 'SCT025', 'BKN100']

Row 107: Validity 280130 to 280530
  METAR: 202506280130 METAR VABB 280130Z 22013KT 2500 BR SCT020 SCT025 BKN100 28/24 Q1003 NOSIG=
    Wind Dir: 220, Gust: None, Clouds: ['SCT020', 'SCT025', 'BKN100']
  METAR: 202506280200 METAR VABB 280200Z 24013G23KT 2500 HZ SCT020 SCT025 BKN100 28/24 Q1003 BECMG 3000 HZ=
    Wind Dir: 240, Gust: 23, Clouds: ['SCT020', 'SCT025', 'BKN100']
  METAR: 202506280230 METAR VABB 280230Z 24012KT 3000 HZ SCT020 SCT025 BKN100 28/24 Q1003 NOSIG=
    Wind Dir: 240, Gust: None, Clouds: ['SCT020', 'SCT025', 'BKN100']
  METAR: 202506280300 METAR VABB 280300Z 23012G22KT 3000 HZ SCT020 SCT025 BKN100 29/24 Q1004 NOSIG=
    Wind Dir: 230, Gust: 22, Clouds: ['SCT020', 'SCT025', 'BKN100']
  METAR: 202506280330 METAR VABB 280330Z 23013G23KT 3000 HZ SCT020 SCT025 BKN100 29/24 Q1004 NOSIG=
    Wind Dir: 230, Gust: 23, Clouds: ['SCT020', 'SCT025', 'BKN100']
  METAR: 202506280400 METAR VABB 280400Z 23017G27KT 3000 HZ FEW020 SCT025 BKN100 29/24 Q1004 NOSIG=
    Wind Dir: 230, Gust: 27, Clouds: ['FEW020', 'SCT025', 'BKN100']
  METAR: 202506280430 METAR VABB 280430Z 23017G27KT 3000 HZ SCT020 SCT025 BKN100 30/24 Q1004 NOSIG=
    Wind Dir: 230, Gust: 27, Clouds: ['SCT020', 'SCT025', 'BKN100']
  METAR: 202506280500 METAR VABB 280500Z 24016G26KT 3000 HZ SCT020 SCT025 BKN100 30/24 Q1004 NOSIG=
    Wind Dir: 240, Gust: 26, Clouds: ['SCT020', 'SCT025', 'BKN100']
  METAR: 202506280530 METAR VABB 280530Z 24018G28KT 3000 HZ SCT020 SCT025 BKN100 30/25 Q1004 NOSIG=
    Wind Dir: 240, Gust: 28, Clouds: ['SCT020', 'SCT025', 'BKN100']
  METAR: 202506280600 METAR VABB 280600Z 23020G30KT 3000 HZ SCT020 SCT025 BKN100 30/25 Q1004 NOSIG=
    Wind Dir: 230, Gust: 30, Clouds: ['SCT020', 'SCT025', 'BKN100']

Row 108: Validity 280530 to 280930
  METAR: 202506280530 METAR VABB 280530Z 24018G28KT 3000 HZ SCT020 SCT025 BKN100 30/25 Q1004 NOSIG=
    Wind Dir: 240, Gust: 28, Clouds: ['SCT020', 'SCT025', 'BKN100']
  METAR: 202506280600 METAR VABB 280600Z 23020G30KT 3000 HZ SCT020 SCT025 BKN100 30/25 Q1004 NOSIG=
    Wind Dir: 230, Gust: 30, Clouds: ['SCT020', 'SCT025', 'BKN100']
  METAR: 202506280630 METAR VABB 280630Z 24017G27KT 3000 HZ SCT020 SCT025 BKN100 30/25 Q1004 NOSIG=
    Wind Dir: 240, Gust: 27, Clouds: ['SCT020', 'SCT025', 'BKN100']
  METAR: 202506280700 METAR VABB 280700Z 24016G26KT 3000 HZ SCT020 SCT025 BKN100 30/25 Q1004 NOSIG=
    Wind Dir: 240, Gust: 26, Clouds: ['SCT020', 'SCT025', 'BKN100']
  METAR: 202506280730 METAR VABB 280730Z 24019G29KT 3000 HZ SCT020 SCT025 BKN100 30/24 Q1004 NOSIG=
    Wind Dir: 240, Gust: 29, Clouds: ['SCT020', 'SCT025', 'BKN100']
  METAR: 202506280800 METAR VABB 280800Z 24017G27KT 3000 HZ SCT020 SCT025 BKN100 31/24 Q1003 NOSIG=
    Wind Dir: 240, Gust: 27, Clouds: ['SCT020', 'SCT025', 'BKN100']
  METAR: 202506280830 METAR VABB 280830Z 23023G33KT 3000 HZ SCT020 SCT025 BKN100 30/24 Q1003 NOSIG=
    Wind Dir: 230, Gust: 33, Clouds: ['SCT020', 'SCT025', 'BKN100']
  METAR: 202506280900 METAR VABB 280900Z 24017G27KT 3000 HZ SCT020 SCT025 BKN100 30/24 Q1003 NOSIG=
    Wind Dir: 240, Gust: 27, Clouds: ['SCT020', 'SCT025', 'BKN100']
  METAR: 202506280930 METAR VABB 280930Z 24016G26KT 3000 HZ SCT020 FEW025TCU BKN100 30/25 Q1003 NOSIG=
    Wind Dir: 240, Gust: 26, Clouds: ['SCT020', 'FEW025TCU', 'BKN100']
  METAR: 202506281000 METAR VABB 281000Z 23013G23KT 2500 -DZ SCT020 FEW025TCU BKN100 30/25 Q1002 TEMPO 1500 SHRA=
    Wind Dir: 230, Gust: 23, Clouds: ['SCT020', 'FEW025TCU', 'BKN100']

Row 109: FCST/OBS is OBS, skipping extraction.

Row 110: Validity 281000 to 281430
  METAR: 202506281000 METAR VABB 281000Z 23013G23KT 2500 -DZ SCT020 FEW025TCU BKN100 30/25 Q1002 TEMPO 1500 SHRA=
    Wind Dir: 230, Gust: 23, Clouds: ['SCT020', 'FEW025TCU', 'BKN100']
  METAR: 202506281030 METAR VABB 281030Z 23015G29KT 2500 HZ SCT020 FEW025TCU BKN100 30/24 Q1002 NOSIG=
    Wind Dir: 230, Gust: 29, Clouds: ['SCT020', 'FEW025TCU', 'BKN100']
  METAR: 202506281100 METAR VABB 281100Z 23015G25KT 2500 HZ SCT020 FEW025TCU BKN100 30/25 Q1002 NOSIG=
    Wind Dir: 230, Gust: 25, Clouds: ['SCT020', 'FEW025TCU', 'BKN100']
  METAR: 202506281130 METAR VABB 281130Z 23015G31KT 2500 HZ SCT020 FEW025TCU BKN100 30/24 Q1002 BECMG 3000 HZ=
    Wind Dir: 230, Gust: 31, Clouds: ['SCT020', 'FEW025TCU', 'BKN100']
  METAR: 202506281200 METAR VABB 281200Z 23015G28KT 2500 HZ SCT020 FEW025TCU BKN100 29/24 Q1002 NOSIG=
    Wind Dir: 230, Gust: 28, Clouds: ['SCT020', 'FEW025TCU', 'BKN100']
  METAR: 202506281230 METAR VABB 281230Z 23015G25KT 3000 HZ FEW012 SCT020 FEW025TCU BKN100 29/24 Q1003 NOSIG=
    Wind Dir: 230, Gust: 25, Clouds: ['FEW012', 'SCT020', 'FEW025TCU', 'BKN100']
  METAR: 202506281300 METAR VABB 281300Z 24012G22KT 3000 HZ FEW012 SCT020 FEW025TCU BKN100 29/25 Q1002 NOSIG=
    Wind Dir: 240, Gust: 22, Clouds: ['FEW012', 'SCT020', 'FEW025TCU', 'BKN100']
  METAR: 202506281330 METAR VABB 281330Z 23012G22KT 3000 HZ FEW012 SCT020 FEW025TCU BKN100 29/24 Q1003 NOSIG=
    Wind Dir: 230, Gust: 22, Clouds: ['FEW012', 'SCT020', 'FEW025TCU', 'BKN100']
  METAR: 202506281356 METAR VABB 281356Z 26017G31KT 2100 SHRA FEW012 SCT020 FEW025TCU BKN100 28/24 Q1003 TEMPO 1500 SHRA=
    Wind Dir: 260, Gust: 31, Clouds: ['FEW012', 'SCT020', 'FEW025TCU', 'BKN100']
  METAR: 202506281430 METAR VABB 281430Z 23010G23KT 2100 -DZ FEW012 SCT018 FEW025TCU BKN090 25/23 Q1004 NOSIG=
    Wind Dir: 230, Gust: 23, Clouds: ['FEW012', 'SCT018', 'FEW025TCU', 'BKN090']
  METAR: 202506281500 METAR VABB 281500Z 25007KT 2500 BR FEW012 SCT018 FEW025TCU BKN090 26/23 Q1004 NOSIG=
    Wind Dir: 250, Gust: None, Clouds: ['FEW012', 'SCT018', 'FEW025TCU', 'BKN090']

Row 111: Validity 281400 to 281830
  METAR: 202506281430 METAR VABB 281430Z 23010G23KT 2100 -DZ FEW012 SCT018 FEW025TCU BKN090 25/23 Q1004 NOSIG=
    Wind Dir: 230, Gust: 23, Clouds: ['FEW012', 'SCT018', 'FEW025TCU', 'BKN090']
  METAR: 202506281500 METAR VABB 281500Z 25007KT 2500 BR FEW012 SCT018 FEW025TCU BKN090 26/23 Q1004 NOSIG=
    Wind Dir: 250, Gust: None, Clouds: ['FEW012', 'SCT018', 'FEW025TCU', 'BKN090']
  METAR: 202506281530 METAR VABB 281530Z 24007KT 2500 BR FEW012 SCT018 FEW025TCU BKN090 27/24 Q1004 NOSIG=
    Wind Dir: 240, Gust: None, Clouds: ['FEW012', 'SCT018', 'FEW025TCU', 'BKN090']
  METAR: 202506281600 METAR VABB 281600Z 24007KT 2500 BR FEW012 SCT018 FEW030CB BKN090 27/24 Q1004 TEMPO 1500 SHRA=
    Wind Dir: 240, Gust: None, Clouds: ['FEW012', 'SCT018', 'FEW030CB', 'BKN090']
  METAR: 202506281630 METAR VABB 281630Z 26011G21KT 2100 -SHRA FEW012 SCT018 FEW030CB BKN090 27/24 Q1004 TEMPO 1500 SHRA=
    Wind Dir: 260, Gust: 21, Clouds: ['FEW012', 'SCT018', 'FEW030CB', 'BKN090']
  METAR: 202506281700 METAR VABB 281700Z 31016G26KT 2100 -SHRA FEW012 SCT018 FEW030CB BKN090 25/23 Q1005 NOSIG=
    Wind Dir: 310, Gust: 26, Clouds: ['FEW012', 'SCT018', 'FEW030CB', 'BKN090']
  METAR: 202506281730 METAR VABB 281730Z 30011KT 2500 BR FEW012 SCT018 FEW030CB BKN090 26/23 Q1005 NOSIG=
    Wind Dir: 300, Gust: None, Clouds: ['FEW012', 'SCT018', 'FEW030CB', 'BKN090']
  METAR: 202506281800 METAR VABB 281800Z 27006KT 2500 BR SCT020 FEW025TCU BKN090 26/23 Q1005 NOSIG=
    Wind Dir: 270, Gust: None, Clouds: ['SCT020', 'FEW025TCU', 'BKN090']
  METAR: 202506281830 METAR VABB 281830Z 26009G19KT 2500 BR SCT020 FEW025TCU BKN100 27/22 Q1005 NOSIG=
    Wind Dir: 260, Gust: 19, Clouds: ['SCT020', 'FEW025TCU', 'BKN100']
  METAR: 202506281900 METAR VABB 281900Z 23003KT 2500 BR SCT020 FEW025TCU BKN100 26/23 Q1005 NOSIG=
    Wind Dir: 230, Gust: None, Clouds: ['SCT020', 'FEW025TCU', 'BKN100']

Row 112: Validity 281900 to 282300
  METAR: 202506281900 METAR VABB 281900Z 23003KT 2500 BR SCT020 FEW025TCU BKN100 26/23 Q1005 NOSIG=
    Wind Dir: 230, Gust: None, Clouds: ['SCT020', 'FEW025TCU', 'BKN100']
  METAR: 202506281930 METAR VABB 281930Z 19003KT 2500 BR SCT020 FEW025TCU BKN100 26/23 Q1004 NOSIG=
    Wind Dir: 190, Gust: None, Clouds: ['SCT020', 'FEW025TCU', 'BKN100']
  METAR: 202506282000 METAR VABB 282000Z 21006KT 2500 BR SCT020 FEW025TCU BKN100 26/23 Q1004 NOSIG=
    Wind Dir: 210, Gust: None, Clouds: ['SCT020', 'FEW025TCU', 'BKN100']
  METAR: 202506282030 METAR VABB 282030Z 25008KT 2500 BR SCT020 SCT025 BKN100 26/23 Q1004 NOSIG=
    Wind Dir: 250, Gust: None, Clouds: ['SCT020', 'SCT025', 'BKN100']
  METAR: 202506282100 METAR VABB 282100Z 23006KT 2500 BR SCT020 SCT025 BKN100 26/23 Q1004 NOSIG=
    Wind Dir: 230, Gust: None, Clouds: ['SCT020', 'SCT025', 'BKN100']
  METAR: 202506282130 METAR VABB 282130Z 00000KT 2500 BR SCT020 SCT025 BKN100 26/23 Q1004 NOSIG=
    Wind Dir: 0, Gust: None, Clouds: ['SCT020', 'SCT025', 'BKN100']
  METAR: 202506282200 METAR VABB 282200Z 00000KT 2500 BR SCT020 SCT025 BKN100 26/23 Q1003 NOSIG=
    Wind Dir: 0, Gust: None, Clouds: ['SCT020', 'SCT025', 'BKN100']
  METAR: 202506282230 METAR VABB 282230Z 22004KT 2500 BR SCT020 SCT025 BKN100 26/24 Q1003 NOSIG=
    Wind Dir: 220, Gust: None, Clouds: ['SCT020', 'SCT025', 'BKN100']
  METAR: 202506282300 METAR VABB 282300Z 22012G22KT 2500 BR SCT020 SCT025 BKN100 27/24 Q1003 NOSIG=
    Wind Dir: 220, Gust: 22, Clouds: ['SCT020', 'SCT025', 'BKN100']
  METAR: 202506282330 METAR VABB 282330Z 22004KT 2500 BR SCT020 SCT025 BKN100 27/24 Q1003 NOSIG=
    Wind Dir: 220, Gust: None, Clouds: ['SCT020', 'SCT025', 'BKN100']

Row 113: Validity 290030 to 290500
  METAR: 202506290030 METAR VABB 290030Z 26010G20KT 2500 BR SCT020 FEW025TCU BKN100 28/24 Q1003 NOSIG=
    Wind Dir: 260, Gust: 20, Clouds: ['SCT020', 'FEW025TCU', 'BKN100']
  METAR: 202506290100 METAR VABB 290100Z 25009KT 2500 BR SCT020 FEW025TCU BKN100 28/25 Q1003 NOSIG=
    Wind Dir: 250, Gust: None, Clouds: ['SCT020', 'FEW025TCU', 'BKN100']
  METAR: 202506290130 METAR VABB 290130Z 25007G17KT 2500 BR SCT020 FEW025TCU BKN100 28/25 Q1003 NOSIG=
    Wind Dir: 250, Gust: 17, Clouds: ['SCT020', 'FEW025TCU', 'BKN100']
  METAR: 202506290200 METAR VABB 290200Z 25008G18KT 1800 -SHRA FEW012 SCT018 FEW025TCU BKN090 28/24 Q1004 TEMPO 1500 SHRA=
    Wind Dir: 250, Gust: 18, Clouds: ['FEW012', 'SCT018', 'FEW025TCU', 'BKN090']
  METAR: 202506290230 METAR VABB 290230Z 26009KT 2500 BR SCT018 FEW025TCU BKN090 28/25 Q1004 NOSIG=
    Wind Dir: 260, Gust: None, Clouds: ['SCT018', 'FEW025TCU', 'BKN090']
  METAR: 202506290300 METAR VABB 290300Z 25010G20KT 2500 BR SCT018 FEW025TCU BKN090 29/25 Q1004 NOSIG=
    Wind Dir: 250, Gust: 20, Clouds: ['SCT018', 'FEW025TCU', 'BKN090']
  METAR: 202506290330 METAR VABB 290330Z 25010G20KT 2500 BR SCT018 FEW025TCU BKN090 29/25 Q1004 NOSIG=
    Wind Dir: 250, Gust: 20, Clouds: ['SCT018', 'FEW025TCU', 'BKN090']
  METAR: 202506290400 METAR VABB 290400Z 25008G18KT 2500 BR SCT018 FEW025TCU BKN090 29/25 Q1005 NOSIG=
    Wind Dir: 250, Gust: 18, Clouds: ['SCT018', 'FEW025TCU', 'BKN090']
  METAR: 202506290430 METAR VABB 290430Z 26009G19KT 2500 BR SCT020 FEW025TCU BKN090 30/25 Q1005 NOSIG=
    Wind Dir: 260, Gust: 19, Clouds: ['SCT020', 'FEW025TCU', 'BKN090']
  METAR: 202506290500 METAR VABB 290500Z 25014G26KT 2500 HZ SCT020 FEW025TCU BKN090 30/25 Q1005 BECMG 3000 HZ=
    Wind Dir: 250, Gust: 26, Clouds: ['SCT020', 'FEW025TCU', 'BKN090']
  METAR: 202506290530 METAR VABB 290530Z 26012G22KT 3000 HZ SCT020 FEW025TCU BKN090 30/25 Q1005 NOSIG=
    Wind Dir: 260, Gust: 22, Clouds: ['SCT020', 'FEW025TCU', 'BKN090']

Row 114: Validity 290430 to 290900
  METAR: 202506290430 METAR VABB 290430Z 26009G19KT 2500 BR SCT020 FEW025TCU BKN090 30/25 Q1005 NOSIG=
    Wind Dir: 260, Gust: 19, Clouds: ['SCT020', 'FEW025TCU', 'BKN090']
  METAR: 202506290500 METAR VABB 290500Z 25014G26KT 2500 HZ SCT020 FEW025TCU BKN090 30/25 Q1005 BECMG 3000 HZ=
    Wind Dir: 250, Gust: 26, Clouds: ['SCT020', 'FEW025TCU', 'BKN090']
  METAR: 202506290530 METAR VABB 290530Z 26012G22KT 3000 HZ SCT020 FEW025TCU BKN090 30/25 Q1005 NOSIG=
    Wind Dir: 260, Gust: 22, Clouds: ['SCT020', 'FEW025TCU', 'BKN090']
  METAR: 202506290600 METAR VABB 290600Z 26012G22KT 3000 HZ SCT020 FEW025TCU BKN090 30/25 Q1005 NOSIG=
    Wind Dir: 260, Gust: 22, Clouds: ['SCT020', 'FEW025TCU', 'BKN090']
  METAR: 202506290630 METAR VABB 290630Z 26012G22KT 3000 HZ SCT020 FEW025TCU BKN090 31/25 Q1004 NOSIG=
    Wind Dir: 260, Gust: 22, Clouds: ['SCT020', 'FEW025TCU', 'BKN090']
  METAR: 202506290700 METAR VABB 290700Z 26012G24KT 3000 HZ SCT020 FEW025TCU BKN090 30/25 Q1004 NOSIG=
    Wind Dir: 260, Gust: 24, Clouds: ['SCT020', 'FEW025TCU', 'BKN090']
  METAR: 202506290730 METAR VABB 290730Z 25012G22KT 3000 HZ FEW012 SCT018 FEW025TCU BKN090 30/24 Q1004 TEMPO 1500 SHRA=
    Wind Dir: 250, Gust: 22, Clouds: ['FEW012', 'SCT018', 'FEW025TCU', 'BKN090']
  METAR: 202506290800 METAR VABB 290800Z 25010G20KT 3000 HZ SCT020 FEW025TCU BKN090 30/25 Q1004 NOSIG=
    Wind Dir: 250, Gust: 20, Clouds: ['SCT020', 'FEW025TCU', 'BKN090']
  METAR: 202506290830 METAR VABB 290830Z 25011G21KT 3000 HZ SCT020 FEW025TCU BKN090 30/24 Q1004 NOSIG=
    Wind Dir: 250, Gust: 21, Clouds: ['SCT020', 'FEW025TCU', 'BKN090']
  METAR: 202506290900 METAR VABB 290900Z 26013G23KT 3000 HZ SCT020 FEW025TCU BKN090 30/24 Q1004 NOSIG=
    Wind Dir: 260, Gust: 23, Clouds: ['SCT020', 'FEW025TCU', 'BKN090']
  METAR: 202506290930 METAR VABB 290930Z 25011G21KT 3000 HZ SCT020 SCT025 BKN090 30/24 Q1003 NOSIG=
    Wind Dir: 250, Gust: 21, Clouds: ['SCT020', 'SCT025', 'BKN090']

Row 115: Validity 291230 to 291700
  METAR: 202506291230 METAR VABB 291230Z 23012KT 4000 HZ SCT018 FEW025TCU 28/25 Q1003 NOSIG=
    Wind Dir: 230, Gust: None, Clouds: ['SCT018', 'FEW025TCU']
  METAR: 202506291300 METAR VABB 291300Z 25011KT 4000 HZ SCT018 FEW025TCU 29/25 Q1003 NOSIG=
    Wind Dir: 250, Gust: None, Clouds: ['SCT018', 'FEW025TCU']
  METAR: 202506291330 METAR VABB 291330Z 24011KT 4000 HZ SCT018 FEW025TCU 29/24 Q1003 NOSIG=
    Wind Dir: 240, Gust: None, Clouds: ['SCT018', 'FEW025TCU']
  METAR: 202506291400 METAR VABB 291400Z 24010KT 4000 HZ SCT018 SCT025 28/24 Q1003 BECMG 3000 HZ=
    Wind Dir: 240, Gust: None, Clouds: ['SCT018', 'SCT025']
  METAR: 202506291430 METAR VABB 291430Z 25011KT 4000 HZ SCT018 SCT025 28/24 Q1003 NOSIG=
    Wind Dir: 250, Gust: None, Clouds: ['SCT018', 'SCT025']
  METAR: 202506291500 METAR VABB 291500Z 25008G18KT 3000 HZ SCT018 SCT025 28/24 Q1003 NOSIG=
    Wind Dir: 250, Gust: 18, Clouds: ['SCT018', 'SCT025']
  METAR: 202506291530 METAR VABB 291530Z 25010G20KT 3000 HZ SCT018 SCT025 28/24 Q1004 NOSIG=
    Wind Dir: 250, Gust: 20, Clouds: ['SCT018', 'SCT025']
  METAR: 202506291600 METAR VABB 291600Z 23009G19KT 3000 HZ SCT018 SCT025 28/24 Q1004 NOSIG=
    Wind Dir: 230, Gust: 19, Clouds: ['SCT018', 'SCT025']
  METAR: 202506291630 METAR VABB 291630Z 24009G22KT 3000 HZ SCT018 SCT025 29/24 Q1004 NOSIG=
    Wind Dir: 240, Gust: 22, Clouds: ['SCT018', 'SCT025']
  METAR: 202506291700 METAR VABB 291700Z 24009G19KT 3000 HZ SCT018 SCT025 28/25 Q1004 NOSIG=
    Wind Dir: 240, Gust: 19, Clouds: ['SCT018', 'SCT025']
  METAR: 202506291730 METAR VABB 291730Z 24008G18KT 3000 HZ SCT018 FEW025TCU BKN100 28/24 Q1004 NOSIG=
    Wind Dir: 240, Gust: 18, Clouds: ['SCT018', 'FEW025TCU', 'BKN100']

Row 116: Validity 291630 to 292100
  METAR: 202506291630 METAR VABB 291630Z 24009G22KT 3000 HZ SCT018 SCT025 29/24 Q1004 NOSIG=
    Wind Dir: 240, Gust: 22, Clouds: ['SCT018', 'SCT025']
  METAR: 202506291700 METAR VABB 291700Z 24009G19KT 3000 HZ SCT018 SCT025 28/25 Q1004 NOSIG=
    Wind Dir: 240, Gust: 19, Clouds: ['SCT018', 'SCT025']
  METAR: 202506291730 METAR VABB 291730Z 24008G18KT 3000 HZ SCT018 FEW025TCU BKN100 28/24 Q1004 NOSIG=
    Wind Dir: 240, Gust: 18, Clouds: ['SCT018', 'FEW025TCU', 'BKN100']
  METAR: 202506291800 METAR VABB 291800Z 24010G20KT 2500 -SHRA FEW012 SCT018 FEW025TCU BKN090 28/25 Q1004 TEMPO 1500 SHRA=
    Wind Dir: 240, Gust: 20, Clouds: ['FEW012', 'SCT018', 'FEW025TCU', 'BKN090']
  METAR: 202506291830 METAR VABB 291830Z 24013G24KT 2500 HZ SCT018 FEW025TCU BKN090 28/24 Q1004 TEMPO 1500 SHRA=
    Wind Dir: 240, Gust: 24, Clouds: ['SCT018', 'FEW025TCU', 'BKN090']
  METAR: 202506291900 METAR VABB 291900Z 25010G21KT 2500 HZ SCT018 FEW025TCU BKN090 28/24 Q1004 NOSIG=
    Wind Dir: 250, Gust: 21, Clouds: ['SCT018', 'FEW025TCU', 'BKN090']
  METAR: 202506291930 METAR VABB 291930Z 25008G18KT 2500 HZ SCT018 FEW025TCU BKN090 28/24 Q1003 NOSIG=
    Wind Dir: 250, Gust: 18, Clouds: ['SCT018', 'FEW025TCU', 'BKN090']
  METAR: 202506292000 METAR VABB 292000Z 25008G18KT 2500 VCSH FEW012 SCT018 FEW025TCU BKN090 28/25 Q1003 NOSIG=
    Wind Dir: 250, Gust: 18, Clouds: ['FEW012', 'SCT018', 'FEW025TCU', 'BKN090']
  METAR: 202506292030 METAR VABB 292030Z 25012G24KT 2500 HZ SCT018 FEW025TCU BKN090 28/25 Q1002 NOSIG=
    Wind Dir: 250, Gust: 24, Clouds: ['SCT018', 'FEW025TCU', 'BKN090']
  METAR: 202506292100 METAR VABB 292100Z 24013G26KT 2500 HZ SCT018 FEW025TCU BKN090 28/24 Q1002 NOSIG=
    Wind Dir: 240, Gust: 26, Clouds: ['SCT018', 'FEW025TCU', 'BKN090']
  METAR: 202506292130 METAR VABB 292130Z 26010G20KT 2500 -RA FEW012 SCT018 FEW025TCU BKN090 27/25 Q1002 TEMPO 1500 SHRA=
    Wind Dir: 260, Gust: 20, Clouds: ['FEW012', 'SCT018', 'FEW025TCU', 'BKN090']

Row 117: Validity 292030 to 300100
  METAR: 202506292030 METAR VABB 292030Z 25012G24KT 2500 HZ SCT018 FEW025TCU BKN090 28/25 Q1002 NOSIG=
    Wind Dir: 250, Gust: 24, Clouds: ['SCT018', 'FEW025TCU', 'BKN090']
  METAR: 202506292100 METAR VABB 292100Z 24013G26KT 2500 HZ SCT018 FEW025TCU BKN090 28/24 Q1002 NOSIG=
    Wind Dir: 240, Gust: 26, Clouds: ['SCT018', 'FEW025TCU', 'BKN090']
  METAR: 202506292130 METAR VABB 292130Z 26010G20KT 2500 -RA FEW012 SCT018 FEW025TCU BKN090 27/25 Q1002 TEMPO 1500 SHRA=
    Wind Dir: 260, Gust: 20, Clouds: ['FEW012', 'SCT018', 'FEW025TCU', 'BKN090']
  METAR: 202506292200 METAR VABB 292200Z 25012G22KT 2500 HZ FEW012 SCT018 FEW025TCU BKN090 28/24 Q1002 TEMPO 1500 SHRA=
    Wind Dir: 250, Gust: 22, Clouds: ['FEW012', 'SCT018', 'FEW025TCU', 'BKN090']
  METAR: 202506292230 METAR VABB 292230Z 25011G21KT 2500 HZ FEW012 SCT018 FEW025TCU BKN090 28/24 Q1002 TEMPO 1500 SHRA=
    Wind Dir: 250, Gust: 21, Clouds: ['FEW012', 'SCT018', 'FEW025TCU', 'BKN090']
  METAR: 202506292300 METAR VABB 292300Z 26011G21KT 2500 HZ SCT018 FEW025TCU BKN090 28/24 Q1002 TEMPO 1500 SHRA=
    Wind Dir: 260, Gust: 21, Clouds: ['SCT018', 'FEW025TCU', 'BKN090']
  METAR: 202506292330 METAR VABB 292330Z 26011G21KT 2500 HZ SCT018 FEW025TCU BKN090 28/24 Q1002 NOSIG=
    Wind Dir: 260, Gust: 21, Clouds: ['SCT018', 'FEW025TCU', 'BKN090']
  METAR: 202506300000 METAR VABB 300000Z 26016G26KT 2500 -RA SCT018 FEW025TCU BKN090 27/24 Q1002 TEMPO 1500 SHRA=
    Wind Dir: 260, Gust: 26, Clouds: ['SCT018', 'FEW025TCU', 'BKN090']
  METAR: 202506300030 METAR VABB 300030Z 26007G17KT 2500 BR SCT018 FEW025TCU BKN090 27/24 Q1002 NOSIG=
    Wind Dir: 260, Gust: 17, Clouds: ['SCT018', 'FEW025TCU', 'BKN090']
  METAR: 202506300100 METAR VABB 300100Z 26012G22KT 2500 BR SCT018 FEW025TCU BKN090 28/24 Q1002 NOSIG=
    Wind Dir: 260, Gust: 22, Clouds: ['SCT018', 'FEW025TCU', 'BKN090']
  METAR: 202506300130 METAR VABB 300130Z 26012G22KT 2500 BR SCT018 FEW025TCU BKN090 28/24 Q1003 NOSIG=
    Wind Dir: 260, Gust: 22, Clouds: ['SCT018', 'FEW025TCU', 'BKN090']

Row 118: Validity 300030 to 300500
  METAR: 202506300030 METAR VABB 300030Z 26007G17KT 2500 BR SCT018 FEW025TCU BKN090 27/24 Q1002 NOSIG=
    Wind Dir: 260, Gust: 17, Clouds: ['SCT018', 'FEW025TCU', 'BKN090']
  METAR: 202506300100 METAR VABB 300100Z 26012G22KT 2500 BR SCT018 FEW025TCU BKN090 28/24 Q1002 NOSIG=
    Wind Dir: 260, Gust: 22, Clouds: ['SCT018', 'FEW025TCU', 'BKN090']
  METAR: 202506300130 METAR VABB 300130Z 26012G22KT 2500 BR SCT018 FEW025TCU BKN090 28/24 Q1003 NOSIG=
    Wind Dir: 260, Gust: 22, Clouds: ['SCT018', 'FEW025TCU', 'BKN090']
  METAR: 202506300200 METAR VABB 300200Z 26010G20KT 2500 HZ SCT018 FEW025TCU BKN090 28/24 Q1003 BECMG 3000 HZ=
    Wind Dir: 260, Gust: 20, Clouds: ['SCT018', 'FEW025TCU', 'BKN090']
  METAR: 202506300230 METAR VABB 300230Z 25011G21KT 2500 VCSH SCT018 FEW025TCU BKN090 28/25 Q1003 NOSIG=
    Wind Dir: 250, Gust: 21, Clouds: ['SCT018', 'FEW025TCU', 'BKN090']
  METAR: 202506300300 METAR VABB 300300Z 26008G18KT 2500 BR FEW012 SCT018 FEW025TCU BKN090 28/25 Q1004 NOSIG=
    Wind Dir: 260, Gust: 18, Clouds: ['FEW012', 'SCT018', 'FEW025TCU', 'BKN090']
  METAR: 202506300330 METAR VABB 300330Z 25010G20KT 2500 BR FEW012 SCT018 FEW025TCU BKN090 29/25 Q1004 NOSIG=
    Wind Dir: 250, Gust: 20, Clouds: ['FEW012', 'SCT018', 'FEW025TCU', 'BKN090']
  METAR: 202506300400 METAR VABB 300400Z 26011G21KT 2500 BR FEW012 SCT018 FEW025TCU BKN090 30/25 Q1004 NOSIG=
    Wind Dir: 260, Gust: 21, Clouds: ['FEW012', 'SCT018', 'FEW025TCU', 'BKN090']
  METAR: 202506300430 METAR VABB 300430Z 26008G18KT 2500 BR FEW012 SCT018 FEW025TCU BKN090 29/24 Q1004 NOSIG=
    Wind Dir: 260, Gust: 18, Clouds: ['FEW012', 'SCT018', 'FEW025TCU', 'BKN090']
  METAR: 202506300500 METAR VABB 300500Z 25014KT 2500 HZ SCT018 FEW025TCU BKN090 29/24 Q1004 BECMG 3000 HZ=
    Wind Dir: 250, Gust: None, Clouds: ['SCT018', 'FEW025TCU', 'BKN090']
  METAR: 202506300530 METAR VABB 300530Z 24014G28KT 3000 HZ SCT018 SCT025 BKN100 30/24 Q1004 NOSIG=
    Wind Dir: 240, Gust: 28, Clouds: ['SCT018', 'SCT025', 'BKN100']

Row 119: Validity 300430 to 300900
  METAR: 202506300430 METAR VABB 300430Z 26008G18KT 2500 BR FEW012 SCT018 FEW025TCU BKN090 29/24 Q1004 NOSIG=
    Wind Dir: 260, Gust: 18, Clouds: ['FEW012', 'SCT018', 'FEW025TCU', 'BKN090']
  METAR: 202506300500 METAR VABB 300500Z 25014KT 2500 HZ SCT018 FEW025TCU BKN090 29/24 Q1004 BECMG 3000 HZ=
    Wind Dir: 250, Gust: None, Clouds: ['SCT018', 'FEW025TCU', 'BKN090']
  METAR: 202506300530 METAR VABB 300530Z 24014G28KT 3000 HZ SCT018 SCT025 BKN100 30/24 Q1004 NOSIG=
    Wind Dir: 240, Gust: 28, Clouds: ['SCT018', 'SCT025', 'BKN100']
  METAR: 202506300600 METAR VABB 300600Z 26013KT 3000 VCSH FEW012 SCT018 FEW025TCU BKN090 29/25 Q1004 TEMPO 1500 SHRA=
    Wind Dir: 260, Gust: None, Clouds: ['FEW012', 'SCT018', 'FEW025TCU', 'BKN090']
  METAR: 202506300630 METAR VABB 300630Z 25014KT 3000 BR FEW012 SCT018 FEW025TCU BKN090 28/25 Q1004 NOSIG=
    Wind Dir: 250, Gust: None, Clouds: ['FEW012', 'SCT018', 'FEW025TCU', 'BKN090']
  METAR: 202506300700 METAR VABB 300700Z 27010G20KT 3000 BR FEW012 SCT018 FEW025TCU BKN090 29/25 Q1004 NOSIG=
    Wind Dir: 270, Gust: 20, Clouds: ['FEW012', 'SCT018', 'FEW025TCU', 'BKN090']
  METAR: 202506300730 METAR VABB 300730Z 25008G18KT 3000 BR FEW012 SCT018 FEW025TCU BKN090 30/25 Q1004 NOSIG=
    Wind Dir: 250, Gust: 18, Clouds: ['FEW012', 'SCT018', 'FEW025TCU', 'BKN090']
  METAR: 202506300800 METAR VABB 300800Z 27016KT 3000 HZ FEW012 SCT018 FEW025TCU BKN090 30/25 Q1003 NOSIG=
    Wind Dir: 270, Gust: None, Clouds: ['FEW012', 'SCT018', 'FEW025TCU', 'BKN090']
  METAR: 202506300830 METAR VABB 300830Z 27013KT 3000 HZ FEW012 SCT018 FEW025TCU BKN090 30/25 Q1003 NOSIG=
    Wind Dir: 270, Gust: None, Clouds: ['FEW012', 'SCT018', 'FEW025TCU', 'BKN090']
  METAR: 202506300900 METAR VABB 300900Z 27010G20KT 3000 HZ FEW012 SCT018 FEW025TCU BKN090 30/25 Q1003 NOSIG=
    Wind Dir: 270, Gust: 20, Clouds: ['FEW012', 'SCT018', 'FEW025TCU', 'BKN090']
  METAR: 202506300930 METAR VABB 300930Z 26007G17KT 2500 VCSH FEW012 SCT018 FEW025TCU BKN090 29/25 Q1003 TEMPO 1500 SHRA=
    Wind Dir: 260, Gust: 17, Clouds: ['FEW012', 'SCT018', 'FEW025TCU', 'BKN090']

Row 120: Validity 301300 to 301700
  METAR: 202506301300 METAR VABB 301300Z 26012KT 2500 BR SCT018 FEW025TCU BKN090 28/25 Q1002 NOSIG=
    Wind Dir: 260, Gust: None, Clouds: ['SCT018', 'FEW025TCU', 'BKN090']
  METAR: 202506301330 METAR VABB 301330Z 26012G22KT 2500 BR SCT018 FEW025TCU BKN090 28/25 Q1002 NOSIG=
    Wind Dir: 260, Gust: 22, Clouds: ['SCT018', 'FEW025TCU', 'BKN090']
  METAR: 202506301400 METAR VABB 301400Z 28010G20KT 2500 -RA FEW012 SCT018 FEW025TCU BKN090 28/24 Q1003 TEMPO 1500 SHRA=
    Wind Dir: 280, Gust: 20, Clouds: ['FEW012', 'SCT018', 'FEW025TCU', 'BKN090']
  METAR: 202506301430 METAR VABB 301430Z 27012G22KT 2500 BR SCT018 FEW025TCU BKN090 28/24 Q1003 NOSIG=
    Wind Dir: 270, Gust: 22, Clouds: ['SCT018', 'FEW025TCU', 'BKN090']
  METAR: 202506301500 METAR VABB 301500Z 28012G22KT 2500 BR SCT018 FEW025TCU BKN090 28/24 Q1003 NOSIG=
    Wind Dir: 280, Gust: 22, Clouds: ['SCT018', 'FEW025TCU', 'BKN090']
  METAR: 202506301530 METAR VABB 301530Z 26012G24KT 2500 BR SCT018 FEW025TCU BKN090 27/24 Q1004 NOSIG=
    Wind Dir: 260, Gust: 24, Clouds: ['SCT018', 'FEW025TCU', 'BKN090']
  METAR: 202506301600 METAR VABB 301600Z 26012G22KT 2500 BR SCT018 FEW025TCU BKN090 28/24 Q1004 NOSIG=
    Wind Dir: 260, Gust: 22, Clouds: ['SCT018', 'FEW025TCU', 'BKN090']
  METAR: 202506301630 METAR VABB 301630Z 27011G21KT 2500 BR SCT018 FEW025TCU BKN090 28/24 Q1004 NOSIG=
    Wind Dir: 270, Gust: 21, Clouds: ['SCT018', 'FEW025TCU', 'BKN090']
  METAR: 202506301700 METAR VABB 301700Z 26009G19KT 2500 BR SCT018 FEW025TCU BKN090 28/24 Q1004 NOSIG=
    Wind Dir: 260, Gust: 19, Clouds: ['SCT018', 'FEW025TCU', 'BKN090']
  METAR: 202506301730 METAR VABB 301730Z 26008G18KT 2500 BR SCT018 FEW025TCU BKN090 28/24 Q1004 NOSIG=
    Wind Dir: 260, Gust: 18, Clouds: ['SCT018', 'FEW025TCU', 'BKN090']

Row 121: Validity 301700 to 302100
  METAR: 202506301700 METAR VABB 301700Z 26009G19KT 2500 BR SCT018 FEW025TCU BKN090 28/24 Q1004 NOSIG=
    Wind Dir: 260, Gust: 19, Clouds: ['SCT018', 'FEW025TCU', 'BKN090']
  METAR: 202506301730 METAR VABB 301730Z 26008G18KT 2500 BR SCT018 FEW025TCU BKN090 28/24 Q1004 NOSIG=
    Wind Dir: 260, Gust: 18, Clouds: ['SCT018', 'FEW025TCU', 'BKN090']
  METAR: 202506301800 METAR VABB 301800Z 26010G20KT 2500 BR SCT018 FEW025TCU BKN090 28/24 Q1004 NOSIG=
    Wind Dir: 260, Gust: 20, Clouds: ['SCT018', 'FEW025TCU', 'BKN090']
  METAR: 202506301830 METAR VABB 301830Z 26008G18KT 2500 BR SCT018 FEW025TCU BKN090 28/25 Q1004 NOSIG=
    Wind Dir: 260, Gust: 18, Clouds: ['SCT018', 'FEW025TCU', 'BKN090']
  METAR: 202506301900 METAR VABB 301900Z 26009G19KT 2500 BR SCT018 FEW025TCU BKN090 28/24 Q1004 NOSIG=
    Wind Dir: 260, Gust: 19, Clouds: ['SCT018', 'FEW025TCU', 'BKN090']
  METAR: 202506301930 METAR VABB 301930Z 26013G23KT 2500 BR SCT018 FEW025TCU BKN090 28/24 Q1004 NOSIG=
    Wind Dir: 260, Gust: 23, Clouds: ['SCT018', 'FEW025TCU', 'BKN090']
  METAR: 202506302000 METAR VABB 302000Z 26010G20KT 2500 BR SCT018 FEW025TCU BKN090 28/24 Q1003 NOSIG=
    Wind Dir: 260, Gust: 20, Clouds: ['SCT018', 'FEW025TCU', 'BKN090']
  METAR: 202506302030 METAR VABB 302030Z 26008G18KT 2500 BR SCT018 FEW025TCU BKN090 28/24 Q1003 NOSIG=
    Wind Dir: 260, Gust: 18, Clouds: ['SCT018', 'FEW025TCU', 'BKN090']
  METAR: 202506302100 METAR VABB 302100Z 25009KT 2500 BR SCT018 FEW025TCU BKN090 28/25 Q1003 NOSIG=
    Wind Dir: 250, Gust: None, Clouds: ['SCT018', 'FEW025TCU', 'BKN090']
  METAR: 202506302130 METAR VABB 302130Z 26009KT 2500 BR SCT018 FEW025TCU BKN090 27/24 Q1002 NOSIG=
    Wind Dir: 260, Gust: None, Clouds: ['SCT018', 'FEW025TCU', 'BKN090']

Row 122: Validity 302100 to 010100
  METAR: 202506302100 METAR VABB 302100Z 25009KT 2500 BR SCT018 FEW025TCU BKN090 28/25 Q1003 NOSIG=
    Wind Dir: 250, Gust: None, Clouds: ['SCT018', 'FEW025TCU', 'BKN090']
  METAR: 202506302130 METAR VABB 302130Z 26009KT 2500 BR SCT018 FEW025TCU BKN090 27/24 Q1002 NOSIG=
    Wind Dir: 260, Gust: None, Clouds: ['SCT018', 'FEW025TCU', 'BKN090']
  METAR: 202506302200 METAR VABB 302200Z 26010G20KT 2500 BR SCT018 FEW025TCU BKN090 28/25 Q1002 NOSIG=
    Wind Dir: 260, Gust: 20, Clouds: ['SCT018', 'FEW025TCU', 'BKN090']
  METAR: 202506302230 METAR VABB 302230Z 26009KT 2500 BR SCT018 FEW025TCU BKN090 28/25 Q1002 NOSIG=
    Wind Dir: 260, Gust: None, Clouds: ['SCT018', 'FEW025TCU', 'BKN090']
  METAR: 202506302300 METAR VABB 302300Z 25010KT 2500 BR SCT018 FEW025TCU BKN090 28/24 Q1002 NOSIG=
    Wind Dir: 250, Gust: None, Clouds: ['SCT018', 'FEW025TCU', 'BKN090']
  METAR: 202506302330 METAR VABB 302330Z 26012KT 2500 BR SCT018 FEW025TCU BKN090 28/24 Q1002 NOSIG=
    Wind Dir: 260, Gust: None, Clouds: ['SCT018', 'FEW025TCU', 'BKN090']
  METAR: 202506010000 METAR VABB 010000Z 12004KT 2500 HZ SCT018 SCT025 FEW030CB BKN100 26/22 Q1005 NOSIG=
    Wind Dir: 120, Gust: None, Clouds: ['SCT018', 'SCT025', 'FEW030CB', 'BKN100']
  METAR: 202506010030 METAR VABB 010030Z 00000KT 2500 HZ SCT018 SCT025 FEW030CB BKN100 27/23 Q1005 NOSIG=
    Wind Dir: 0, Gust: None, Clouds: ['SCT018', 'SCT025', 'FEW030CB', 'BKN100']
  METAR: 202506010100 METAR VABB 010100Z 14004KT 2500 HZ SCT018 FEW025TCU BKN100 27/24 Q1006 NOSIG=
    Wind Dir: 140, Gust: None, Clouds: ['SCT018', 'FEW025TCU', 'BKN100']
