202506010000 METAR VABB 010000Z 12004KT 2500 HZ SCT018 SCT025 FEW030CB BKN100 26/22 Q1005 NOSIG=
202506010030 METAR VABB 010030Z 00000KT 2500 HZ SCT018 SCT025 FEW030CB BKN100 27/23 Q1005 NOSIG=
202506010100 METAR VABB 010100Z 14004KT 2500 HZ SCT018 FEW025TCU BKN100 27/24 Q1006 NOSIG=
202506010130 METAR VABB 010130Z 13004KT 2500 HZ SCT018 FEW025TCU BKN100 27/24 Q1006 BECMG 3000 HZ=
202506010200 METAR VABB 010200Z 15003KT 3000 HZ SCT018 FEW025TCU BKN100 28/25 Q1006 NOSIG=
202506010230 METAR VABB 010230Z 13006KT 3000 HZ SCT018 SCT025 BKN100 28/25 Q1006 NOSIG=
202506010300 METAR VABB 010300Z 17004KT 3000 HZ SCT018 SCT025 BKN100 28/25 Q1007 NOSIG=
202506010330 METAR VABB 010330Z 18008KT 3000 HZ SCT018 SCT025 BKN100 29/25 Q1007 NOSIG=
202506010400 METAR VABB 010400Z 20013G23KT 3000 HZ SCT018 SCT025 BKN100 30/25 Q1007 NOSIG=
202506010430 METAR VABB 010430Z 20007G17KT 2000 -SHRA SCT018 FEW025TCU BKN100 30/25 Q1007 TEMPO 1500 SHRA=
202506010500 METAR VABB 010500Z 10003KT 3000 BR SCT018 FEW025TCU BKN100 28/24 Q1007 NOSIG=
202506010530 METAR VABB 010530Z 25003KT 2500 BR SCT018 FEW025TCU BKN100 28/25 Q1007 NOSIG=
202506010600 METAR VABB 010600Z 23007G17KT 2500 BR SCT018 FEW025TCU BKN100 30/25 Q1007 NOSIG=
202506010630 METAR VABB 010630Z 23012G22KT 3000 HZ SCT018 FEW025TCU BKN100 30/25 Q1006 NOSIG=
202506010700 METAR VABB 010700Z 23012G22KT 3000 HZ SCT020 SCT025 BKN100 31/25 Q1006 NOSIG=
202506010730 METAR VABB 010730Z 24011G21KT 3000 HZ SCT020 SCT025 BKN100 31/25 Q1006 NOSIG=
202506010800 METAR VABB 010800Z 25008G18KT 3000 HZ SCT020 SCT025 BKN100 31/24 Q1006 NOSIG=
202506010900 METAR VABB 010900Z 24013G23KT 3000 HZ FEW020 SCT025 BKN100 31/24 Q1005 NOSIG=
202506010930 METAR VABB 010930Z 25011G21KT 3000 HZ FEW020 SCT025 BKN100 31/25 Q1005 NOSIG=
202506011000 METAR VABB 011000Z 23015G25KT 3000 HZ FEW020 FEW025TCU SCT100 31/24 Q1005 NOSIG=
202506011030 METAR VABB 011030Z 24012G22KT 3500 HZ FEW020 FEW025TCU SCT100 31/25 Q1005 NOSIG=
202506011100 METAR VABB 011100Z 22010G20KT 4000 HZ FEW020 SCT025 31/25 Q1005 NOSIG=
202506011130 METAR VABB 011130Z 24013G23KT 4000 HZ FEW020 SCT025 30/25 Q1004 NOSIG=
202506011200 METAR VABB 011200Z 24015G25KT 4000 HZ FEW020 SCT025 30/25 Q1004 NOSIG=
202506011300 METAR VABB 011300Z 24010G20KT 4000 HZ FEW020 SCT025 30/24 Q1005 NOSIG=
202506011330 METAR VABB 011330Z 24008G18KT 4000 HZ FEW020 SCT025 29/24 Q1005 NOSIG=
202506011400 METAR VABB 011400Z 24007G17KT 3500 HZ FEW020 SCT025 29/24 Q1005 NOSIG=
202506011430 METAR VABB 011430Z 24008KT 3500 HZ FEW020 SCT025 29/24 Q1005 NOSIG=
202506011500 METAR VABB 011500Z 24005KT 3500 HZ FEW020 SCT025 29/24 Q1005 NOSIG=
202506011530 METAR VABB 011530Z 24007KT 3500 HZ FEW020 SCT025 29/25 Q1005 NOSIG=
202506011600 METAR VABB 011600Z 23007KT 3500 HZ FEW020 SCT025 29/24 Q1005 NOSIG=
202506011630 METAR VABB 011630Z 23006KT 3500 HZ FEW020 SCT025 29/24 Q1005 NOSIG=
202506011700 METAR VABB 011700Z 23005KT 3500 HZ FEW020 SCT025 29/24 Q1005 NOSIG=
202506011730 METAR VABB 011730Z 20005KT 3500 HZ FEW020 SCT025 29/24 Q1006 NOSIG=
202506011800 METAR VABB 011800Z 21008G18KT 3500 HZ FEW020 SCT025 29/24 Q1006 NOSIG=
202506011830 METAR VABB 011830Z 20006KT 3500 HZ FEW020 SCT025 29/25 Q1005 BECMG 3000 HZ=
202506011900 METAR VABB 011900Z 20006KT 3000 HZ FEW020 SCT025 29/25 Q1005 NOSIG=
202506011930 METAR VABB 011930Z 22006KT 3000 HZ FEW020 SCT025 29/25 Q1005 NOSIG=
202506012000 METAR VABB 012000Z 20009G19KT 3000 HZ FEW020 SCT025 29/25 Q1004 NOSIG=
202506012030 METAR VABB 012030Z 22004KT 2200 -RA SCT018 FEW025TCU BKN090 28/25 Q1004 TEMPO 1500 SHRA=
202506012100 METAR VABB 012100Z 20005KT 2200 -RA FEW018 SCT025 BKN090 28/25 Q1004 NOSIG=
202506012130 METAR VABB 012130Z 21005KT 2500 HZ FEW018 SCT025 BKN090 28/25 Q1004 NOSIG=
202506012200 METAR VABB 012200Z 18005KT 2500 BR FEW018 SCT025 BKN090 27/25 Q1004 NOSIG=
202506012230 METAR VABB 012230Z 18007KT 2500 BR FEW018 SCT025 BKN090 27/25 Q1004 NOSIG=
202506012300 METAR VABB 012300Z 19005KT 2500 BR FEW018 SCT025 BKN090 28/25 Q1003 NOSIG=
202506012330 METAR VABB 012330Z 19004KT 2500 BR FEW018 SCT025 BKN090 28/25 Q1004 NOSIG=
202506020000 METAR VABB 020000Z 17007KT 2500 -SHRA FEW018 FEW025TCU BKN090 28/24 Q1004 TEMPO 1500 SHRA=
202506020030 METAR VABB 020030Z 15003KT 2500 BR SCT018 FEW025TCU BKN090 27/24 Q1004 NOSIG=
202506020100 METAR VABB 020100Z 20005KT 2500 BR FEW018 FEW025TCU BKN090 28/24 Q1005 NOSIG=
202506020130 METAR VABB 020130Z 20005KT 2500 BR FEW018 FEW025TCU BKN090 27/24 Q1005 NOSIG=
202506020200 METAR VABB 020200Z 18005KT 2500 BR FEW018 SCT025 BKN090 28/24 Q1005 NOSIG=
202506020230 METAR VABB 020230Z 18006KT 2500 BR FEW018 SCT025 BKN090 28/25 Q1005 NOSIG=
202506020300 METAR VABB 020300Z 20005KT 2500 BR FEW018 SCT025 BKN090 28/24 Q1005 NOSIG=
202506020330 METAR VABB 020330Z 19007KT 2500 BR FEW018 SCT025 BKN090 29/24 Q1005 NOSIG=
202506020400 METAR VABB 020400Z 20006KT 2500 BR FEW018 SCT025 BKN090 29/25 Q1006 NOSIG=
202506020430 METAR VABB 020430Z 20006KT 2500 BR FEW020 SCT025 BKN100 30/25 Q1006 BECMG 3000 BR=
202506020500 METAR VABB 020500Z 24009G19KT 3000 HZ FEW020 SCT025 BKN100 31/25 Q1006 NOSIG=
202506020530 METAR COR VABB 020530Z 24014G24KT 3000 HZ FEW020 SCT025 BKN100 31/24 Q1005 NOSIG=
202506020630 METAR VABB 020630Z 24009G19KT 3000 HZ FEW020 SCT025 BKN100 31/24 Q1005 NOSIG=
202506020700 METAR VABB 020700Z 23012G22KT 3500 HZ FEW020 SCT025 31/25 Q1005 NOSIG=
202506020730 METAR VABB 020730Z 24011G21KT 3500 HZ FEW020 SCT025 31/24 Q1005 NOSIG=
202506020800 METAR VABB 020800Z 25010G20KT 3500 HZ FEW020 SCT025 32/25 Q1004 NOSIG=
202506020830 METAR VABB 020830Z 24010G20KT 3500 HZ SCT020 SCT025 31/25 Q1004 NOSIG=
202506020900 METAR VABB 020900Z 25008G18KT 3500 HZ SCT020 SCT025 31/25 Q1004 NOSIG=
202506020930 METAR COR VABB 020930Z 24009G19KT 3500 HZ FEW018 FEW025TCU SCT090 31/24 Q1004 BECMG 3000 HZ=
202506021030 METAR VABB 021030Z 20010G24KT 3000 HZ FEW018 FEW025TCU BKN090 30/24 Q1003 TEMPO 1500 SHRA=
202506021130 METAR VABB 021130Z 27011KT 3000 HZ FEW018 FEW025TCU BKN090 31/25 Q1003 NOSIG=
202506021200 METAR VABB 021200Z 25007G17KT 3000 HZ FEW018 FEW025TCU BKN090 31/25 Q1003 NOSIG=
202506021230 METAR VABB 021230Z 23007KT 3000 HZ FEW018 FEW025TCU BKN090 30/25 Q1003 NOSIG=
202506021300 METAR VABB 021300Z 23013G23KT 3000 HZ FEW018 FEW025TCU BKN090 30/25 Q1004 NOSIG=
202506021330 METAR COR VABB 021330Z 23009G21KT 3000 HZ FEW012 SCT025 FEW025TCU 30/25 Q1004 NOSIG=
202506021400 METAR VABB 021400Z 23007KT 3000 HZ FEW018 SCT025 30/24 Q1004 NOSIG=
202506021500 METAR VABB 021500Z 21006KT 3000 HZ FEW018 SCT025 30/25 Q1004 NOSIG=
202506021530 METAR VABB 021530Z 22007G17KT 3000 HZ FEW020 SCT025 30/25 Q1005 NOSIG=
202506021600 METAR VABB 021600Z 22010G20KT 3000 HZ FEW020 SCT025 30/24 Q1005 NOSIG=
202506021630 METAR VABB 021630Z 23007KT 3000 HZ FEW020 SCT025 30/24 Q1005 NOSIG=
202506021730 METAR VABB 021730Z 23006KT 3000 HZ FEW020 SCT025 29/24 Q1005 NOSIG=
202506021800 METAR VABB 021800Z 23008G18KT 3000 HZ FEW020 SCT025 29/24 Q1005 NOSIG=
202506021930 METAR VABB 021930Z 22010G20KT 3000 HZ FEW020 SCT025 29/25 Q1005 NOSIG=
202506022000 METAR VABB 022000Z 21008G18KT 3000 HZ FEW020 FEW025TCU SCT100 29/24 Q1004 NOSIG=
202506022030 METAR VABB 022030Z 24005KT 2500 BR FEW018 FEW025TCU SCT100 28/25 Q1004 NOSIG=
202506022100 METAR VABB 022100Z 23004KT 2500 BR FEW018 FEW025TCU SCT100 28/25 Q1004 NOSIG=
202506022130 METAR VABB 022130Z 23010G20KT 2500 BR FEW018 FEW025TCU SCT100 29/25 Q1004 NOSIG=
202506022200 METAR VABB 022200Z 23007KT 2500 BR FEW018 FEW025TCU SCT100 29/25 Q1003 NOSIG=
202506022230 METAR VABB 022230Z 24007KT 2500 BR FEW018 FEW025TCU SCT100 29/25 Q1003 NOSIG=
202506022300 METAR VABB 022300Z 24008G18KT 2500 BR FEW018 FEW025TCU SCT100 29/25 Q1004 NOSIG=
202506022330 METAR VABB 022330Z 24007KT 2500 BR FEW018 FEW025TCU SCT100 29/24 Q1004 NOSIG=
202506030000 METAR VABB 030000Z 23008KT 2500 BR FEW020 FEW025TCU SCT100 29/25 Q1004 NOSIG=
202506030030 METAR VABB 030030Z 23007KT 2500 BR FEW020 FEW025TCU SCT100 29/24 Q1004 NOSIG=
202506030100 METAR VABB 030100Z 22006KT 2500 BR FEW020 FEW025TCU SCT100 29/24 Q1005 NOSIG=
202506030130 METAR VABB 030130Z 22010G20KT 2500 BR FEW020 FEW025TCU SCT100 29/25 Q1005 BECMG 3000 BR=
202506030200 METAR VABB 030200Z 23009G19KT 3000 BR FEW020 FEW025TCU SCT100 29/25 Q1005 NOSIG=
202506030230 METAR VABB 030230Z 23007KT 3000 -DZ SCT020 FEW025TCU BKN100 30/25 Q1006 TEMPO 1500 SHRA=
202506030300 METAR VABB 030300Z 23011G21KT 3000 HZ FEW020 FEW025TCU BKN100 30/25 Q1006 NOSIG=
202506030330 METAR VABB 030330Z 23013G23KT 3000 VCSH FEW020 FEW025TCU BKN100 30/25 Q1006 TEMPO 1500 SHRA=
202506030400 METAR VABB 030400Z 22005KT 3000 HZ FEW020 FEW025TCU SCT100 29/23 Q1006 NOSIG=
202506030430 METAR VABB 030430Z 23008KT 3000 HZ FEW020 FEW025TCU SCT100 30/25 Q1006 NOSIG=
202506030500 METAR VABB 030500Z 24007G17KT 3000 HZ FEW020 FEW025TCU SCT100 31/25 Q1006 NOSIG=
202506030530 METAR VABB 030530Z 23010G20KT 3000 HZ FEW020 FEW025TCU SCT100 31/25 Q1006 NOSIG=
202506030600 METAR VABB 030600Z 23012G22KT 3000 HZ FEW020 FEW025TCU SCT100 31/25 Q1006 NOSIG=
202506030630 METAR VABB 030630Z 23012G22KT 3000 HZ FEW020 FEW025TCU SCT100 31/24 Q1006 NOSIG=
202506030700 METAR VABB 030700Z 25010G20KT 3000 HZ FEW020 FEW025TCU SCT100 32/24 Q1006 NOSIG=
202506030730 METAR VABB 030730Z 23014G24KT 3000 HZ FEW020 FEW025TCU SCT100 31/25 Q1005 NOSIG=
202506030800 METAR VABB 030800Z 23013G23KT 3000 HZ FEW020 FEW025TCU SCT100 31/25 Q1005 NOSIG=
202506030830 METAR VABB 030830Z 24013G23KT 3000 HZ FEW020 FEW025TCU SCT100 31/25 Q1004 NOSIG=
202506030900 METAR VABB 030900Z 24013G23KT 3000 HZ SCT020 FEW025TCU SCT100 31/25 Q1004 NOSIG=
202506030930 METAR VABB 030930Z 24012G22KT 3000 HZ SCT020 FEW025TCU BKN100 31/25 Q1004 NOSIG=
202506031000 METAR VABB 031000Z 28011G21KT 2500 -SHRA SCT018 FEW025TCU BKN090 30/24 Q1004 TEMPO 1500 SHRA=
202506031030 METAR VABB 031030Z 24010G20KT 2500 HZ SCT020 FEW025TCU BKN100 31/25 Q1003 BECMG 3000 HZ=
202506031100 METAR VABB 031100Z 24011G21KT 2500 -SHRA SCT018 FEW025TCU BKN090 31/25 Q1003 TEMPO 1500 SHRA=
202506031130 METAR VABB 031130Z 21005KT 2500 HZ SCT018 FEW025TCU BKN090 30/24 Q1003 NOSIG=
202506031200 METAR VABB 031200Z 24007G17KT 2500 HZ SCT018 FEW025TCU BKN090 30/24 Q1004 NOSIG=
202506031230 METAR VABB 031230Z 24010G20KT 2500 HZ SCT018 FEW025TCU BKN090 30/25 Q1004 BECMG 3000 HZ=
202506031300 METAR VABB 031300Z 24011G21KT 3000 HZ SCT020 FEW025TCU BKN100 30/25 Q1004 NOSIG=
202506031330 METAR VABB 031330Z 23009G19KT 3000 HZ SCT020 FEW025TCU BKN100 30/25 Q1004 NOSIG=
202506031400 METAR VABB 031400Z 23007KT 3000 HZ SCT020 FEW025TCU BKN100 30/25 Q1004 NOSIG=
202506031430 METAR VABB 031430Z 23009G19KT 3000 HZ SCT020 FEW025TCU BKN100 30/25 Q1004 NOSIG=
202506031500 METAR VABB 031500Z 24010G20KT 3000 HZ SCT020 FEW025TCU BKN100 30/25 Q1005 NOSIG=
202506031530 METAR VABB 031530Z 25008KT 3000 -RA SCT020 FEW025TCU BKN100 28/24 Q1005 NOSIG=
202506031600 METAR VABB 031600Z 20005G17KT 3000 HZ SCT020 FEW025TCU BKN100 28/23 Q1005 NOSIG=
202506031630 METAR VABB 031630Z 00000KT 3000 HZ SCT020 FEW025TCU BKN100 28/24 Q1005 NOSIG=
202506031700 METAR VABB 031700Z 19003KT 3000 HZ SCT018 FEW030CB BKN100 29/25 Q1006 TEMPO 1500 SHRA=
202506031730 METAR VABB 031730Z 17003KT 3000 HZ SCT018 FEW030CB BKN100 29/25 Q1006 NOSIG=
202506031800 METAR VABB 031800Z 13003KT 3000 DZ SCT018 FEW030CB BKN090 28/25 Q1005 NOSIG=
202506031830 METAR VABB 031830Z 12006KT 3000 HZ SCT018 FEW025TCU BKN090 27/24 Q1005 NOSIG=
202506031900 METAR VABB 031900Z 07003KT 3000 HZ SCT018 FEW025TCU BKN090 27/24 Q1005 NOSIG=
202506031930 METAR VABB 031930Z 13004KT 3000 HZ SCT018 FEW025TCU BKN090 27/24 Q1005 NOSIG=
202506032000 METAR VABB 032000Z 14004KT 3000 HZ FEW012 SCT018 FEW025TCU BKN090 27/25 Q1005 TEMPO 1500 SHRA=
202506032030 METAR VABB 032030Z 13005KT 3000 HZ FEW012 SCT018 FEW025TCU BKN090 27/25 Q1004 NOSIG=
202506032100 METAR VABB 032100Z 13005KT 3000 HZ FEW012 SCT018 FEW025TCU BKN090 27/25 Q1004 TEMPO 1500 SHRA=
202506032130 METAR VABB 032130Z 12004KT 3000 HZ FEW012 SCT018 FEW025TCU BKN090 27/24 Q1004 NOSIG=
202506032200 METAR VABB 032200Z 14005KT 2500 BR FEW012 SCT018 FEW025TCU BKN090 26/24 Q1004 NOSIG=
202506032230 METAR VABB 032230Z 21012G22KT 0500 R27/0600 +SHRA FEW012 SCT018 FEW030CB BKN090 26/24 Q1004 TEMPO 0350 +SHRA=
202506032300 METAR VABB 032300Z 17013G23KT 2500 -RA FEW012 SCT018 FEW030CB BKN090 24/22 Q1004 TEMPO 1500 SHRA=
202506032330 METAR VABB 032330Z 19009G19KT 1800 -RA FEW012 SCT018 FEW030CB BKN090 24/22 Q1004 TEMPO 1500 SHRA=
202506040000 METAR VABB 040000Z 12003KT 2500 BR FEW012 SCT018 FEW025TCU BKN090 25/23 Q1004 TEMPO 1500 SHRA=
202506040030 METAR VABB 040030Z 12006KT 2500 BR FEW012 SCT018 FEW025TCU BKN090 25/24 Q1005 TEMPO 1500 SHRA=
202506040100 METAR VABB 040100Z 09006KT 2500 BR FEW012 SCT018 FEW025TCU BKN090 25/24 Q1005 TEMPO 1500 SHRA=
202506040130 METAR VABB 040130Z 13004KT 2500 BR FEW012 SCT018 FEW025TCU BKN090 25/23 Q1006 NOSIG=
202506040200 METAR VABB 040200Z 12005KT 2500 BR SCT018 FEW025TCU BKN090 25/23 Q1006 NOSIG=
202506040230 METAR VABB 040230Z 12007KT 2500 BR SCT018 FEW025TCU BKN100 25/23 Q1006 NOSIG=
202506040300 METAR VABB 040300Z 13008KT 2500 BR SCT018 FEW025TCU BKN100 26/23 Q1006 NOSIG=
202506040330 METAR VABB 040330Z 13007G17KT 2500 HZ SCT018 FEW025TCU BKN100 27/23 Q1007 TEMPO 1500 SHRA=
202506040400 METAR VABB 040400Z 12007KT 2500 HZ SCT018 FEW030CB BKN100 27/23 Q1007 NOSIG=
202506040500 METAR VABB 040500Z 13007KT 2500 VCSH SCT018 FEW030CB BKN090 28/23 Q1007 TEMPO 1500 SHRA=
202506040600 METAR VABB 040600Z 15003KT 2200 -RA FEW010 SCT018 FEW030CB BKN090 26/23 Q1007 TEMPO 1500 SHRA=
202506040700 METAR VABB 040700Z 10003KT 2200 -DZ FEW012 SCT018 FEW030CB BKN090 25/23 Q1007 NOSIG=
202506040730 METAR VABB 040730Z 07007KT 2200 -DZ FEW012 SCT018 FEW030CB BKN090 26/24 Q1007 NOSIG=
202506040800 METAR VABB 040800Z 10003KT 2500 HZ FEW012 SCT018 FEW030CB BKN090 27/23 Q1007 NOSIG=
202506040830 METAR VABB 040830Z 12011KT 2500 HZ FEW012 SCT018 FEW030CB BKN090 26/23 Q1007 NOSIG=
202506040900 METAR VABB 040900Z 13010G20KT 2500 HZ FEW012 SCT018 FEW030CB BKN090 26/23 Q1007 NOSIG=
202506040930 METAR VABB 040930Z 13008KT 2500 BR FEW012 SCT018 FEW030CB BKN090 26/23 Q1007 NOSIG=
202506041000 METAR VABB 041000Z 13008KT 3000 BR FEW012 SCT018 FEW030CB BKN100 26/23 Q1006 NOSIG=
202506041030 METAR VABB 041030Z 15007KT 3000 HZ SCT018 FEW030CB BKN100 26/22 Q1006 NOSIG=
202506041100 METAR VABB 041100Z 12006KT 3000 HZ FEW018 SCT025 BKN100 27/23 Q1006 NOSIG=
202506041130 METAR VABB 041130Z 14005KT 3500 HZ FEW020 SCT025 BKN100 27/22 Q1006 NOSIG=
202506041200 METAR VABB 041200Z 14005KT 3500 HZ FEW020 SCT025 BKN100 27/22 Q1006 NOSIG=
202506041230 METAR VABB 041230Z 13004KT 3000 HZ FEW020 SCT025 BKN100 27/22 Q1006 NOSIG=
202506041300 METAR VABB 041300Z 13005KT 3000 HZ FEW020 SCT025 BKN100 27/22 Q1006 NOSIG=
202506041330 METAR VABB 041330Z 13005KT 3000 HZ FEW020 SCT025 BKN100 27/22 Q1006 NOSIG=
202506041400 METAR VABB 041400Z 12003KT 3000 HZ FEW020 SCT025 BKN100 27/22 Q1006 NOSIG=
202506041430 METAR VABB 041430Z 00000KT 3000 HZ FEW020 SCT025 BKN100 27/23 Q1007 NOSIG=
202506041500 METAR VABB 041500Z 14004KT 3000 HZ FEW020 SCT025 BKN100 27/22 Q1007 NOSIG=
202506041530 METAR VABB 041530Z 15003KT 3000 HZ FEW020 SCT100 27/23 Q1007 NOSIG=
202506041600 METAR VABB 041600Z 00000KT 3000 HZ FEW020 SCT100 27/23 Q1007 NOSIG=
202506041630 METAR VABB 041630Z 15003KT 3000 HZ FEW020 SCT100 27/23 Q1008 NOSIG=
202506041700 METAR VABB 041700Z 00000KT 3000 HZ FEW020 SCT100 27/23 Q1008 NOSIG=
202506041730 METAR VABB 041730Z 00000KT 3000 HZ FEW020 SCT100 27/23 Q1008 NOSIG=
202506041800 METAR VABB 041800Z 00000KT 3000 HZ FEW020 SCT100 27/23 Q1008 NOSIG=
202506041830 METAR VABB 041830Z 13004KT 3000 HZ FEW020 SCT100 26/23 Q1008 NOSIG=
202506041900 METAR VABB 041900Z 13005KT 3000 HZ SCT020 26/23 Q1007 NOSIG=
202506041930 METAR VABB 041930Z 12005KT 3000 HZ SCT020 26/23 Q1007 NOSIG=
202506042000 METAR VABB 042000Z 12004KT 3000 HZ SCT020 26/23 Q1007 NOSIG=
202506042030 METAR VABB 042030Z 11004KT 3000 HZ SCT020 26/23 Q1007 NOSIG=
202506042100 METAR VABB 042100Z 12005KT 3000 HZ SCT020 26/23 Q1007 NOSIG=
202506042130 METAR VABB 042130Z 00000KT 3000 HZ SCT020 26/22 Q1006 NOSIG=
202506042200 METAR VABB 042200Z 11004KT 3000 HZ SCT020 SCT100 26/22 Q1007 NOSIG=
202506042230 METAR VABB 042230Z 11003KT 3000 HZ SCT020 SCT100 26/22 Q1007 NOSIG=
202506042300 METAR VABB 042300Z 14003KT 3000 HZ SCT020 SCT025 26/23 Q1007 NOSIG=
202506042330 METAR VABB 042330Z 13005KT 3000 HZ SCT020 SCT025 26/23 Q1007 NOSIG=
202506050000 METAR VABB 050000Z 11003KT 3000 HZ SCT020 FEW025TCU SCT100 26/23 Q1007 NOSIG=
202506050030 METAR VABB 050030Z 13004KT 3000 HZ SCT020 SCT100 26/23 Q1007 NOSIG=
202506050100 METAR VABB 050100Z 00000KT 3000 HZ SCT020 SCT100 26/23 Q1008 NOSIG=
202506050130 METAR VABB 050130Z 00000KT 3000 HZ FEW020 SCT100 26/23 Q1008 NOSIG=
202506050200 METAR VABB 050200Z 13003KT 3000 HZ FEW020 BKN100 27/23 Q1008 NOSIG=
202506050230 METAR VABB 050230Z 13004KT 3000 HZ FEW020 BKN100 27/23 Q1009 NOSIG=
202506050300 METAR VABB 050300Z 14004KT 3000 HZ FEW020 BKN100 28/23 Q1009 NOSIG=
202506050330 METAR VABB 050330Z 14003KT 3000 HZ FEW020 BKN100 29/24 Q1009 NOSIG=
202506050400 METAR VABB 050400Z 11004KT 3000 HZ FEW020 BKN100 29/24 Q1010 NOSIG=
202506050430 METAR VABB 050430Z 15003KT 3000 HZ FEW020 BKN100 29/24 Q1010 NOSIG=
202506050500 METAR VABB 050500Z 00000KT 3000 HZ FEW020 BKN100 30/24 Q1010 NOSIG=
202506050530 METAR VABB 050530Z 27005KT 3000 HZ FEW020 SCT025 BKN090 30/23 Q1009 NOSIG=
202506050600 METAR VABB 050600Z 29005KT 3000 HZ FEW020 FEW025TCU BKN100 31/23 Q1009 NOSIG=
202506050630 METAR VABB 050630Z 30006KT 3000 HZ FEW020 FEW025TCU BKN100 31/23 Q1009 NOSIG=
202506050700 METAR VABB 050700Z 27005KT 3000 HZ FEW020 FEW025TCU BKN100 31/23 Q1009 NOSIG=
202506050730 METAR VABB 050730Z 31004KT 3000 HZ FEW020 FEW025TCU BKN100 31/23 Q1008 NOSIG=
202506050800 METAR VABB 050800Z 28005KT 3000 HZ FEW020 FEW030CB BKN100 32/24 Q1008 NOSIG=
202506050830 METAR VABB 050830Z 29004KT 3000 HZ FEW020 FEW030CB BKN100 32/23 Q1008 NOSIG=
202506050900 METAR VABB 050900Z 30005KT 3000 HZ FEW020 FEW030CB BKN100 32/22 Q1008 NOSIG=
202506050930 METAR VABB 050930Z 09009KT 3000 HZ FEW020 FEW030CB BKN100 29/23 Q1008 TEMPO 1500 SHRA=
202506051000 METAR VABB 051000Z 08003KT 3000 HZ FEW020 FEW025TCU BKN100 28/23 Q1008 TEMPO 1500 SHRA=
202506051030 METAR VABB 051030Z 06004KT 3000 HZ FEW020 FEW025TCU BKN100 28/24 Q1008 TEMPO 1500 SHRA=
202506051100 METAR VABB 051100Z 10004KT 3000 HZ FEW020 FEW025TCU BKN100 28/24 Q1007 TEMPO 1500 SHRA=
202506051130 METAR VABB 051130Z 00000KT 3000 HZ FEW020 FEW025TCU BKN100 29/24 Q1007 TEMPO 1500 SHRA=
202506051200 METAR VABB 051200Z 15003KT 3000 HZ FEW020 SCT025 BKN100 29/24 Q1007 NOSIG=
202506051230 METAR VABB 051230Z 13006KT 3000 HZ FEW020 SCT025 BKN100 28/24 Q1007 NOSIG=
202506051300 METAR VABB 051300Z 14004KT 3000 HZ FEW020 SCT025 BKN100 28/24 Q1008 NOSIG=
202506051330 METAR VABB 051330Z 12004KT 3000 HZ FEW020 SCT025 BKN100 28/24 Q1008 NOSIG=
202506051400 METAR VABB 051400Z 11003KT 3000 HZ FEW020 SCT025 BKN100 28/23 Q1009 NOSIG=
202506051430 METAR VABB 051430Z 13003KT 3000 HZ FEW020 SCT025 BKN100 28/23 Q1009 NOSIG=
202506051500 METAR VABB 051500Z 00000KT 3000 HZ FEW020 FEW025TCU BKN100 28/23 Q1009 NOSIG=
202506051530 METAR VABB 051530Z 16003KT 3000 HZ FEW020 FEW025TCU BKN100 28/23 Q1009 NOSIG=
202506051600 METAR VABB 051600Z 16003KT 3000 HZ FEW020 FEW025TCU BKN100 28/23 Q1009 NOSIG=
202506051630 METAR VABB 051630Z 13004KT 3000 HZ FEW020 SCT025 BKN100 28/23 Q1010 NOSIG=
202506051700 METAR VABB 051700Z 13004KT 3000 HZ FEW020 SCT025 BKN100 28/24 Q1010 NOSIG=
202506051730 METAR VABB 051730Z 00000KT 3000 HZ FEW020 SCT025 BKN100 28/24 Q1010 NOSIG=
202506051800 METAR VABB 051800Z 13004KT 3000 HZ FEW020 SCT025 BKN100 28/23 Q1010 NOSIG=
202506051830 METAR VABB 051830Z 13003KT 3000 HZ FEW020 SCT025 BKN100 28/24 Q1010 NOSIG=
202506051900 METAR VABB 051900Z 12003KT 2500 HZ FEW020 SCT025 BKN100 27/23 Q1009 NOSIG=
202506051930 METAR VABB 051930Z 15003KT 2500 HZ FEW020 SCT025 BKN100 28/24 Q1009 NOSIG=
202506052000 METAR VABB 052000Z 00000KT 2500 HZ FEW020 SCT025 BKN100 27/23 Q1008 NOSIG=
202506052030 METAR VABB 052030Z 19003KT 2500 HZ FEW020 SCT025 BKN100 27/24 Q1008 NOSIG=
202506052100 METAR VABB 052100Z 00000KT 2500 HZ FEW020 SCT025 BKN100 27/24 Q1008 NOSIG=
202506052130 METAR VABB 052130Z 07003KT 2500 HZ FEW020 SCT025 BKN100 27/24 Q1008 NOSIG=
202506052200 METAR VABB 052200Z 00000KT 2500 HZ FEW020 SCT025 BKN100 27/24 Q1008 NOSIG=
202506052230 METAR VABB 052230Z 10004KT 2500 HZ FEW020 SCT025 BKN100 27/24 Q1008 NOSIG=
202506052300 METAR VABB 052300Z 14003KT 2500 HZ FEW020 SCT025 BKN100 27/24 Q1008 NOSIG=
202506052330 METAR VABB 052330Z 00000KT 2500 HZ FEW020 SCT025 BKN100 27/24 Q1008 NOSIG=
202506060000 METAR VABB 060000Z 11003KT 2500 HZ FEW020 FEW025TCU BKN100 27/24 Q1009 NOSIG=
202506060030 METAR VABB 060030Z 14003KT 2500 HZ FEW020 FEW030CB BKN100 27/24 Q1009 NOSIG=
202506060100 METAR VABB 060100Z 00000KT 2500 HZ FEW020 FEW030CB BKN100 27/24 Q1009 NOSIG=
202506060130 METAR VABB 060130Z 00000KT 2500 HZ FEW020 FEW030CB BKN100 27/24 Q1009 NOSIG=
202506060200 METAR VABB 060200Z 16003KT 2500 HZ FEW020 FEW025TCU BKN100 27/24 Q1010 NOSIG=
202506060230 METAR VABB 060230Z 14003KT 2500 HZ FEW020 FEW025TCU BKN100 28/24 Q1010 NOSIG=
202506060300 METAR VABB 060300Z 00000KT 2500 BR FEW020 FEW025TCU BKN100 28/25 Q1010 NOSIG=
202506060330 METAR VABB 060330Z 00000KT 2500 BR FEW020 SCT025 BKN100 29/24 Q1010 NOSIG=
202506060400 METAR VABB 060400Z 00000KT 2500 HZ FEW020 SCT025 BKN100 30/24 Q1010 BECMG 3000 HZ=
202506060430 METAR VABB 060430Z 34004KT 3000 HZ FEW020 SCT025 30/23 Q1010 NOSIG=
202506060500 METAR VABB 060500Z 30005KT 3000 DZ FEW018 SCT025 30/23 Q1010 NOSIG=
202506060530 METAR VABB 060530Z 26009KT 3000 HZ FEW018 SCT025 29/24 Q1010 NOSIG=
202506060600 METAR VABB 060600Z 28009KT 2500 TSRA FEW012 SCT018 FEW030CB OVC090 27/24 Q1010 TEMPO 1500 TSRA=
202506060630 METAR VABB 060630Z 27009KT 3000 HZ SCT018 FEW030CB BKN090 28/25 Q1010 NOSIG=
202506060700 METAR VABB 060700Z 27008KT 3000 HZ SCT018 FEW030CB BKN090 30/26 Q1010 TEMPO 1500 TSRA=
202506060730 METAR VABB 060730Z 27007KT 3000 HZ SCT018 FEW030CB BKN090 31/25 Q1009 TEMPO 1500 TSRA=
202506060800 METAR VABB 060800Z 29005KT 3000 HZ SCT018 FEW030CB BKN090 30/25 Q1010 TEMPO 1500 SHRA=
202506060830 METAR VABB 060830Z 30008KT 3000 HZ SCT018 FEW030CB BKN090 30/26 Q1009 NOSIG=
202506060900 METAR VABB 060900Z 27011G21KT 3000 HZ FEW018 SCT025 FEW030CB BKN100 29/25 Q1009 NOSIG=
202506060930 METAR VABB 060930Z 28008G18KT 3000 HZ FEW018 SCT025 FEW030CB BKN100 29/25 Q1008 NOSIG=
202506061000 METAR VABB 061000Z 30011KT 3500 HZ FEW018 SCT025 FEW030CB BKN100 30/24 Q1008 NOSIG=
202506061030 METAR VABB 061030Z 29009KT 3500 HZ FEW018 SCT025 FEW030CB BKN100 30/24 Q1008 NOSIG=
202506061100 METAR VABB 061100Z 29009KT 4000 HZ FEW018 SCT025 FEW030CB BKN100 29/24 Q1007 NOSIG=
202506061101 METAR VABB 061101Z 29009KT 4000 HZ FEW018 SCT025 FEW030CB BKN100 29/24 Q1007 NOSIG=
202506061130 METAR VABB 061130Z 28008KT 4000 HZ FEW018 SCT025 FEW030CB BKN100 29/24 Q1007 NOSIG=
202506061200 METAR VABB 061200Z 30007KT 4000 HZ FEW018 SCT025 FEW030CB BKN100 29/24 Q1008 NOSIG=
202506061230 METAR VABB 061230Z 29008KT 4000 HZ FEW018 SCT025 FEW030CB BKN100 29/25 Q1008 NOSIG=
202506061300 METAR VABB 061300Z 30008KT 4000 HZ FEW018 FEW025TCU BKN100 29/25 Q1008 NOSIG=
202506061330 METAR VABB 061330Z 29004KT 4000 HZ FEW018 FEW025TCU BKN100 29/25 Q1008 BECMG 3000 HZ=
202506061400 METAR VABB 061400Z 30005KT 3500 HZ FEW018 FEW025TCU BKN100 29/25 Q1008 NOSIG=
202506061430 METAR VABB 061430Z 28003KT 3000 HZ FEW018 FEW025TCU BKN100 29/25 Q1009 NOSIG=
202506061500 METAR VABB 061500Z VRB03KT 3000 HZ FEW020 SCT025 BKN100 30/25 Q1009 NOSIG=
202506061530 METAR VABB 061530Z 30004KT 3000 HZ FEW020 SCT025 BKN100 29/25 Q1009 NOSIG=
202506061600 METAR VABB 061600Z 28005KT 3000 HZ FEW020 SCT025 BKN100 29/25 Q1009 NOSIG=
202506061630 METAR VABB 061630Z 29003KT 3000 HZ FEW020 SCT025 BKN100 29/25 Q1009 NOSIG=
202506061700 METAR VABB 061700Z 32003KT 3000 HZ FEW020 SCT025 BKN100 29/25 Q1009 NOSIG=
202506061730 METAR VABB 061730Z 26004KT 3000 HZ FEW020 SCT025 BKN100 29/25 Q1009 NOSIG=
202506061800 METAR VABB 061800Z 24004KT 3000 HZ FEW020 SCT025 BKN100 29/25 Q1009 NOSIG=
202506061830 METAR VABB 061830Z 25005KT 3000 HZ FEW020 SCT025 BKN100 29/24 Q1009 NOSIG=
202506061900 METAR VABB 061900Z 00000KT 3000 HZ FEW020 SCT025 BKN100 29/25 Q1009 NOSIG=
202506061930 METAR VABB 061930Z 15004KT 3000 HZ FEW020 SCT025 BKN100 29/25 Q1009 NOSIG=
202506062000 METAR VABB 062000Z 14004KT 3000 HZ FEW020 SCT025 BKN100 28/25 Q1009 NOSIG=
202506062030 METAR VABB 062030Z 13003KT 2500 -RA FEW020 FEW025TCU BKN100 28/25 Q1008 TEMPO 1500 SHRA=
202506062100 METAR VABB 062100Z VRB03KT 2500 -DZ FEW020 FEW025TCU BKN100 28/24 Q1008 TEMPO 1500 SHRA=
202506062130 METAR VABB 062130Z 23005KT 2500 BR FEW020 FEW030CB BKN100 28/24 Q1008 TEMPO 1500 TSRA=
202506062200 METAR VABB 062200Z 00000KT 2500 HZ FEW020 FEW025TCU BKN100 28/24 Q1008 NOSIG=
202506062230 METAR VABB 062230Z 30006KT 3000 HZ FEW020 FEW025TCU BKN100 27/25 Q1008 TEMPO 1500 SHRA=
202506062300 METAR VABB 062300Z 04005KT 3000 HZ FEW020 SCT025 BKN100 27/24 Q1008 NOSIG=
202506062330 METAR VABB 062330Z 04005KT 3000 HZ FEW020 SCT025 BKN100 27/23 Q1008 NOSIG=
202506070000 METAR VABB 070000Z 00000KT 3000 HZ FEW020 FEW030CB BKN100 27/23 Q1008 NOSIG=
202506070030 METAR VABB 070030Z 00000KT 3000 HZ FEW020 SCT025 27/23 Q1008 BECMG 4000 HZ=
202506070100 METAR VABB 070100Z 14004KT 4000 HZ SCT018 FEW030CB 27/24 Q1009 TEMPO 1500 TSRA=
202506070130 METAR VABB 070130Z 19004KT 3000 VCSH SCT018 FEW030CB 27/24 Q1009 TEMPO 1500 TSRA=
202506070200 METAR VABB 070200Z 27007KT 0500 R27/0500 +SHRA BKN018 FEW030CB 26/24 Q1010 TEMPO 0350+SHRA=
202506070210 METAR VABB 070210Z 27008KT 2000 -RA BKN018 FEW025TCU 25/24 Q1010 NOSIG=
202506070230 METAR VABB 070230Z 23006KT 2000 -RA BKN018 FEW025TCU 25/23 Q1010 NOSIG=
202506070300 METAR VABB 070300Z 24003KT 2500 -RA BKN018 FEW025TCU 26/24 Q1010 NOSIG=
202506070330 METAR VABB 070330Z 00000KT 2500 -DZ BKN018 FEW025TCU 28/25 Q1010 NOSIG=
202506070400 METAR VABB 070400Z 24004KT 2500 -DZ BKN018 FEW025TCU 28/25 Q1011 NOSIG=
202506070430 METAR VABB 070430Z 22003KT 2500 BR BKN020 FEW025TCU 28/25 Q1011 NOSIG=
202506070500 METAR VABB 070500Z 24003KT 2500 HZ SCT020 FEW025TCU SCT100 29/25 Q1011 NOSIG=
202506070530 METAR VABB 070530Z 26003KT 2500 HZ SCT020 FEW030CB SCT100 30/25 Q1010 NOSIG=
202506070630 METAR VABB 070630Z 25007KT 2500 HZ SCT020 FEW030CB SCT100 31/25 Q1010 NOSIG=
202506070700 METAR VABB 070700Z 28006KT 2500 VCSH SCT020 SCT025 FEW030CB BKN100 31/25 Q1010 TEMPO 1500 SHRA=
202506070730 METAR VABB 070730Z 28015KT 2500 TS FEW012 SCT018 FEW030CB BKN100 29/24 Q1010 TEMPO 1500 TSRA=
202506070830 METAR VABB 070830Z 25007G17KT 2500 -TSRA FEW012 SCT018 FEW030CB OVC090 28/24 Q1010 TEMPO 1500 TSRA=
202506070900 METAR VABB 070900Z 19010G22KT 2500 -TSRA SCT012 SCT018 FEW030CB OVC080 26/24 Q1010 TEMPO 1500 TSRA=
202506070930 METAR VABB 070930Z 23004KT 2500 TS SCT012 SCT018 FEW030CB OVC090 25/23 Q1009 TEMPO 1500 TSRA=
202506071000 METAR VABB 071000Z 23005KT 2500 TS SCT018 FEW030CB OVC090 26/24 Q1008 NOSIG=
202506071030 METAR VABB 071030Z 20003KT 2500 BR SCT018 FEW030CB BKN090 26/24 Q1008 NOSIG=
202506071100 METAR VABB 071100Z 23003KT 2500 BR SCT018 FEW030CB BKN090 27/24 Q1008 NOSIG=
202506071130 METAR VABB 071130Z 24004KT 2500 BR SCT018 FEW025TCU BKN090 27/23 Q1008 NOSIG=
202506071200 METAR VABB 071200Z 24003KT 2500 HZ SCT018 FEW025TCU BKN090 27/23 Q1008 TEMPO 1500 SHRA=
202506071230 METAR VABB 071230Z 23006KT 2500 HZ SCT018 SCT025 BKN100 27/23 Q1008 BECMG 3000 HZ=
202506071300 METAR VABB 071300Z 19004KT 3000 HZ FEW020 BKN100 27/23 Q1008 NOSIG=
202506071330 METAR VABB 071330Z 00000KT 3000 HZ FEW020 BKN100 27/23 Q1009 NOSIG=
202506071400 METAR VABB 071400Z 21003KT 3000 HZ FEW020 BKN100 27/22 Q1009 NOSIG=
202506071430 METAR VABB 071430Z 20003KT 3000 HZ FEW020 BKN100 27/22 Q1009 NOSIG=
202506071500 METAR VABB 071500Z 24004KT 3000 BR SCT020 BKN100 27/22 Q1009 NOSIG=
202506071530 METAR VABB 071530Z 15003KT 3000 BR SCT020 BKN100 27/22 Q1010 NOSIG=
202506071600 METAR VABB 071600Z 00000KT 3000 BR SCT020 BKN100 26/23 Q1010 NOSIG=
202506071630 METAR VABB 071630Z 12003KT 3000 BR SCT020 BKN100 27/23 Q1010 NOSIG=
202506071700 METAR VABB 071700Z 22003KT 3000 BR FEW020 SCT100 26/23 Q1010 NOSIG=
202506071730 METAR VABB 071730Z 23003KT 3000 BR FEW020 SCT100 27/23 Q1010 NOSIG=
202506071800 METAR VABB 071800Z 00000KT 3000 BR FEW020 SCT100 27/22 Q1010 NOSIG=
202506071830 METAR VABB 071830Z 15003KT 3000 BR FEW020 SCT100 27/23 Q1010 NOSIG=
202506071900 METAR VABB 071900Z 15003KT 3000 BR FEW020 SCT100 26/22 Q1009 NOSIG=
202506071930 METAR VABB 071930Z 15003KT 3000 BR FEW020 SCT100 26/23 Q1009 NOSIG=
202506072000 METAR VABB 072000Z 17003KT 3000 BR FEW020 SCT100 26/23 Q1009 NOSIG=
202506072030 METAR VABB 072030Z 00000KT 3000 BR FEW020 SCT100 26/23 Q1008 NOSIG=
202506072100 METAR VABB 072100Z 14005KT 3000 BR FEW020 SCT100 26/23 Q1008 NOSIG=
202506072130 METAR VABB 072130Z 22003KT 3000 BR SCT020 BKN100 26/23 Q1008 NOSIG=
202506072200 METAR VABB 072200Z 00000KT 3000 BR SCT020 BKN100 26/23 Q1008 NOSIG=
202506072230 METAR VABB 072230Z 11004KT 3000 BR SCT020 BKN100 26/24 Q1008 NOSIG=
202506072300 METAR VABB 072300Z 00000KT 3000 BR SCT020 BKN100 26/23 Q1008 NOSIG=
202506072330 METAR VABB 072330Z 00000KT 3000 BR SCT020 BKN100 26/23 Q1008 NOSIG=
202506080000 METAR VABB 080000Z 11003KT 3000 BR SCT020 BKN100 26/23 Q1008 NOSIG=
202506080030 METAR VABB 080030Z 15003KT 3000 BR SCT020 BKN100 26/23 Q1009 NOSIG=
202506080100 METAR VABB 080100Z 00000KT 3000 BR FEW020 SCT025 26/23 Q1009 NOSIG=
202506080130 METAR VABB 080130Z 00000KT 3000 BR FEW020 SCT025 26/24 Q1009 NOSIG=
202506080200 METAR VABB 080200Z 13004KT 3000 BR FEW020 SCT025 27/23 Q1009 NOSIG=
202506080230 METAR VABB 080230Z 13004KT 3000 BR FEW020 SCT025 27/24 Q1010 NOSIG=
202506080300 METAR VABB 080300Z 13003KT 3000 HZ FEW020 SCT025 28/24 Q1010 NOSIG=
202506080330 METAR VABB 080330Z 11003KT 3000 HZ FEW020 SCT025 28/24 Q1010 NOSIG=
202506080430 METAR VABB 080430Z 22004KT 3000 HZ FEW020 FEW025TCU BKN100 29/25 Q1010 NOSIG=
202506080500 METAR VABB 080500Z 00000KT 3000 HZ FEW020 FEW025TCU BKN100 30/25 Q1010 NOSIG=
202506080530 METAR VABB 080530Z 26005KT 3000 HZ FEW020 FEW025TCU BKN100 30/25 Q1010 NOSIG=
202506080600 METAR VABB 080600Z 28007KT 3000 HZ FEW020 SCT025 BKN100 31/25 Q1009 NOSIG=
202506080630 METAR VABB 080630Z 28005KT 4000 HZ FEW020 SCT025 BKN100 32/25 Q1009 NOSIG=
202506080700 METAR VABB 080700Z 28007KT 4000 HZ FEW020 SCT025 BKN100 31/25 Q1009 NOSIG=
202506080730 METAR VABB 080730Z 31006KT 4000 HZ FEW020 SCT025 31/25 Q1009 NOSIG=
202506080800 METAR VABB 080800Z 26008KT 4000 HZ FEW020 SCT025 32/25 Q1008 NOSIG=
202506080830 METAR VABB 080830Z 27008KT 4000 HZ FEW020 SCT025 31/25 Q1008 NOSIG=
202506080900 METAR VABB 080900Z 28008KT 4000 HZ FEW020 SCT025 BKN100 32/25 Q1008 NOSIG=
202506080930 METAR VABB 080930Z 31011KT 4000 HZ FEW020 SCT025 BKN100 31/25 Q1007 NOSIG=
202506081000 METAR VABB 081000Z 29009KT 4000 HZ FEW020 SCT025 BKN100 31/25 Q1007 NOSIG=
202506081030 METAR VABB 081030Z 29010KT 4000 HZ FEW020 SCT025 BKN100 32/25 Q1007 NOSIG=
202506081100 METAR VABB 081100Z 30008KT 4000 HZ FEW020 SCT025 BKN100 31/25 Q1007 NOSIG=
202506081130 METAR VABB 081130Z 30008KT 4000 HZ FEW020 SCT025 BKN100 31/25 Q1007 NOSIG=
202506081200 METAR VABB 081200Z 29011KT 4000 HZ SCT020 SCT025 BKN100 30/25 Q1007 NOSIG=
202506081230 METAR VABB 081230Z 30010KT 4000 HZ SCT018 SCT025 BKN100 30/25 Q1007 NOSIG=
202506081300 METAR VABB 081300Z 30009KT 4000 HZ SCT018 SCT025 BKN100 30/25 Q1007 NOSIG=
202506081330 METAR VABB 081330Z 30008KT 4000 HZ FEW020 SCT025 BKN100 30/25 Q1007 NOSIG=
202506081400 METAR VABB 081400Z 30009KT 3500 HZ FEW020 SCT025 BKN100 30/25 Q1008 BECMG 3000 HZ=
202506081430 METAR VABB 081430Z 30009KT 3000 HZ FEW020 SCT025 BKN100 30/25 Q1008 NOSIG=
202506081500 METAR VABB 081500Z 30008KT 3000 HZ FEW020 30/25 Q1008 NOSIG=
202506081530 METAR VABB 081530Z 31006KT 3000 HZ FEW020 30/24 Q1008 NOSIG=
202506081600 METAR VABB 081600Z 30008KT 3000 HZ SCT020 30/25 Q1008 NOSIG=
202506081630 METAR VABB 081630Z 28006KT 3000 HZ SCT020 30/25 Q1009 NOSIG=
202506081700 METAR VABB 081700Z 30008KT 3000 HZ SCT020 30/24 Q1009 NOSIG=
202506081730 METAR VABB 081730Z 31006KT 3000 HZ SCT020 30/24 Q1009 NOSIG=
202506081800 METAR VABB 081800Z 33005KT 3000 HZ SCT020 30/25 Q1009 NOSIG=
202506081830 METAR VABB 081830Z 31005KT 3000 HZ SCT020 30/24 Q1009 NOSIG=
202506081900 METAR VABB 081900Z 31006KT 3000 HZ SCT020 30/24 Q1009 NOSIG=
202506081930 METAR VABB 081930Z 30006KT 3000 HZ SCT020 29/24 Q1008 NOSIG=
202506082000 METAR VABB 082000Z 30006KT 3000 HZ SCT020 29/24 Q1008 NOSIG=
202506082030 METAR VABB 082030Z 29007KT 3000 HZ SCT020 29/25 Q1007 NOSIG=
202506082100 METAR VABB 082100Z 29007KT 3000 HZ SCT020 29/25 Q1007 NOSIG=
202506082130 METAR VABB 082130Z 29007KT 3000 HZ SCT020 29/24 Q1007 NOSIG=
202506082200 METAR VABB 082200Z 30009KT 3000 HZ SCT020 29/24 Q1007 NOSIG=
202506082230 METAR VABB 082230Z 30007KT 3000 HZ SCT020 FEW025TCU 29/23 Q1007 NOSIG=
202506082300 METAR VABB 082300Z 31006KT 3000 HZ SCT020 FEW025TCU 29/23 Q1007 NOSIG=
202506082330 METAR VABB 082330Z 31006KT 3000 HZ FEW020 SCT025 29/24 Q1007 NOSIG=
202506090000 METAR VABB 090000Z 31006KT 3000 HZ FEW020 SCT025 29/24 Q1007 NOSIG=
202506090030 METAR VABB 090030Z 31005KT 3000 HZ FEW020 SCT025 29/24 Q1007 NOSIG=
202506090100 METAR VABB 090100Z 32004KT 3000 HZ SCT020 SCT025 29/24 Q1008 NOSIG=
202506090130 METAR VABB 090130Z 32004KT 3500 HZ SCT020 SCT025 29/24 Q1008 NOSIG=
202506090200 METAR VABB 090200Z 32005KT 3500 HZ SCT020 SCT025 29/24 Q1008 NOSIG=
202506090230 METAR VABB 090230Z 33005KT 3500 HZ FEW020 SCT025 30/24 Q1009 NOSIG=
202506090300 METAR VABB 090300Z 33007KT 3500 HZ FEW020 SCT025 30/24 Q1009 NOSIG=
202506090330 METAR VABB 090330Z 32007KT 3500 HZ FEW020 SCT025 31/24 Q1009 NOSIG=
202506090400 METAR VABB 090400Z 33007KT 3500 HZ FEW020 SCT025 31/23 Q1009 NOSIG=
202506090430 METAR VABB 090430Z 30008KT 3500 HZ FEW020 SCT025 31/24 Q1009 NOSIG=
202506090500 METAR VABB 090500Z 31008KT 3500 HZ FEW020 SCT025 BKN100 31/24 Q1009 NOSIG=
202506090530 METAR VABB 090530Z 34007KT 3500 HZ FEW020 SCT025 BKN100 31/23 Q1009 NOSIG=
202506090600 METAR VABB 090600Z 32005KT 3500 HZ FEW020 SCT025 BKN100 32/23 Q1009 NOSIG=
202506090630 METAR VABB 090630Z 32009KT 4000 HZ FEW020 SCT025 BKN100 32/23 Q1009 NOSIG=
202506090700 METAR VABB 090700Z 30010KT 4000 HZ FEW020 SCT025 BKN100 32/23 Q1008 NOSIG=
202506090730 METAR VABB 090730Z 30009G19KT 4000 HZ FEW020 SCT025 BKN100 32/24 Q1008 NOSIG=
202506090800 METAR VABB 090800Z 28009G19KT 4000 HZ FEW020 SCT025 BKN100 32/24 Q1008 NOSIG=
202506090830 METAR VABB 090830Z 25009KT 4000 HZ FEW020 SCT025 BKN100 31/25 Q1007 NOSIG=
202506090900 METAR VABB 090900Z 26007G17KT 4000 HZ FEW020 SCT025 BKN100 32/25 Q1007 NOSIG=
202506090930 METAR VABB 090930Z 25010G20KT 4000 HZ FEW020 SCT025 BKN100 31/26 Q1007 NOSIG=
202506091000 METAR VABB 091000Z 25010KT 4000 HZ FEW020 SCT025 BKN100 31/25 Q1006 NOSIG=
202506091030 METAR VABB 091030Z 29012KT 3500 VCSH FEW020 SCT025 BKN100 31/24 Q1006 NOSIG=
202506091100 METAR VABB 091100Z 29009KT 3500 HZ FEW020 SCT025 BKN100 30/24 Q1006 NOSIG=
202506091130 METAR VABB 091130Z 30010KT 3500 HZ FEW020 SCT025 BKN100 31/24 Q1006 NOSIG=
202506091200 METAR VABB 091200Z 32009KT 3500 HZ FEW020 SCT025 BKN100 31/24 Q1006 NOSIG=
202506091230 METAR VABB 091230Z 31011KT 3500 HZ FEW020 SCT025 BKN100 31/23 Q1006 NOSIG=
202506091300 METAR VABB 091300Z 32008KT 3500 HZ FEW020 SCT025 BKN100 31/24 Q1006 NOSIG=
202506091330 METAR VABB 091330Z 30010KT 3500 HZ FEW020 SCT025 BKN100 30/24 Q1006 NOSIG=
202506091400 METAR VABB 091400Z 30010KT 3000 HZ FEW020 SCT025 BKN100 30/24 Q1006 NOSIG=
202506091430 METAR VABB 091430Z 31008KT 3000 HZ FEW020 SCT025 BKN100 30/24 Q1006 NOSIG=
202506091500 METAR VABB 091500Z 30008KT 3000 HZ FEW020 SCT025 BKN100 30/23 Q1006 NOSIG=
202506091530 METAR VABB 091530Z 30006KT 3000 HZ FEW020 SCT025 BKN100 30/24 Q1007 NOSIG=
202506091600 METAR VABB 091600Z 30006KT 3000 HZ FEW020 SCT025 BKN100 29/24 Q1007 NOSIG=
202506091630 METAR VABB 091630Z 31005KT 3000 HZ FEW020 SCT025 BKN100 30/24 Q1007 NOSIG=
202506091700 METAR VABB 091700Z 28007KT 3000 HZ FEW020 SCT025 BKN100 29/24 Q1008 NOSIG=
202506091730 METAR VABB 091730Z 30005KT 3000 HZ FEW020 SCT025 BKN100 29/24 Q1008 NOSIG=
202506091800 METAR VABB 091800Z 31004KT 3000 HZ FEW020 SCT025 BKN100 29/24 Q1008 NOSIG=
202506091830 METAR VABB 091830Z 30004KT 3000 HZ FEW020 SCT025 BKN100 29/24 Q1007 NOSIG=
202506091900 METAR VABB 091900Z 31004KT 3000 HZ FEW020 SCT025 BKN100 29/23 Q1007 NOSIG=
202506091930 METAR VABB 091930Z 29003KT 3000 HZ FEW020 SCT025 BKN100 29/24 Q1006 NOSIG=
202506092000 METAR VABB 092000Z 30004KT 3000 HZ FEW020 SCT025 BKN100 29/23 Q1006 NOSIG=
202506092030 METAR VABB 092030Z 29004KT 3000 HZ FEW020 SCT025 BKN100 29/24 Q1005 NOSIG=
202506092100 METAR VABB 092100Z 32004KT 3000 HZ FEW020 SCT025 BKN100 29/24 Q1005 NOSIG=
202506092130 METAR VABB 092130Z 28006KT 3000 HZ FEW020 SCT025 BKN100 29/24 Q1005 NOSIG=
202506092200 METAR VABB 092200Z 28005KT 3000 HZ FEW020 SCT025 BKN100 29/24 Q1005 NOSIG=
202506092230 METAR VABB 092230Z 30005KT 3000 HZ FEW020 SCT025 BKN100 29/24 Q1005 NOSIG=
202506092300 METAR VABB 092300Z 30006KT 3000 HZ FEW020 SCT025 BKN100 29/23 Q1004 NOSIG=
202506092330 METAR VABB 092330Z 30006KT 3000 HZ FEW020 SCT025 BKN100 29/23 Q1004 NOSIG=
202506100000 METAR VABB 100000Z 32005KT 3000 HZ FEW020 SCT025 BKN100 29/23 Q1005 NOSIG=
202506100030 METAR VABB 100030Z 33005KT 3000 HZ FEW020 SCT025 29/23 Q1005 NOSIG=
202506100100 METAR VABB 100100Z 35004KT 3000 HZ FEW020 SCT025 29/23 Q1005 NOSIG=
202506100130 METAR VABB 100130Z 11004KT 3000 HZ SCT020 SCT025 29/23 Q1006 NOSIG=
202506100200 METAR VABB 100200Z 24006KT 3000 -SHRA SCT018 SCT025 28/24 Q1006 NOSIG=
202506100230 METAR VABB 100230Z 18003KT 3000 HZ SCT018 SCT025 28/24 Q1007 NOSIG=
202506100300 METAR VABB 100300Z 23003KT 3000 HZ SCT020 SCT025 29/24 Q1007 NOSIG=
202506100330 METAR VABB 100330Z 36007KT 3000 HZ SCT018 SCT025 29/23 Q1007 NOSIG=
202506100400 METAR VABB 100400Z 00000KT 3000 HZ SCT018 SCT025 30/23 Q1007 NOSIG=
202506100430 METAR VABB 100430Z 30006KT 3500 HZ SCT018 SCT025 31/23 Q1007 NOSIG=
202506100500 METAR VABB 100500Z 34004KT 4000 HZ SCT020 SCT025 32/22 Q1007 NOSIG=
202506100530 METAR VABB 100530Z 30010KT 4000 HZ SCT020 SCT025 31/22 Q1007 NOSIG=
202506100600 METAR VABB 100600Z 30011KT 4000 HZ FEW020 SCT025 31/24 Q1007 NOSIG=
202506100630 METAR VABB 100630Z 29009KT 4000 HZ FEW020 SCT025 32/23 Q1007 NOSIG=
202506100700 METAR VABB 100700Z 28011KT 4000 HZ FEW020 SCT025 32/23 Q1006 NOSIG=
202506100730 METAR VABB 100730Z 28014KT 4000 HZ FEW020 SCT025 31/24 Q1006 NOSIG=
202506100800 METAR VABB 100800Z 30008G18KT 4000 HZ FEW020 SCT025 31/23 Q1006 NOSIG=
202506100830 METAR VABB 100830Z 28009G19KT 4000 HZ FEW020 SCT025 32/24 Q1005 NOSIG=
202506100900 METAR VABB 100900Z 29011KT 4000 HZ FEW020 SCT025 32/24 Q1005 NOSIG=
202506100930 METAR VABB 100930Z 29010KT 4000 HZ FEW020 SCT025 32/25 Q1005 NOSIG=
202506101000 METAR VABB 101000Z 29008G18KT 4000 HZ FEW020 SCT025 32/24 Q1005 NOSIG=
202506101030 METAR VABB 101030Z 30006KT 4000 HZ FEW020 SCT025 32/24 Q1004 NOSIG=
202506101100 METAR VABB 101100Z 28010KT 4000 HZ FEW020 SCT025 32/24 Q1004 NOSIG=
202506101130 METAR VABB 101130Z 29009KT 3500 HZ FEW020 SCT025 31/24 Q1004 NOSIG=
202506101200 METAR VABB 101200Z 28009KT 3500 HZ FEW020 SCT025 31/25 Q1004 NOSIG=
202506101230 METAR VABB 101230Z 30008KT 3500 HZ FEW020 SCT025 30/25 Q1004 NOSIG=
202506101300 METAR VABB 101300Z 30009KT 3500 HZ FEW020 SCT025 30/25 Q1004 NOSIG=
202506101330 METAR VABB 101330Z 30010KT 3500 HZ FEW020 SCT025 30/24 Q1004 NOSIG=
202506101400 METAR VABB 101400Z 30009KT 3500 HZ FEW020 FEW025TCU SCT100 30/25 Q1004 BECMG 3000 HZ=
202506101430 METAR VABB 101430Z 31008KT 3000 HZ FEW020 FEW025TCU BKN100 30/24 Q1005 NOSIG=
202506101500 METAR VABB 101500Z 31009KT 3000 HZ FEW020 FEW025TCU BKN100 30/23 Q1005 NOSIG=
202506101530 METAR VABB 101530Z 31006KT 3000 HZ FEW020 SCT025 BKN100 30/23 Q1005 NOSIG=
202506101600 METAR VABB 101600Z 30005KT 3000 HZ FEW020 SCT025 30/22 Q1005 NOSIG=
202506101630 METAR VABB 101630Z 30005KT 3000 HZ FEW020 SCT025 30/23 Q1005 NOSIG=
202506101700 METAR VABB 101700Z 30007KT 3000 HZ FEW020 SCT025 30/24 Q1005 NOSIG=
202506101730 METAR VABB 101730Z 28007KT 3000 HZ FEW020 SCT025 29/24 Q1005 NOSIG=
202506101800 METAR VABB 101800Z 30006KT 3000 HZ FEW020 SCT025 29/24 Q1005 NOSIG=
202506101830 METAR VABB 101830Z 31006KT 3000 HZ FEW020 SCT025 29/24 Q1005 NOSIG=
202506101900 METAR VABB 101900Z 31006KT 3000 HZ FEW020 SCT025 29/24 Q1005 NOSIG=
202506101930 METAR VABB 101930Z 31005KT 3000 HZ FEW020 SCT025 29/25 Q1004 NOSIG=
202506102000 METAR VABB 102000Z 30005KT 3000 HZ FEW020 SCT025 29/25 Q1004 NOSIG=
202506102030 METAR VABB 102030Z 32006KT 3000 HZ FEW020 SCT025 29/25 Q1003 NOSIG=
202506102100 METAR VABB 102100Z 30007KT 3000 HZ SCT020 SCT025 29/24 Q1003 NOSIG=
202506102130 METAR VABB 102130Z 32005KT 3000 HZ SCT020 SCT025 29/24 Q1003 NOSIG=
202506102200 METAR VABB 102200Z 34003KT 3000 HZ SCT020 SCT025 29/24 Q1003 NOSIG=
202506102230 METAR VABB 102230Z 00000KT 3000 HZ FEW020 SCT025 BKN100 29/24 Q1003 NOSIG=
202506102300 METAR VABB 102300Z 32004KT 3000 HZ FEW020 SCT025 BKN100 29/25 Q1003 NOSIG=
202506102330 METAR VABB 102330Z 32005KT 3000 HZ FEW020 SCT025 BKN100 29/24 Q1003 NOSIG=
202506110000 METAR VABB 110000Z 33004KT 3000 HZ FEW020 SCT025 BKN100 29/25 Q1003 NOSIG=
202506110030 METAR VABB 110030Z 33003KT 3000 HZ FEW020 SCT025 BKN100 29/24 Q1003 NOSIG=
202506110100 METAR VABB 110100Z 35003KT 3000 HZ FEW020 SCT025 BKN100 30/24 Q1004 NOSIG=
202506110130 METAR VABB 110130Z 31004KT 3000 HZ FEW020 SCT025 BKN100 29/24 Q1004 NOSIG=
202506110200 METAR VABB 110200Z 33003KT 3000 HZ FEW020 SCT025 BKN100 30/24 Q1005 NOSIG=
202506110230 METAR VABB 110230Z 35004KT 3000 HZ FEW020 SCT025 BKN100 30/25 Q1005 NOSIG=
202506110300 METAR VABB 110300Z 33008KT 3500 HZ FEW020 SCT025 BKN100 30/24 Q1005 NOSIG=
202506110330 METAR VABB 110330Z 31007KT 3500 HZ FEW020 SCT025 BKN100 31/24 Q1005 NOSIG=
202506110400 METAR VABB 110400Z 31008KT 4000 HZ SCT020 SCT025 BKN100 31/24 Q1006 NOSIG=
202506110430 METAR VABB 110430Z 32008KT 4000 HZ SCT020 SCT025 BKN100 31/24 Q1005 NOSIG=
202506110500 METAR VABB 110500Z 32009KT 4000 HZ SCT020 SCT025 BKN100 31/24 Q1005 NOSIG=
202506110530 METAR VABB 110530Z 32009KT 4000 HZ SCT020 SCT025 BKN100 31/24 Q1005 NOSIG=
202506110600 METAR VABB 110600Z 31010KT 4000 HZ FEW020 SCT025 BKN100 31/25 Q1005 NOSIG=
202506110630 METAR VABB 110630Z 31011KT 4000 HZ FEW020 SCT025 BKN100 31/25 Q1005 NOSIG=
202506110700 METAR VABB 110700Z 32009KT 4000 HZ FEW020 SCT025 BKN100 32/24 Q1005 NOSIG=
202506110730 METAR VABB 110730Z 32010KT 4000 HZ FEW020 SCT025 BKN100 32/24 Q1005 NOSIG=
202506110800 METAR VABB 110800Z 31011KT 4000 HZ FEW020 SCT025 BKN100 32/24 Q1004 NOSIG=
202506110830 METAR VABB 110830Z 32007G17KT 4000 HZ FEW020 SCT025 BKN100 32/24 Q1004 NOSIG=
202506110900 METAR VABB 110900Z 30010KT 4000 HZ FEW020 SCT025 BKN100 32/24 Q1004 NOSIG=
202506110930 METAR VABB 110930Z 31010KT 4000 HZ FEW020 SCT025 BKN100 32/24 Q1003 NOSIG=
202506111000 METAR VABB 111000Z 32008KT 4000 HZ FEW020 SCT025 BKN100 32/24 Q1003 NOSIG=
202506111030 METAR VABB 111030Z 31010KT 4000 HZ FEW020 SCT025 BKN100 31/24 Q1003 NOSIG=
202506111100 METAR VABB 111100Z 31010KT 4000 HZ FEW020 SCT025 BKN100 32/25 Q1002 NOSIG=
202506111130 METAR VABB 111130Z 32010KT 4000 HZ FEW020 SCT025 BKN100 31/24 Q1002 NOSIG=
202506111200 METAR VABB 111200Z 32008KT 4000 HZ FEW020 SCT025 BKN100 31/24 Q1002 NOSIG=
202506111230 METAR VABB 111230Z 30009KT 4000 HZ FEW020 SCT025 BKN100 31/25 Q1002 NOSIG=
202506111300 METAR VABB 111300Z 33009KT 4000 HZ FEW020 SCT025 BKN100 30/25 Q1002 NOSIG=
202506111330 METAR VABB 111330Z 31008KT 4000 HZ FEW020 SCT025 BKN100 30/25 Q1002 NOSIG=
202506111400 METAR VABB 111400Z 32007KT 4000 HZ FEW020 SCT025 BKN100 30/25 Q1003 NOSIG=
202506111430 METAR VABB 111430Z 30007KT 3500 HZ FEW020 SCT025 BKN100 30/25 Q1003 NOSIG=
202506111500 METAR VABB 111500Z 30007KT 3500 HZ FEW020 SCT025 BKN100 30/25 Q1003 NOSIG=
202506111530 METAR VABB 111530Z 30007KT 3500 HZ FEW020 SCT025 BKN100 30/25 Q1003 NOSIG=
202506111600 METAR VABB 111600Z 28009KT 3500 HZ FEW020 SCT025 BKN100 31/25 Q1003 NOSIG=
202506111630 METAR VABB 111630Z 27006KT 3500 HZ FEW020 SCT025 BKN100 30/24 Q1004 BECMG 3000 HZ=
202506111700 METAR VABB 111700Z 26006KT 3000 HZ FEW012 SCT018 FEW025TCU BKN090 30/25 Q1005 TEMPO 1500 SHRA=
202506111730 METAR VABB 111730Z 27005KT 3000 HZ FEW012 SCT018 FEW025TCU BKN090 30/25 Q1005 NOSIG=
202506111800 METAR VABB 111800Z 26005KT 3000 HZ FEW012 SCT018 FEW025TCU BKN090 30/25 Q1005 NOSIG=
202506111830 METAR VABB 111830Z 26006KT 3000 HZ FEW012 SCT018 FEW025TCU BKN090 30/25 Q1004 NOSIG=
202506111900 METAR VABB 111900Z 26007KT 3000 HZ SCT018 FEW025TCU BKN090 30/25 Q1004 NOSIG=
202506111930 METAR VABB 111930Z 30004KT 3000 HZ SCT018 FEW025TCU BKN090 30/26 Q1004 NOSIG=
202506112000 METAR VABB 112000Z 32004KT 3000 TS SCT018 FEW030CB BKN090 30/25 Q1003 TEMPO 1500 TSRA=
202506112030 METAR VABB 112030Z 29006KT 3000 TS SCT018 FEW030CB BKN090 30/26 Q1003 TEMPO 1500 TSRA=
202506112100 METAR VABB 112100Z 30011KT 3000 -TSRA SCT018 FEW030CB BKN090 29/26 Q1002 NOSIG=
202506112130 METAR VABB 112130Z 34004KT 3000 TS SCT018 FEW030CB BKN090 29/25 Q1001 NOSIG=
202506112200 METAR VABB 112200Z 31005KT 3000 HZ SCT018 FEW030CB BKN090 28/24 Q1001 NOSIG=
202506112230 METAR VABB 112230Z 00000KT 3000 HZ SCT018 FEW025TCU BKN090 28/25 Q1001 NOSIG=
202506112300 METAR VABB 112300Z 32006KT 3000 HZ SCT018 FEW025TCU BKN090 29/26 Q1002 NOSIG=
202506112330 METAR VABB 112330Z 31005KT 3000 HZ SCT018 FEW025TCU BKN090 29/25 Q1002 NOSIG=
202506120000 METAR VABB 120000Z 32003KT 3000 HZ SCT018 FEW025TCU BKN090 29/26 Q1002 NOSIG=
202506120030 METAR VABB 120030Z 32006KT 3000 -RA SCT018 FEW025TCU BKN090 29/26 Q1002 NOSIG=
202506120100 METAR VABB 120100Z 34007KT 3000 HZ SCT018 SCT025 BKN100 29/25 Q1002 NOSIG=
202506120130 METAR VABB 120130Z 32006KT 3000 HZ SCT018 SCT025 BKN100 30/26 Q1002 NOSIG=
202506120200 METAR VABB 120200Z 34005KT 3000 -SHRA SCT018 SCT025 BKN100 30/26 Q1003 TEMPO 1500 SHRA=
202506120230 METAR VABB 120230Z 34005KT 3000 -RA FEW012 SCT018 SCT025 BKN090 29/26 Q1003 TEMPO 1500 SHRA=
202506120300 METAR VABB 120300Z 33008KT 3000 -DZ SCT018 FEW025TCU BKN090 30/26 Q1003 TEMPO 1500 SHRA=
202506120330 METAR VABB 120330Z 33006KT 3000 HZ FEW018 SCT025 BKN090 30/26 Q1003 NOSIG=
202506120400 METAR VABB 120400Z 33010KT 3000 HZ FEW018 SCT025 BKN090 30/26 Q1003 NOSIG=
202506120430 METAR VABB 120430Z 35008KT 3000 VCSH SCT018 FEW025TCU BKN090 30/26 Q1004 TEMPO 1500 SHRA=
202506120500 METAR VABB 120500Z 35007G17KT 3000 HZ SCT018 SCT025 BKN090 30/26 Q1004 NOSIG=
202506120530 METAR VABB 120530Z 34007G17KT 3000 HZ FEW018 SCT025 BKN090 31/25 Q1004 NOSIG=
202506120600 METAR VABB 120600Z 33010G20KT 3000 HZ FEW018 SCT025 BKN090 31/24 Q1004 NOSIG=
202506120630 METAR VABB 120630Z 34009KT 3000 HZ FEW018 SCT025 BKN090 32/25 Q1003 NOSIG=
202506120700 METAR VABB 120700Z 33009G19KT 3000 HZ FEW020 SCT025 BKN100 33/24 Q1003 NOSIG=
202506120730 METAR VABB 120730Z 34008KT 3000 HZ FEW020 SCT025 BKN100 33/24 Q1002 NOSIG=
202506120800 METAR VABB 120800Z 33011G21KT 3000 FU FEW020 SCT025 BKN100 33/23 Q1002 NOSIG=
202506120830 METAR VABB 120830Z 32010KT 3000 HZ FEW020 SCT025 BKN100 33/25 Q1001 NOSIG=
202506120900 METAR VABB 120900Z 32008G18KT 3500 HZ FEW020 SCT025 BKN100 33/25 Q1001 BECMG 4000 HZ=
202506120930 METAR VABB 120930Z 30008G18KT 4000 HZ FEW020 FEW025TCU BKN100 33/26 Q1001 NOSIG=
202506121000 METAR VABB 121000Z 32009G19KT 4000 HZ FEW020 FEW030CB BKN100 33/25 Q1001 NOSIG=
202506121030 METAR VABB 121030Z 33009KT 4000 HZ FEW020 FEW030CB BKN100 32/24 Q1000 NOSIG=
202506121100 METAR VABB 121100Z 32010KT 4000 HZ FEW020 SCT025 BKN100 31/25 Q1000 NOSIG=
202506121130 METAR VABB 121130Z 32009KT 4000 HZ FEW020 SCT025 BKN100 31/24 Q1000 NOSIG=
202506121200 METAR VABB 121200Z 30010KT 4000 HZ FEW020 FEW025TCU BKN100 31/25 Q1000 NOSIG=
202506121230 METAR VABB 121230Z 30011KT 4000 HZ FEW020 FEW025TCU BKN100 31/24 Q1000 NOSIG=
202506121300 METAR VABB 121300Z 31009KT 4000 HZ FEW020 SCT025 BKN100 31/24 Q1000 NOSIG=
202506121330 METAR VABB 121330Z 31008KT 4000 HZ FEW020 SCT025 BKN100 30/25 Q1000 NOSIG=
202506121400 METAR VABB 121400Z 31007KT 3500 HZ FEW020 SCT025 BKN100 30/25 Q1001 NOSIG=
202506121430 METAR VABB 121430Z 31008KT 3500 HZ FEW020 SCT025 BKN100 30/25 Q1001 NOSIG=
202506121500 METAR VABB 121500Z 31009KT 3500 HZ FEW020 SCT025 BKN100 30/25 Q1001 NOSIG=
202506121530 METAR VABB 121530Z 32007KT 3500 HZ FEW020 SCT025 BKN100 30/25 Q1001 NOSIG=
202506121600 METAR VABB 121600Z 32007KT 3500 HZ FEW020 SCT025 BKN100 30/26 Q1001 NOSIG=
202506121630 METAR VABB 121630Z 30008KT 3000 HZ FEW020 SCT025 BKN100 30/26 Q1002 NOSIG=
202506121700 METAR VABB 121700Z 29008KT 3000 HZ FEW020 SCT025 BKN100 30/26 Q1002 NOSIG=
202506121730 METAR VABB 121730Z 32005KT 2500 HZ FEW020 SCT025 BKN100 30/25 Q1003 NOSIG=
202506121800 METAR VABB 121800Z 33003KT 2100 -TSRA SCT020 FEW030CB BKN090 30/25 Q1003 TEMPO 1500 TSRA=
202506121830 METAR VABB 121830Z 14005KT 2100 TS SCT020 FEW030CB BKN090 29/26 Q1003 TEMPO 1500 TSRA=
202506121900 METAR VABB 121900Z 13008KT 1200 R27/1500 TSRA SCT020 FEW030CB BKN090 26/24 Q1003 TEMPO 0800 +TSRA=
202506121930 METAR VABB 121930Z 00000KT 2100 -TSRA SCT020 FEW030CB BKN090 26/24 Q1002 NOSIG=
202506122000 METAR VABB 122000Z 12009KT 2100 -TSRA SCT020 FEW030CB BKN090 26/23 Q1002 NOSIG=
202506122030 METAR VABB 122030Z 07007KT 2100 TS SCT020 FEW030CB BKN100 26/23 Q1001 NOSIG=
202506122100 METAR VABB 122100Z 05003KT 2100 TS SCT020 FEW030CB BKN100 26/23 Q1002 NOSIG=
202506122130 METAR VABB 122130Z 32005KT 2100 TS SCT020 FEW030CB BKN100 26/23 Q1001 NOSIG=
202506122200 METAR VABB 122200Z 35004KT 2100 TS SCT018 FEW030CB BKN100 26/23 Q1001 NOSIG=
202506122230 METAR VABB 122230Z 32004KT 2100 TS SCT018 FEW030CB BKN100 26/23 Q1001 NOSIG=
202506122300 METAR VABB 122300Z 00000KT 2100 HZ SCT018 FEW030CB BKN100 26/23 Q1001 NOSIG=
202506122330 METAR VABB 122330Z 33003KT 2100 HZ SCT018 FEW025TCU BKN100 26/24 Q1002 NOSIG=
202506130000 METAR VABB 130000Z 35003KT 2100 HZ SCT018 FEW025TCU BKN100 26/24 Q1002 NOSIG=
202506130030 METAR VABB 130030Z 35003KT 2100 HZ SCT018 FEW025TCU BKN100 27/24 Q1002 NOSIG=
202506130100 METAR VABB 130100Z 05005KT 2500 HZ SCT018 FEW025TCU BKN100 27/24 Q1002 NOSIG=
202506130130 METAR VABB 130130Z 04005KT 2500 HZ SCT018 FEW025TCU BKN100 26/24 Q1002 NOSIG=
202506130200 METAR VABB 130200Z 05003KT 2500 -RA SCT018 FEW025TCU BKN100 26/23 Q1003 TEMPO 1500 SHRA=
202506130230 METAR VABB 130230Z 07004KT 2500 -RA SCT018 FEW025TCU BKN100 27/23 Q1003 TEMPO 1500 SHRA=
202506130300 METAR VABB 130300Z 09004KT 2500 -DZ SCT018 FEW025TCU BKN100 27/23 Q1003 NOSIG=
202506130330 METAR VABB 130330Z 12005KT 2500 HZ SCT018 FEW025TCU BKN100 26/23 Q1003 NOSIG=
202506130400 METAR VABB 130400Z 10003KT 2500 HZ SCT018 FEW025TCU BKN100 26/24 Q1003 NOSIG=
202506130430 METAR VABB 130430Z 00000KT 2500 BR SCT018 FEW025TCU BKN100 27/24 Q1003 NOSIG=
202506130500 METAR VABB 130500Z 07003KT 2500 BR SCT018 FEW025TCU BKN100 28/24 Q1003 NOSIG=
202506130530 METAR VABB 130530Z 00000KT 2500 BR SCT018 FEW025TCU BKN100 29/25 Q1003 NOSIG=
202506130600 METAR VABB 130600Z 34005KT 2500 HZ SCT018 FEW025TCU BKN100 29/24 Q1003 NOSIG=
202506130630 METAR VABB 130630Z 01004KT 2500 HZ SCT018 FEW025TCU BKN100 29/24 Q1003 NOSIG=
202506130700 METAR VABB 130700Z 32006KT 2500 HZ SCT018 SCT025 BKN100 29/24 Q1002 BECMG 3000 HZ=
202506130730 METAR VABB 130730Z 00000KT 3000 HZ SCT018 SCT025 BKN100 29/25 Q1002 NOSIG=
202506130800 METAR VABB 130800Z 00000KT 3000 HZ SCT018 SCT025 BKN100 30/25 Q1002 NOSIG=
202506130830 METAR VABB 130830Z 33008KT 3000 HZ SCT018 SCT025 BKN100 30/25 Q1001 NOSIG=
202506130900 METAR VABB 130900Z 32008KT 3000 HZ FEW012 SCT018 FEW025TCU BKN090 29/25 Q1001 TEMPO 1500 SHRA=
202506130930 METAR VABB 130930Z 31008KT 3000 HZ FEW012 SCT018 FEW025TCU BKN090 30/25 Q1001 NOSIG=
202506131000 METAR VABB 131000Z 32007KT 3000 HZ FEW012 SCT018 FEW025TCU BKN090 29/25 Q1001 TEMPO 1500 SHRA=
202506131030 METAR VABB 131030Z 31007KT 3000 HZ FEW012 SCT018 FEW025TCU BKN090 29/26 Q1000 TEMPO 1500 SHRA=
202506131100 METAR VABB 131100Z 31008KT 3000 HZ SCT012 SCT018 FEW025TCU BKN090 29/26 Q1000 TEMPO 1500 SHRA=
202506131130 METAR VABB 131130Z 33005KT 3000 BR SCT012 SCT018 FEW025TCU BKN090 29/26 Q1000 TEMPO 1500 SHRA=
202506131200 METAR VABB 131200Z 30006KT 3000 BR SCT012 SCT018 FEW025TCU BKN090 29/26 Q1000 TEMPO 1500 SHRA=
202506131230 METAR VABB 131230Z 34006KT 3000 BR SCT012 SCT018 FEW025TCU BKN090 30/25 Q1000 TEMPO 1500 SHRA=
202506131300 METAR VABB 131300Z 34008KT 3000 BR SCT012 SCT018 FEW030CB BKN090 30/26 Q1000 TEMPO 1500 SHRA=
202506131330 METAR VABB 131330Z 35007KT 3000 BR SCT012 SCT018 FEW030CB BKN090 30/25 Q1000 TEMPO 1500 SHRA=
202506131400 METAR VABB 131400Z 33006KT 3000 BR SCT012 SCT018 FEW030CB BKN090 29/26 Q1000 TEMPO 1500 SHRA=
202506131430 METAR VABB 131430Z 33006KT 3000 HZ SCT012 SCT018 FEW030CB BKN090 30/25 Q1001 NOSIG=
202506131500 METAR VABB 131500Z 32006KT 3000 HZ SCT012 SCT018 FEW030CB BKN090 30/25 Q1001 NOSIG=
202506131530 METAR VABB 131530Z 33004KT 2500 TS SCT012 SCT018 FEW030CB BKN090 30/25 Q1001 TEMPO 1500 TSRA=
202506131600 METAR VABB 131600Z 01005KT 2500 TS SCT018 FEW030CB BKN090 30/25 Q1001 NOSIG=
202506131630 METAR VABB 131630Z 35004KT 2500 TS SCT018 FEW030CB BKN090 30/25 Q1001 TEMPO 1500 TSRA=
202506131700 METAR VABB 131700Z 35003KT 2500 TS SCT018 FEW030CB BKN090 29/25 Q1002 TEMPO 1500 TSRA=
202506131730 METAR VABB 131730Z 35004KT 2500 TS SCT018 FEW030CB BKN090 29/25 Q1002 TEMPO 1500 TSRA=
202506131800 METAR VABB 131800Z 00000KT 2500 -TSRA FEW012 SCT018 FEW030CB BKN090 29/25 Q1002 TEMPO 1500 TSRA=
202506131830 METAR VABB 131830Z 28003KT 2500 -TSRA FEW012 SCT018 FEW030CB BKN090 29/26 Q1002 TEMPO 1500 TSRA=
202506131900 METAR VABB 131900Z 00000KT 2500 -RA FEW012 SCT018 FEW030CB BKN090 29/26 Q1002 TEMPO 1500 TSRA=
202506131930 METAR VABB 131930Z 00000KT 2100 -RA FEW012 SCT018 FEW030CB BKN090 28/26 Q1001 TEMPO 1500 TSRA=
202506132000 METAR VABB 132000Z 16004KT 2100 TSRA FEW012 SCT018 FEW030CB BKN090 28/26 Q1001 TEMPO 1500 TSRA=
202506132030 METAR VABB 132030Z 21003KT 2100 -TSRA FEW012 SCT018 FEW030CB BKN090 28/26 Q1001 TEMPO 1500 TSRA=
202506132100 METAR VABB 132100Z 22003KT 2500 TS FEW012 SCT018 FEW030CB BKN090 27/25 Q1001 NOSIG=
202506132130 METAR VABB 132130Z 21003KT 2500 TS FEW012 SCT018 FEW030CB BKN090 27/25 Q1000 TEMPO 1500 TSRA=
202506132200 METAR VABB 132200Z 22003KT 2500 TS FEW012 SCT018 FEW030CB BKN090 27/26 Q1000 TEMPO 1500 TSRA=
202506132230 METAR VABB 132230Z 00000KT 2500 TS FEW012 SCT018 FEW030CB BKN090 28/26 Q1000 TEMPO 1500 TSRA=
202506132300 METAR VABB 132300Z 00000KT 2500 -TSRA FEW012 SCT018 FEW030CB OVC090 28/26 Q1000 TEMPO 1500 TSRA=
202506132330 METAR VABB 132330Z 00000KT 2500 TS FEW012 SCT018 FEW030CB OVC090 28/26 Q1000 TEMPO 1500 TSRA=
202506140000 METAR VABB 140000Z 14004KT 2500 TS FEW012 SCT018 FEW030CB OVC090 27/26 Q1000 TEMPO 1500 TSRA=
202506140030 METAR VABB 140030Z 12003KT 2500 TS FEW012 SCT018 FEW030CB OVC090 27/25 Q1000 TEMPO 1500 TSRA=
202506140100 METAR VABB 140100Z 15003KT 2500 BR FEW012 SCT018 FEW030CB OVC090 27/25 Q1000 NOSIG=
202506140130 METAR COR VABB 140130Z 00000KT 2500 BR FEW012 SCT018 FEW025TCU BKN090 28/26 Q1001 NOSIG=
202506140200 METAR VABB 140200Z 00000KT 2500 BR SCT018 FEW025TCU BKN090 28/26 Q1001 NOSIG=
202506140230 METAR VABB 140230Z 00000KT 2500 BR SCT018 FEW025TCU BKN090 28/26 Q1001 NOSIG=
202506140300 METAR VABB 140300Z 00000KT 2500 BR SCT018 FEW025TCU BKN090 29/26 Q1001 NOSIG=
202506140330 METAR VABB 140330Z 13004KT 2500 BR SCT018 FEW025TCU BKN090 29/26 Q1001 NOSIG=
202506140400 METAR VABB 140400Z 00000KT 2500 BR FEW020 SCT025 BKN090 30/26 Q1001 NOSIG=
202506140430 METAR VABB 140430Z 01003KT 2500 BR FEW020 SCT025 BKN090 30/26 Q1001 NOSIG=
202506140500 METAR VABB 140500Z 02004KT 2500 HZ FEW020 SCT025 BKN100 31/24 Q1001 BECMG 3000 HZ=
202506140530 METAR VABB 140530Z 33004KT 3000 HZ FEW020 SCT025 BKN100 31/25 Q1001 NOSIG=
202506140600 METAR VABB 140600Z 32007KT 3000 HZ FEW020 SCT025 BKN100 31/25 Q1001 NOSIG=
202506140630 METAR VABB 140630Z 34006KT 3000 VCSH FEW018 FEW025TCU BKN100 31/25 Q1001 NOSIG=
202506140700 METAR VABB 140700Z 32008KT 3000 HZ FEW018 FEW025TCU BKN100 31/25 Q1000 NOSIG=
202506140730 METAR VABB 140730Z 32008KT 3500 HZ FEW020 SCT025 BKN100 32/25 Q1000 NOSIG=
202506140800 METAR VABB 140800Z 33006KT 3500 HZ FEW020 SCT025 BKN100 32/25 Q0999 NOSIG=
202506140830 METAR VABB 140830Z 32008KT 3500 HZ FEW020 SCT025 BKN100 31/25 Q0999 NOSIG=
202506140900 METAR VABB 140900Z 30008KT 3500 HZ FEW020 FEW025TCU BKN100 32/25 Q0999 NOSIG=
202506140930 METAR VABB 140930Z 28011KT 3500 HZ FEW020 FEW030CB BKN100 32/26 Q0998 NOSIG=
202506141000 METAR VABB 141000Z 29010KT 3500 HZ FEW020 FEW030CB BKN100 32/25 Q0998 NOSIG=
202506141030 METAR VABB 141030Z 28007KT 3500 HZ FEW020 FEW030CB BKN100 33/26 Q0997 NOSIG=
202506141100 METAR VABB 141100Z 27011KT 3500 HZ FEW020 FEW030CB BKN100 32/26 Q0997 NOSIG=
202506141130 METAR VABB 141130Z 29009KT 3500 HZ FEW020 FEW030CB BKN100 31/25 Q0997 BECMG 3000 HZ=
202506141200 METAR VABB 141200Z 30011KT 3500 HZ FEW020 FEW025TCU BKN100 31/26 Q0997 NOSIG=
202506141230 METAR VABB 141230Z 29011KT 3500 HZ FEW020 FEW030CB BKN100 31/26 Q0997 NOSIG=
202506141300 METAR VABB 141300Z 29011KT 3000 HZ FEW012 FEW018 FEW030CB BKN100 30/26 Q0998 NOSIG=
202506141330 METAR VABB 141330Z 30011KT 3000 -RA FEW012 FEW018 FEW030CB BKN100 30/26 Q0998 TEMPO 1500 TSRA=
202506141400 METAR VABB 141400Z 31007KT 3000 -TSRA FEW012 FEW018 FEW030CB BKN100 30/26 Q0999 TEMPO 1500 TSRA=
202506141430 METAR VABB 141430Z 32008KT 3000 -TSRA FEW012 FEW018 FEW030CB BKN100 30/26 Q0999 TEMPO 1500 TSRA=
202506141500 METAR VABB 141500Z 36006KT 1800 -TSRA FEW012 SCT018 FEW030CB BKN090 28/26 Q0999 TEMPO 1500 TSRA=
202506141530 METAR VABB 141530Z 01005KT 2200 -TSRA FEW012 SCT018 FEW030CB BKN090 28/26 Q1000 TEMPO 1500 TSRA=
202506141600 METAR VABB 141600Z 32005KT 2200 TS FEW012 SCT018 FEW030CB BKN090 28/25 Q1000 TEMPO 1500 TSRA=
202506141630 METAR VABB 141630Z 05004KT 2200 TS FEW012 SCT018 FEW030CB BKN090 28/25 Q1000 TEMPO 1500 TSRA=
202506141700 METAR VABB 141700Z 11003KT 2200 -TSRA FEW012 SCT018 FEW030CB BKN090 27/25 Q1000 TEMPO 1500 TSRA=
202506141730 METAR VABB 141730Z 00000KT 2200 -TSRA FEW012 SCT018 FEW030CB BKN090 27/25 Q1000 TEMPO 1500 TSRA=
202506141800 METAR VABB 141800Z 00000KT 2200 -TSRA FEW012 SCT018 FEW030CB BKN090 27/25 Q0999 TEMPO 1500 TSRA=
202506141830 METAR VABB 141830Z 00000KT 2200 -TSRA FEW012 SCT018 FEW030CB BKN090 27/25 Q0999 NOSIG=
202506141900 METAR VABB 141900Z 05004KT 2200 -TSRA FEW012 SCT018 FEW030CB BKN090 27/25 Q0998 TEMPO 1500 TSRA=
202506141930 METAR VABB 141930Z 12004KT 2200 TS FEW012 SCT018 FEW030CB BKN090 27/25 Q0998 NOSIG=
202506142000 METAR VABB 142000Z 11007KT 2100 TS FEW012 SCT018 FEW030CB BKN090 26/25 Q0998 TEMPO 1500 TSRA=
202506142030 METAR VABB 142030Z 09008KT 2100 TS FEW012 SCT018 FEW030CB BKN090 27/25 Q0998 TEMPO 1500 TSRA=
202506142100 METAR VABB 142100Z 13004KT 2100 -TSRA FEW012 SCT018 FEW030CB BKN090 26/25 Q0998 TEMPO 1500 TSRA=
202506142130 METAR VABB 142130Z 14004KT 2100 TS FEW012 SCT018 FEW030CB BKN090 27/25 Q0997 NOSIG=
202506142200 METAR VABB 142200Z 14003KT 2100 TS FEW012 SCT018 FEW030CB BKN090 27/25 Q0997 NOSIG=
202506142230 METAR VABB 142230Z 12003KT 2100 TS FEW012 SCT018 FEW030CB BKN090 27/25 Q0997 NOSIG=
202506142300 METAR VABB 142300Z 13004KT 2100 TS FEW012 SCT018 FEW030CB BKN090 27/25 Q0997 NOSIG=
202506142330 METAR VABB 142330Z 00000KT 2100 TS FEW012 SCT018 FEW030CB BKN090 27/25 Q0998 NOSIG=
202506150000 METAR VABB 150000Z 00000KT 2100 -TSRA FEW012 SCT018 FEW030CB BKN090 27/25 Q0998 TEMPO 1500 TSRA=
202506150030 METAR VABB 150030Z 00000KT 2100 TSRA FEW012 SCT018 FEW030CB BKN090 27/25 Q0998 TEMPO 1500 TSRA=
202506150100 METAR VABB 150100Z 13004KT 1800 TSRA FEW012 SCT018 FEW030CB BKN090 26/25 Q0997 TEMPO 1500 TSRA=
202506150130 METAR VABB 150130Z 13003KT 1800 -RA FEW012 SCT018 FEW030CB BKN090 26/25 Q0997 TEMPO 1500 TSRA=
202506150200 METAR VABB 150200Z 00000KT 1800 -RA FEW012 SCT018 FEW030CB OVC090 26/25 Q0998 TEMPO 1500 TSRA=
202506150230 METAR VABB 150230Z 23003KT 1800 -RA FEW012 SCT018 FEW030CB OVC090 26/25 Q0998 TEMPO 1500 TSRA=
202506150300 METAR VABB 150300Z 23003KT 1800 -RA FEW012 SCT018 FEW030CB OVC080 26/25 Q0998 TEMPO 1500 SHRA=
202506150330 METAR VABB 150330Z 00000KT 2100 -RA FEW012 SCT018 FEW025TCU OVC080 26/25 Q0998 TEMPO 1500 SHRA=
202506150400 METAR VABB 150400Z 21004KT 2100 -RA FEW012 SCT018 FEW025TCU OVC080 26/25 Q0998 TEMPO 1500 SHRA=
202506150430 METAR VABB 150430Z 17003KT 2100 -RA FEW012 SCT018 FEW025TCU OVC080 27/25 Q0998 TEMPO 1500 SHRA=
202506150500 METAR VABB 150500Z 00000KT 2100 -RA FEW012 SCT018 FEW030CB OVC080 27/25 Q0998 TEMPO 1500 SHRA=
202506150530 METAR VABB 150530Z 20005KT 2100 -RA FEW012 SCT018 FEW030CB OVC080 27/25 Q0998 TEMPO 1500 SHRA=
202506150600 METAR VABB 150600Z 19004KT 2100 -RA FEW012 SCT018 FEW030CB OVC080 27/25 Q0998 TEMPO 1500 SHRA=
202506150630 METAR VABB 150630Z 19003KT 2100 DZ FEW012 SCT018 FEW030CB OVC080 28/25 Q0998 TEMPO 1500 SHRA=
202506150700 METAR VABB 150700Z 20003KT 2100 HZ FEW012 SCT018 FEW030CB OVC080 28/25 Q0998 TEMPO 1500 SHRA=
202506150730 METAR VABB 150730Z 19003KT 2500 HZ FEW012 SCT018 FEW030CB BKN090 28/25 Q0997 TEMPO 1500 SHRA=
202506150800 METAR VABB 150800Z 20003KT 2500 HZ SCT018 FEW030CB BKN090 29/25 Q0997 TEMPO 1500 SHRA=
202506150830 METAR VABB 150830Z 18005KT 2500 HZ SCT018 FEW030CB BKN090 30/24 Q0996 TEMPO 1500 SHRA=
202506150900 METAR VABB 150900Z 18004KT 2500 HZ SCT018 FEW030CB BKN090 29/24 Q0996 TEMPO 1500 SHRA=
202506150930 METAR VABB 150930Z 18004KT 2500 VCSH SCT018 FEW030CB BKN090 29/24 Q0996 TEMPO 1500 SHRA=
202506151000 METAR VABB 151000Z 23004KT 2200 RA FEW012 SCT018 FEW030CB BKN090 29/25 Q0995 TEMPO 1500 SHRA=
202506151030 METAR VABB 151030Z 23007KT 1600 RA SCT010 SCT018 FEW030CB BKN090 27/25 Q0996 TEMPO 0800 +SHRA=
202506151100 METAR VABB 151100Z 21003KT 2100 -RA FEW012 SCT018 FEW030CB BKN090 27/25 Q0995 TEMPO 1500 SHRA=
202506151130 METAR VABB 151130Z 20003KT 2100 RA FEW012 SCT018 FEW030CB BKN090 27/25 Q0995 TEMPO 1500 SHRA=
202506151200 METAR VABB 151200Z 22004KT 1800 RA SCT010 SCT018 FEW030CB OVC080 27/25 Q0996 TEMPO 1500 SHRA=
202506151230 METAR VABB 151230Z 27005KT 2100 -RA SCT010 SCT018 FEW030CB OVC080 27/25 Q0996 TEMPO 1500 SHRA=
202506151300 METAR VABB 151300Z 33004KT 2100 -DZ FEW012 SCT018 FEW030CB OVC080 27/25 Q0996 TEMPO 1500 SHRA=
202506151330 METAR VABB 151330Z 33003KT 2100 VCSH FEW012 SCT018 FEW030CB OVC080 27/25 Q0996 TEMPO 1500 SHRA=
202506151400 METAR VABB 151400Z 32004KT 2100 -DZ FEW012 SCT018 FEW030CB OVC090 27/25 Q0996 NOSIG=
202506151430 METAR VABB 151430Z 36004KT 2200 -DZ FEW012 SCT018 FEW030CB OVC090 27/25 Q0997 TEMPO 1500 SHRA=
202506151500 METAR VABB 151500Z 04003KT 2500 HZ FEW012 SCT018 FEW030CB OVC090 27/25 Q0997 TEMPO 1500 SHRA=
202506151530 METAR VABB 151530Z 08003KT 2100 RA FEW012 SCT018 FEW030CB OVC090 27/25 Q0997 TEMPO 1500 RA=
202506151600 METAR VABB 151600Z 05005KT 2100 -RA FEW012 SCT018 FEW030CB OVC090 27/25 Q0997 NOSIG=
202506151630 METAR VABB 151630Z 01004KT 2500 -DZ FEW012 SCT018 FEW025TCU OVC090 27/25 Q0997 NOSIG=
202506151700 METAR VABB 151700Z 03004KT 2500 BR FEW012 SCT018 FEW025TCU OVC090 27/25 Q0997 NOSIG=
202506151730 METAR VABB 151730Z 04004KT 2500 BR FEW012 SCT018 FEW025TCU OVC090 27/25 Q0997 NOSIG=
202506151800 METAR VABB 151800Z 34004KT 2500 BR FEW012 SCT018 FEW025TCU OVC090 27/25 Q0997 NOSIG=
202506151830 METAR VABB 151830Z 31006KT 0800 R27/1000 +RA FEW012 SCT018 FEW025TCU OVC090 26/25 Q0997 TEMPO 0350 +RA=
202506151900 METAR VABB 151900Z 31006KT 0800 R27/1000 +RA FEW012 SCT018 FEW030CB OVC090 26/25 Q0997 TEMPO 0350 +RA=
202506151930 METAR VABB 151930Z 30004KT 1800 -RA FEW012 SCT018 FEW030CB OVC090 26/25 Q0997 TEMPO 1500 RA=
202506152000 METAR VABB 152000Z 00000KT 1800 -RA FEW012 SCT018 FEW030CB OVC090 26/25 Q0996 TEMPO 0800 +RA=
202506152030 METAR VABB 152030Z 00000KT 1800 -RA FEW012 SCT018 FEW030CB OVC090 26/25 Q0996 TEMPO 0800 +RA=
202506152100 METAR VABB 152100Z 00000KT 1800 -RA FEW012 SCT018 FEW030CB OVC090 26/25 Q0996 TEMPO 0800 +RA=
202506152130 METAR VABB 152130Z 00000KT 2100 -TSRA FEW012 SCT018 FEW030CB OVC090 26/24 Q0995 TEMPO 1500 TSRA=
202506152200 METAR VABB 152200Z 28004KT 1500 R27/1800 TSRA FEW010 SCT018 FEW030CB OVC080 26/25 Q0995 TEMPO 0800 +TSRA=
202506152230 METAR VABB 152230Z 26010KT 2100 TSRA FEW010 SCT016 FEW030CB OVC080 25/24 Q0995 TEMPO 1500 TSRA=
202506152300 METAR VABB 152300Z 31009KT 2100 TSRA FEW010 SCT016 FEW030CB OVC080 26/25 Q0995 TEMPO 1500 TSRA=
202506152330 METAR VABB 152330Z 30009G19KT 2100 TSRA FEW010 SCT016 FEW030CB OVC080 26/25 Q0995 TEMPO 1500 TSRA=
202506160000 METAR VABB 160000Z 29012G22KT 2100 RA FEW010 SCT016 FEW030CB OVC080 26/25 Q0996 TEMPO 1500 RA=
202506160030 METAR VABB 160030Z 29011G21KT 2500 -RA FEW010 SCT016 FEW030CB OVC080 26/26 Q0996 TEMPO 1500 RA=
202506160100 METAR VABB 160100Z 28010G20KT 2100 RA SCT010 SCT016 FEW030CB OVC080 26/24 Q0996 TEMPO 1500 +RA=
202506160130 METAR VABB 160130Z 27010KT 2100 -RA SCT010 SCT016 FEW030CB OVC080 26/25 Q0997 TEMPO 1500 RA=
202506160200 METAR VABB 160200Z 26011G21KT 2100 RA SCT010 SCT016 FEW030CB OVC080 26/25 Q0997 TEMPO 1500 RA=
202506160230 METAR VABB 160230Z 26012G25KT 2100 RA SCT010 SCT016 FEW030CB OVC080 25/24 Q0997 TEMPO 1500 RA=
202506160302 METAR VABB 160302Z 25016G26KT 0800 R27/1000 +RA SCT010 SCT016 FEW030CB OVC080 25/24 Q0997 TEMPO 0350+SHRA=
202506160330 METAR VABB 160330Z 25010G20KT 2100 RA SCT010 SCT016 FEW030CB OVC080 26/25 Q0998 TEMPO 1500+SHRA=
202506160400 METAR VABB 160400Z 25012G24KT 2100 RA SCT010 SCT016 FEW030CB OVC080 27/25 Q0998 TEMPO 1500 SHRA=
202506160430 METAR VABB 160430Z 24013G23KT 2100 -RA SCT010 SCT016 FEW030CB OVC080 27/25 Q0998 TEMPO 1500 SHRA=
202506160500 METAR VABB 160500Z 24016G26KT 2100 -RA SCT010 SCT016 FEW030CB OVC080 27/25 Q0998 TEMPO 1500 SHRA=
202506160530 METAR VABB 160530Z 25011G21KT 2100 -RA SCT010 SCT016 FEW030CB OVC080 27/25 Q0998 TEMPO 1500 SHRA=
202506160600 METAR VABB 160600Z 25012G22KT 0800 R27/1000 +RA SCT010 SCT016 FEW030CB OVC080 28/25 Q0998 TEMPO 0600 +SHRA=
202506160630 METAR VABB 160630Z 24014G24KT 2100 -RA SCT010 SCT016 FEW030CB OVC080 27/25 Q0998 TEMPO 1500 SHRA=
202506160700 METAR VABB 160700Z 27019G29KT 1000 R27/1200 +RA SCT010 SCT016 FEW030CB OVC080 27/25 Q0998 TEMPO 0800 +SHRA=
202506160730 METAR VABB 160730Z 28016G26KT 1000 R27/1200 +RA SCT010 SCT016 FEW030CB OVC080 26/24 Q0998 TEMPO 0800 +SHRA=
202506160800 METAR VABB 160800Z 27008G18KT 1500 RA SCT010 SCT016 FEW030CB OVC080 26/25 Q0998 TEMPO 0800 +SHRA=
202506160830 METAR VABB 160830Z 24007G17KT 0800 R27/1000 +RA SCT010 SCT016 FEW030CB OVC080 27/25 Q0998 TEMPO 0600 +SHRA=
202506160900 METAR VABB 160900Z 24013G23KT 1800 RA SCT010 SCT016 FEW030CB OVC080 26/24 Q0998 TEMPO 1500 +SHRA=
202506160930 METAR VABB 160930Z 25010KT 1800 RA SCT010 SCT016 FEW030CB OVC080 26/24 Q0998 TEMPO 1500 +SHRA=
202506161000 METAR VABB 161000Z 25008KT 1800 RA SCT010 SCT016 FEW030CB OVC080 26/25 Q0998 TEMPO 1500 +SHRA=
202506161030 METAR VABB 161030Z 27010KT 0350 R27/0500 +RA SCT010 SCT016 FEW030CB OVC080 25/24 Q0998 NOSIG=
202506161100 METAR VABB 161100Z 26015G25KT 1800 RA SCT010 SCT016 FEW030CB OVC080 25/24 Q0998 TEMPO 1500 SHRA=
202506161130 METAR VABB 161130Z 24007G17KT 1200 R27/1500 RA SCT008 SCT016 FEW030CB OVC080 25/24 Q0998 TEMPO 0800 +SHRA=
202506161200 METAR VABB 161200Z 24009G19KT 1200 R27/1500 RA SCT008 SCT016 FEW030CB OVC080 25/24 Q0998 TEMPO 0800 +SHRA=
202506161230 METAR VABB 161230Z 25007KT 1800 RA SCT008 SCT016 FEW030CB OVC080 26/25 Q0998 TEMPO 1500 SHRA=
202506161300 METAR VABB 161300Z 27006KT 1800 RA SCT008 SCT016 FEW030CB OVC080 25/24 Q0998 TEMPO 1500 SHRA=
202506161330 METAR VABB 161330Z 25005KT 1500 -RA SCT008 SCT016 FEW030CB OVC080 25/24 Q0999 TEMPO 0800 +SHRA=
202506161400 METAR VABB 161400Z 25005KT 1800 -RA SCT008 SCT016 FEW030CB OVC080 25/25 Q0999 TEMPO 1500 SHRA=
202506161430 METAR VABB 161430Z 25006KT 2100 DZ SCT008 SCT016 FEW030CB OVC080 26/25 Q0999 TEMPO 1500 SHRA=
202506161500 METAR VABB 161500Z 24006KT 2100 DZ SCT008 SCT016 FEW030CB OVC080 26/25 Q1000 NOSIG=
202506161530 METAR VABB 161530Z 25007KT 2200 BR SCT010 SCT016 FEW030CB BKN080 27/25 Q1000 NOSIG=
202506161600 METAR VABB 161600Z 25006KT 2500 BR SCT018 FEW030CB BKN090 27/25 Q1000 NOSIG=
202506161630 METAR VABB 161630Z 24005KT 2500 BR SCT020 FEW030CB BKN090 27/25 Q1001 NOSIG=
202506161700 METAR VABB 161700Z 22003KT 2500 BR SCT020 FEW025TCU BKN090 28/25 Q1001 NOSIG=
202506161730 METAR VABB 161730Z 23004KT 2500 BR SCT020 FEW025TCU BKN090 28/25 Q1001 NOSIG=
202506161800 METAR VABB 161800Z 24008KT 1500 R27/1800 RA FEW010 SCT018 FEW025TCU BKN090 28/25 Q1001 TEMPO 0800 +RA=
202506161830 METAR VABB 161830Z 25006KT 2100 -SHRA FEW012 SCT018 FEW025TCU BKN090 27/25 Q1001 TEMPO 1500 SHRA=
202506161900 METAR VABB 161900Z 29007KT 2100 -SHRA FEW012 SCT018 FEW025TCU BKN090 27/25 Q1000 TEMPO 1500 SHRA=
202506161930 METAR VABB 161930Z 25011KT 2100 BR SCT018 FEW025TCU BKN090 28/26 Q1000 NOSIG=
202506162000 METAR VABB 162000Z 25012G22KT 2100 -RA SCT018 FEW025TCU BKN090 29/26 Q1000 NOSIG=
202506162030 METAR VABB 162030Z 25012G22KT 2100 -RA SCT018 FEW025TCU BKN090 29/25 Q1000 NOSIG=
202506162100 METAR VABB 162100Z 24012G22KT 2100 -RA SCT018 FEW025TCU BKN090 28/25 Q0999 NOSIG=
202506162130 METAR VABB 162130Z 24009G19KT 2100 BR SCT018 FEW025TCU BKN090 29/26 Q0999 NOSIG=
202506162200 METAR VABB 162200Z 25007G17KT 2200 BR SCT018 FEW025TCU BKN090 28/25 Q0999 NOSIG=
202506162230 METAR VABB 162230Z 24009KT 2200 BR SCT018 FEW025TCU BKN090 28/25 Q0999 NOSIG=
202506162300 METAR VABB 162300Z 25008G18KT 2200 -DZ SCT018 FEW025TCU BKN090 28/25 Q0999 NOSIG=
202506162330 METAR VABB 162330Z 25009G19KT 2200 BR SCT018 FEW025TCU BKN090 28/25 Q1000 NOSIG=
202506170000 METAR VABB 170000Z 25008G18KT 2200 BR SCT018 FEW025TCU BKN090 28/25 Q1000 NOSIG=
202506170030 METAR VABB 170030Z 24011G21KT 2200 -DZ SCT018 FEW025TCU BKN090 29/25 Q1000 NOSIG=
202506170100 METAR VABB 170100Z 25007G17KT 2500 BR SCT018 FEW025TCU BKN090 28/25 Q1000 NOSIG=
202506170130 METAR VABB 170130Z 26007G17KT 2500 BR SCT018 FEW025TCU BKN090 29/25 Q1000 NOSIG=
202506170200 METAR VABB 170200Z 25008G18KT 2500 BR SCT020 FEW025TCU BKN100 29/25 Q1001 NOSIG=
202506170230 METAR VABB 170230Z 24011G21KT 2500 BR SCT020 SCT025 BKN100 29/25 Q1001 NOSIG=
202506170300 METAR VABB 170300Z 24011G21KT 2500 BR SCT020 SCT025 BKN100 29/25 Q1001 NOSIG=
202506170330 METAR VABB 170330Z 25008G18KT 2500 BR SCT020 SCT025 BKN100 30/25 Q1002 NOSIG=
202506170400 METAR VABB 170400Z 24011KT 2200 BR SCT020 SCT025 BKN100 30/25 Q1002 NOSIG=
202506170430 METAR VABB 170430Z 25013G23KT 2500 HZ SCT018 FEW025TCU BKN100 31/25 Q1002 NOSIG=
202506170432 METAR VABB 170432Z 25013G23KT 2500 HZ SCT018 FEW025TCU BKN100 31/25 Q1002 NOSIG=
202506170500 METAR VABB 170500Z 24011G21KT 2500 HZ SCT018 FEW025TCU BKN100 31/25 Q1002 NOSIG=
202506170530 METAR VABB 170530Z 24009G19KT 2500 HZ SCT018 SCT025 BKN100 31/25 Q1002 NOSIG=
202506170559 METAR VABB 170559Z 24011G21KT 2500 BR SCT018 SCT025 BKN100 31/26 Q1002 BECMG 3000 BR=
202506170630 METAR VABB 170630Z 24015G25KT 3000 HZ SCT018 SCT025 BKN100 31/25 Q1002 NOSIG=
202506170700 METAR VABB 170700Z 24015G25KT 3000 HZ SCT018 SCT025 BKN100 31/25 Q1002 NOSIG=
202506170730 METAR VABB 170730Z 24019G29KT 2500 HZ SCT018 SCT025 BKN100 31/25 Q1002 NOSIG=
202506170800 METAR VABB 170800Z 23014G24KT 2500 HZ SCT018 SCT025 BKN100 31/26 Q1002 NOSIG=
202506170830 METAR VABB 170830Z 24018G28KT 2500 HZ SCT018 FEW025TCU BKN100 31/25 Q1002 NOSIG=
202506170900 METAR VABB 170900Z 25014G27KT 2500 HZ SCT018 FEW025TCU BKN100 31/25 Q1002 NOSIG=
202506170930 METAR VABB 170930Z 24012G22KT 2500 HZ SCT018 FEW025TCU BKN100 31/25 Q1001 NOSIG=
202506171000 METAR VABB 171000Z 24015G28KT 2500 HZ SCT018 FEW025TCU BKN100 31/25 Q1001 NOSIG=
202506171030 METAR VABB 171030Z 23012G22KT 2500 HZ SCT018 FEW025TCU BKN100 31/26 Q1001 NOSIG=
202506171100 METAR VABB 171100Z 23012G22KT 2500 HZ SCT018 FEW025TCU BKN100 31/25 Q1000 NOSIG=
202506171130 METAR VABB 171130Z 23015G25KT 2500 HZ SCT018 FEW025TCU BKN100 30/25 Q1000 NOSIG=
202506171200 METAR VABB 171200Z 23022G32KT 1800 -SHRA SCT018 FEW025TCU BKN100 30/24 Q1000 NOSIG=
202506171230 METAR VABB 171230Z 24012G22KT 2500 HZ SCT018 FEW025TCU BKN100 29/25 Q1000 NOSIG=
202506171300 METAR VABB 171300Z 23016G32KT 2500 HZ FEW012 SCT018 FEW025TCU BKN090 29/25 Q1000 NOSIG=
202506171330 METAR VABB 171330Z 23012G26KT 2500 BR FEW012 SCT018 FEW025TCU BKN090 29/25 Q1001 NOSIG=
202506171400 METAR VABB 171400Z 23012G26KT 2500 BR FEW012 SCT018 FEW025TCU BKN090 29/25 Q1001 NOSIG=
202506171430 METAR VABB 171430Z 23013G27KT 2500 HZ SCT018 FEW025TCU BKN090 29/25 Q1001 NOSIG=
202506171500 METAR VABB 171500Z 23009G19KT 2500 -DZ SCT018 FEW025TCU BKN090 28/25 Q1002 TEMPO 1500 SHRA=
202506171530 METAR VABB 171530Z 23009G19KT 2500 BR SCT018 FEW025TCU BKN090 29/25 Q1002 NOSIG=
202506171600 METAR VABB 171600Z 22011G21KT 2500 HZ SCT018 FEW025TCU BKN090 29/25 Q1002 NOSIG=
202506171630 METAR VABB 171630Z 23015G25KT 2100 -DZ FEW012 SCT018 FEW025TCU BKN090 27/25 Q1002 TEMPO 1500 SHRA=
202506171700 METAR VABB 171700Z 23012G22KT 2100 -DZ FEW012 SCT018 FEW025TCU BKN090 28/24 Q1003 NOSIG=
202506171730 METAR VABB 171730Z 23012G22KT 2200 -DZ FEW012 SCT018 FEW025TCU BKN090 28/25 Q1002 TEMPO 1500 SHRA=
202506171800 METAR VABB 171800Z 23012G24KT 2200 BR FEW012 SCT018 FEW025TCU BKN090 28/24 Q1002 TEMPO 1500 SHRA=
202506171830 METAR VABB 171830Z 26011KT 2100 VCSH FEW010 SCT018 FEW030CB OVC090 28/25 Q1002 TEMPO 1500 SHRA=
202506171900 METAR VABB 171900Z 26011G25KT 1800 RA FEW010 SCT018 FEW030CB OVC090 28/25 Q1002 TEMPO 0800 +SHRA=
202506171930 METAR VABB 171930Z 26008G18KT 2100 -RA FEW010 SCT018 FEW030CB OVC090 27/25 Q1002 TEMPO 1500 SHRA=
202506172000 METAR VABB 172000Z 27014G24KT 1200 R27/1500 RA SCT010 SCT015 FEW030CB OVC080 26/25 Q1001 TEMPO 0800 +SHRA=
202506172030 METAR VABB 172030Z 24009KT 2100 -RA FEW010 SCT018 FEW030CB OVC080 27/25 Q1000 TEMPO 1500 SHRA=
202506172100 METAR VABB 172100Z 25008G18KT 2100 -DZ FEW010 SCT018 FEW030CB OVC080 27/25 Q1001 TEMPO 1500 SHRA=
202506172130 METAR VABB 172130Z 26008KT 2200 -DZ FEW012 SCT018 FEW030CB OVC090 27/25 Q1000 TEMPO 1500 SHRA=
202506172200 METAR VABB 172200Z 24009KT 2200 -DZ FEW012 SCT018 FEW030CB OVC090 28/26 Q1000 TEMPO 1500 SHRA=
202506172230 METAR VABB 172230Z 24010KT 2200 BR FEW012 SCT018 FEW030CB OVC090 28/25 Q1000 TEMPO 1500 SHRA=
202506172300 METAR VABB 172300Z 25009KT 2200 BR FEW012 SCT018 FEW030CB OVC090 28/25 Q1000 NOSIG=
202506172330 METAR VABB 172330Z 27012G22KT 1700 -RA FEW012 SCT018 FEW030CB OVC090 27/25 Q1000 TEMPO 1500 SHRA=
202506180000 METAR VABB 180000Z 27007G17KT 1700 -RA FEW012 SCT018 FEW030CB OVC080 26/24 Q1001 TEMPO 1500 SHRA=
202506180030 METAR VABB 180030Z 26010KT 2100 -DZ FEW012 SCT018 FEW030CB OVC080 27/25 Q1001 TEMPO 1500 SHRA=
202506180100 METAR VABB 180100Z 26009KT 2100 BR FEW012 SCT018 FEW030CB OVC090 28/25 Q1001 TEMPO 1500 SHRA=
202506180130 METAR VABB 180130Z 25008G18KT 2100 -DZ FEW012 SCT018 FEW030CB BKN090 28/25 Q1002 TEMPO 1500 SHRA=
202506180200 METAR VABB 180200Z 26011KT 2100 BR FEW012 SCT018 FEW030CB BKN090 29/25 Q1002 TEMPO 1500 SHRA=
202506180230 METAR VABB 180230Z 25008G18KT 2500 HZ SCT018 FEW030CB BKN090 29/26 Q1002 NOSIG=
202506180300 METAR VABB 180300Z 26010G20KT 2500 HZ SCT018 FEW030CB BKN090 29/25 Q1002 NOSIG=
202506180330 METAR VABB 180330Z 26010G20KT 2500 HZ FEW012 SCT015 FEW030CB BKN090 28/25 Q1002 TEMPO 1500 SHRA=
202506180400 METAR VABB 180400Z 28014G24KT 2500 BR SCT015 FEW030CB BKN090 27/25 Q1003 TEMPO 1500 SHRA=
202506180430 METAR VABB 180430Z 28011KT 2500 BR SCT018 FEW030CB BKN090 28/25 Q1003 NOSIG=
202506180500 METAR VABB 180500Z 25007KT 2500 BR SCT018 FEW030CB BKN090 28/25 Q1003 TEMPO 1500 SHRA=
202506180530 METAR VABB 180530Z 26008G18KT 1200 R27/1400 +SHRA FEW010 SCT015 FEW030CB OVC090 29/25 Q1002 TEMPO 0800 SHRA=
202506180600 METAR VABB 180600Z 26007G17KT 1200 R27/1400 RA FEW010 SCT015 FEW030CB OVC090 27/25 Q1003 TEMPO 0800 +RA=
202506180630 METAR VABB 180630Z 24007KT 2100 -DZ FEW010 SCT015 FEW030CB OVC090 26/25 Q1003 TEMPO 1500 SHRA=
202506180700 METAR VABB 180700Z 26006KT 1200 R27/1500 SHRA FEW010 SCT015 FEW030CB OVC090 26/25 Q1003 TEMPO 0800 +SHRA=
202506180730 METAR VABB 180730Z 26009KT 2500 BR FEW010 SCT015 FEW030CB OVC090 27/26 Q1002 TEMPO 1500 SHRA=
202506180800 METAR VABB 180800Z 27008KT 2500 BR SCT018 FEW030CB OVC090 27/25 Q1002 TEMPO 1500 SHRA=
202506180830 METAR VABB 180830Z 26008KT 2500 BR SCT018 FEW030CB OVC090 27/25 Q1002 TEMPO 1500 SHRA=
202506180900 METAR VABB 180900Z 24009G22KT 1500 R27/2000 SHRA SCT018 FEW030CB OVC090 27/25 Q1002 TEMPO 0800 +SHRA=
202506180930 METAR VABB 180930Z 24005KT 2100 -SHRA FEW012 SCT018 FEW030CB OVC090 27/25 Q1002 TEMPO 1500 SHRA=
202506181000 METAR VABB 181000Z 22006KT 2500 VCSH FEW012 SCT018 FEW030CB OVC090 27/25 Q1001 TEMPO 1500 SHRA=
202506181030 METAR VABB 181030Z 23006G18KT 2500 VCSH FEW012 SCT018 FEW030CB OVC090 27/26 Q1001 TEMPO 1500 SHRA=
202506181100 METAR VABB 181100Z 24008G18KT 2500 -DZ FEW012 SCT018 FEW030CB OVC090 28/26 Q1001 TEMPO 1500 SHRA=
202506181130 METAR VABB 181130Z 25009KT 2500 VCSH FEW012 SCT018 FEW030CB OVC090 28/26 Q1001 TEMPO 1500 SHRA=
202506181200 METAR VABB 181200Z 26010KT 1500 R27/2000 SHRA FEW012 SCT018 FEW030CB OVC090 27/25 Q1001 TEMPO 0800 +SHRA=
202506181230 METAR VABB 181230Z 26007KT 2100 VCSH FEW012 SCT018 FEW030CB OVC090 26/24 Q1001 TEMPO 1500 SHRA=
202506181300 METAR VABB 181300Z 26006G22KT 0800 R27/1000 +RA FEW008 SCT018 FEW030CB OVC080 26/25 Q1001 TEMPO 0600 +SHRA=
202506181330 METAR VABB 181330Z 32008KT 2100 DZ FEW010 SCT018 FEW030CB OVC080 26/25 Q1002 TEMPO 1500 SHRA=
202506181400 METAR VABB 181400Z 31005KT 2500 BR FEW010 SCT018 FEW030CB OVC080 27/25 Q1002 TEMPO 1500 SHRA=
202506181430 METAR VABB 181430Z 32007KT 2500 BR FEW010 SCT018 FEW030CB OVC080 27/25 Q1002 TEMPO 1500 SHRA=
202506181500 METAR VABB 181500Z 32004KT 2500 BR FEW010 SCT018 FEW030CB OVC080 27/25 Q1002 TEMPO 1500 SHRA=
202506181530 METAR VABB 181530Z 27008G18KT 1800 -RA FEW010 SCT018 FEW030CB OVC080 27/25 Q1003 TEMPO 1500 SHRA=
202506181600 METAR VABB 181600Z 27009KT 1800 -RA FEW010 SCT018 FEW030CB OVC080 27/26 Q1003 TEMPO 1500 SHRA=
202506181630 METAR VABB 181630Z 22008KT 1800 -RA FEW010 SCT018 FEW030CB OVC080 27/25 Q1003 TEMPO 1500 SHRA=
202506181700 METAR VABB 181700Z 23007KT 1800 -RA FEW010 SCT018 FEW030CB OVC080 27/26 Q1003 TEMPO 1500 SHRA=
202506181730 METAR VABB 181730Z 22007KT 2100 -RA FEW010 SCT018 FEW030CB OVC080 27/25 Q1003 TEMPO 1500 SHRA=
202506181800 METAR VABB 181800Z 24009G19KT 2100 -DZ FEW010 SCT018 FEW030CB OVC080 27/26 Q1002 TEMPO 1500 SHRA=
202506181830 METAR VABB 181830Z 26012G22KT 1500 RA FEW010 SCT018 FEW030CB OVC080 27/26 Q1002 TEMPO 0800 +SHRA=
202506181900 METAR VABB 181900Z 26010KT 2100 -DZ FEW010 SCT018 FEW030CB OVC080 27/26 Q1002 TEMPO 1500 SHRA=
202506181930 METAR VABB 181930Z 25010KT 2500 TS FEW010 SCT018 FEW030CB OVC080 28/26 Q1001 TEMPO 1500 SHRA=
202506182000 METAR VABB 182000Z 26009G19KT 2500 TS FEW012 SCT018 FEW030CB OVC090 28/26 Q1001 TEMPO 1500 SHRA=
202506182030 METAR VABB 182030Z 25009G19KT 2500 TS FEW012 SCT018 FEW030CB OVC090 28/26 Q1000 TEMPO 1500 SHRA=
202506182100 METAR VABB 182100Z 26017G27KT 2500 TS SCT018 FEW030CB BKN090 27/24 Q1000 TEMPO 1500 TSRA=
202506182130 METAR VABB 182130Z 26013G23KT 2500 TS SCT018 FEW030CB BKN090 27/25 Q1000 TEMPO 1500 TSRA=
202506182200 METAR VABB 182200Z 26013G23KT 2200 -TSRA SCT018 FEW030CB BKN090 27/25 Q1000 TEMPO 1500 TSRA=
202506182230 METAR VABB 182230Z 25012G22KT 1600 -RA FEW012 SCT018 FEW030CB BKN090 27/25 Q1000 TEMPO 0800 +TSRA=
202506182300 METAR VABB 182300Z 27012G22KT 1600 -RA SCT008 SCT015 FEW030CB OVC080 27/25 Q1000 TEMPO 0800 +SHRA=
202506182330 METAR VABB 182330Z 27014G24KT 1600 -RA SCT008 SCT015 FEW030CB OVC080 26/25 Q1001 TEMPO 0800 +SHRA=
202506190000 METAR VABB 190000Z 28015G25KT 1600 -RA SCT008 SCT015 FEW030CB OVC080 26/25 Q1001 TEMPO 0800 +SHRA=
202506190030 METAR VABB 190030Z 28010G20KT 1600 -RA SCT010 SCT015 FEW030CB OVC080 27/25 Q1001 TEMPO 0800 +SHRA=
202506190050 METAR VABB 190050Z 27012G22KT 1200 R27/1400 RA SCT010 SCT015 FEW030CB OVC080 26/25 Q1001 TEMPO 0600 +SHRA=
202506190100 METAR VABB 190100Z 28014G24KT 1600 RA SCT008 SCT015 FEW030CB OVC080 26/25 Q1002 TEMPO 0800 +SHRA=
202506190130 METAR VABB 190130Z 27009KT 1600 -RA SCT008 SCT015 FEW030CB OVC080 26/25 Q1002 TEMPO0800 +SHRA=
202506190200 METAR VABB 190200Z 27007G17KT 2100 -RA SCT010 SCT015 FEW030CB OVC080 27/25 Q1002 TEMPO 1500 SHRA=
202506190230 METAR VABB 190230Z 26008G18KT 2100 -RA FEW012 SCT018 FEW030CB OVC080 27/25 Q1002 NOSIG=
202506190300 METAR VABB 190300Z 26007G17KT 2100 -RA FEW012 SCT018 FEW030CB OVC080 28/26 Q1002 NOSIG=
202506190330 METAR VABB 190330Z 26010KT 2100 -RA FEW012 SCT018 FEW030CB OVC080 28/26 Q1003 TEMPO 1500 SHRA=
202506190400 METAR VABB 190400Z 26010KT 2100 DZ FEW012 SCT018 FEW030CB OVC080 29/26 Q1003 NOSIG=
202506190430 METAR VABB 190430Z 25011KT 2100 -DZ FEW012 SCT018 FEW030CB OVC080 29/26 Q1003 TEMPO 1500 SHRA=
202506190500 METAR VABB 190500Z 26011G21KT 2100 VCSH FEW012 SCT018 FEW030CB OVC080 29/26 Q1003 TEMPO 1500 SHRA=
202506190530 METAR VABB 190530Z 26011G21KT 2100 -DZ FEW012 SCT018 FEW030CB OVC080 29/26 Q1003 TEMPO 1500 SHRA=
202506190600 METAR VABB 190600Z 25013G23KT 2100 -DZ FEW012 SCT018 FEW030CB OVC080 29/26 Q1003 TEMPO 1500 SHRA=
202506190630 METAR VABB 190630Z 25011KT 2100 -RA FEW012 SCT018 FEW030CB OVC080 29/26 Q1003 TEMPO 1500 SHRA=
202506190700 METAR VABB 190700Z 24013G23KT 1800 -RA FEW010 SCT018 FEW030CB OVC080 26/24 Q1003 TEMPO 1500 SHRA=
202506190730 METAR VABB 190730Z 26010G20KT 1800 +RA FEW010 SCT018 FEW030CB OVC080 27/26 Q1003 TEMPO 0800 +SHRA=
202506190800 METAR VABB 190800Z 26008G18KT 2100 -RA FEW010 SCT018 FEW030CB OVC080 28/26 Q1003 TEMPO 1500 SHRA=
202506190830 METAR VABB 190830Z 25009G19KT 2100 -RA FEW010 SCT018 FEW030CB OVC080 28/26 Q1003 TEMPO 1500 SHRA=
202506190900 METAR VABB 190900Z 25008G18KT 2100 -RA FEW010 SCT018 FEW030CB OVC080 28/26 Q1003 TEMPO 1500 SHRA=
202506190930 METAR VABB 190930Z 26010G20KT 2100 -RA SCT010 SCT018 FEW030CB OVC080 28/26 Q1003 TEMPO 1500 SHRA=
202506191000 METAR VABB 191000Z 26008G18KT 2100 -RA SCT010 SCT018 FEW030CB OVC080 28/26 Q1002 TEMPO 1500 SHRA=
202506191030 METAR VABB 191030Z 27010G20KT 2200 -DZ SCT010 SCT018 FEW030CB OVC080 28/26 Q1002 TEMPO 1500 SHRA=
202506191103 METAR VABB 191103Z 27013KT 2500 VCSH FEW012 SCT018 FEW030CB OVC090 28/26 Q1002 BECMG 3000 BR=
202506191130 METAR VABB 191130Z 27008G18KT 2500 VCSH FEW012 SCT018 FEW030CB OVC090 29/26 Q1002 TEMPO 1500 SHRA=
202506191200 METAR VABB 191200Z 26010G20KT 2500 VCSH FEW012 SCT018 FEW030CB OVC090 29/26 Q1002 TEMPO 1500 SHRA=
202506191230 METAR VABB 191230Z 26011G21KT 2500 BR FEW012 SCT018 FEW030CB OVC090 29/26 Q1002 NOSIG=
202506191300 METAR COR VABB 191300Z 26010G20KT 2500 VCSH FEW012 SCT018 FEW030CB OVC090 29/26 Q1002 TEMPO 1500 SHRA=
202506191332 METAR VABB 191332Z 25008G18KT 2200 -RA SCT012 SCT018 FEW030CB OVC080 28/26 Q1003 TEMPO 1500 SHRA=
202506191400 METAR VABB 191400Z 25009G19KT 2200 VCSH SCT012 SCT018 FEW030CB OVC080 28/26 Q1003 TEMPO 1500 SHRA=
202506191430 METAR VABB 191430Z 26007G17KT 2200 BR FEW012 SCT018 FEW030CB OVC080 28/25 Q1003 TEMPO 1500 SHRA=
202506191500 METAR VABB 191500Z 25010KT 2200 BR FEW012 SCT018 FEW030CB OVC080 28/25 Q1004 TEMPO 1500 SHRA=
202506191530 METAR VABB 191530Z 25009KT 2200 BR FEW012 SCT018 FEW030CB OVC080 28/25 Q1004 TEMPO 1500 SHRA=
202506191600 METAR VABB 191600Z 25009KT 2200 BR FEW012 SCT018 FEW030CB OVC080 28/26 Q1004 TEMPO 1500 SHRA=
202506191630 METAR VABB 191630Z 26010KT 2200 BR FEW012 SCT018 FEW025TCU OVC090 28/25 Q1004 NOSIG=
202506191700 METAR VABB 191700Z 25009KT 2200 BR FEW012 SCT018 FEW025TCU OVC090 28/25 Q1004 NOSIG=
202506191730 METAR VABB 191730Z 25008KT 2200 BR FEW012 SCT018 FEW025TCU OVC090 28/25 Q1005 NOSIG=
202506191800 METAR VABB 191800Z 24009KT 2200 BR FEW012 SCT018 FEW025TCU OVC090 28/25 Q1004 NOSIG=
202506191830 METAR VABB 191830Z 25008G18KT 2200 BR FEW012 SCT018 FEW025TCU OVC090 28/26 Q1004 NOSIG=
202506191900 METAR VABB 191900Z 24009KT 2200 BR FEW012 SCT018 FEW025TCU OVC090 28/26 Q1004 NOSIG=
202506191930 METAR COR VABB 191930Z 24007KT 2200 -SHRA FEW012 SCT018 FEW025TCU OVC090 28/25 Q1004 TEMPO 1500 SHRA=
202506192000 METAR VABB 192000Z 24009KT 1800 -RA FEW012 SCT018 FEW025TCU OVC090 26/24 Q1004 TEMPO 0800 SHRA=
202506192030 METAR VABB 192030Z 26011G21KT 2200 BR FEW012 SCT018 FEW025TCU OVC090 27/25 Q1003 TEMPO 0800 SHRA=
202506192100 METAR VABB 192100Z 25013G23KT 2200 BR FEW012 SCT018 FEW025TCU OVC090 28/25 Q1003 NOSIG=
202506192130 METAR VABB 192130Z 25008G18KT 2200 BR FEW012 SCT018 FEW025TCU OVC090 28/25 Q1003 NOSIG=
202506192200 METAR VABB 192200Z 25007KT 2200 BR FEW012 SCT018 FEW025TCU OVC090 28/25 Q1003 NOSIG=
202506192230 METAR VABB 192230Z 24006KT 2200 BR FEW012 SCT018 FEW025TCU OVC090 28/25 Q1003 NOSIG=
202506192300 METAR VABB 192300Z 24009KT 2200 BR FEW012 SCT018 FEW025TCU OVC090 28/25 Q1003 NOSIG=
202506192330 METAR VABB 192330Z 24007G17KT 2200 DZ FEW012 SCT018 FEW025TCU OVC090 28/25 Q1003 NOSIG=
202506200000 METAR VABB 200000Z 24008G18KT 2200 BR SCT018 FEW025TCU OVC090 28/25 Q1003 NOSIG=
202506200030 METAR VABB 200030Z 24009G22KT 2200 BR SCT018 FEW025TCU OVC090 28/25 Q1003 NOSIG=
202506200100 METAR VABB 200100Z 24009KT 2500 BR SCT018 FEW025TCU OVC090 28/25 Q1004 NOSIG=
202506200130 METAR VABB 200130Z 24007KT 2500 BR SCT018 FEW025TCU OVC090 28/25 Q1004 NOSIG=
202506200200 METAR VABB 200200Z 25010KT 2500 BR FEW018 FEW025TCU BKN100 29/25 Q1005 NOSIG=
202506200230 METAR VABB 200230Z 24010G20KT 2500 BR FEW018 FEW025TCU BKN100 29/25 Q1005 BECMG 3000 BR=
202506200300 METAR VABB 200300Z 24008G18KT 3000 HZ FEW018 FEW025TCU SCT100 29/25 Q1005 NOSIG=
202506200330 METAR VABB 200330Z 22012G22KT 3000 HZ FEW020 FEW025TCU SCT100 29/25 Q1005 NOSIG=
202506200400 METAR VABB 200400Z 24012KT 3000 HZ FEW020 FEW025TCU BKN100 30/26 Q1006 NOSIG=
202506200430 METAR VABB 200430Z 25013G26KT 1500 RA FEW012 SCT015 FEW025TCU BKN090 30/25 Q1006 TEMPO 0800 +SHRA=
202506200500 METAR VABB 200500Z 24008KT 2100 BR SCT018 FEW025TCU BKN090 27/24 Q1006 TEMPO 1500 SHRA=
202506200530 METAR VABB 200530Z 26006KT 2100 BR SCT018 FEW030CB BKN090 28/26 Q1005 TEMPO 1500 SHRA=
202506200600 METAR VABB 200600Z 25011G21KT 2100 BR SCT018 FEW030CB BKN090 29/26 Q1005 TEMPO 1500 SHRA=
202506200630 METAR VABB 200630Z 24008G18KT 2500 HZ SCT018 FEW030CB BKN090 30/26 Q1005 NOSIG=
202506200700 METAR VABB 200700Z 23011G21KT 2500 HZ SCT018 FEW025TCU BKN090 30/26 Q1005 NOSIG=
202506200730 METAR VABB 200730Z 25013G25KT 2500 HZ SCT018 FEW025TCU BKN090 30/25 Q1005 NOSIG=
202506200800 METAR VABB 200800Z 25013KT 2500 HZ SCT018 FEW025TCU BKN090 30/25 Q1005 NOSIG=
202506200830 METAR VABB 200830Z 25015G25KT 2500 HZ SCT020 FEW025TCU BKN100 31/25 Q1004 NOSIG=
202506200900 METAR VABB 200900Z 24014G24KT 1500 -SHRA SCT020 FEW025TCU BKN100 30/26 Q1004 TEMPO 0800 +SHRA=
202506200930 METAR VABB 200930Z 25015G25KT 2100 BR SCT020 FEW025TCU BKN100 30/26 Q1004 NOSIG=
202506201000 METAR VABB 201000Z 26008G18KT 2100 BR SCT020 FEW030CB BKN100 29/25 Q1004 NOSIG=
202506201004 METAR VABB 201004Z 26008G18KT 2100 BR SCT020 FEW030CB BKN100 29/25 Q1004 TEMPO 1500 SHRA=
202506201030 METAR VABB 201030Z 25008G18KT 2100 BR SCT020 FEW030CB BKN100 29/25 Q1004 TEMPO 1500 SHRA=
202506201100 METAR VABB 201100Z 26010KT 2500 BR SCT020 FEW030CB BKN100 30/25 Q1003 BECMG 3000 BR=
202506201130 METAR VABB 201130Z 25011G21KT 3000 BR SCT020 FEW025TCU BKN100 30/25 Q1003 NOSIG=
202506201200 METAR VABB 201200Z 26012G22KT 3000 BR FEW020 SCT025 BKN100 29/25 Q1003 NOSIG=
202506201230 METAR VABB 201230Z 25009G19KT 3000 BR FEW020 SCT025 BKN100 29/25 Q1004 TEMPO 1500 SHRA=
202506201300 METAR VABB 201300Z 26010G20KT 2500 BR SCT020 FEW025TCU BKN100 29/26 Q1004 NOSIG=
202506201330 METAR VABB 201330Z 26009G19KT 2500 BR SCT020 FEW025TCU BKN100 29/25 Q1004 NOSIG=
202506201400 METAR VABB 201400Z 26008G18KT 2500 BR SCT020 FEW025TCU BKN100 29/25 Q1004 NOSIG=
202506201430 METAR VABB 201430Z 25008G18KT 2500 BR SCT020 FEW025TCU BKN100 29/25 Q1004 NOSIG=
202506201500 METAR VABB 201500Z 24009G19KT 2500 BR SCT020 FEW025TCU BKN090 29/25 Q1004 NOSIG=
202506201530 METAR VABB 201530Z 25010KT 2500 BR SCT020 FEW025TCU OVC090 29/25 Q1005 NOSIG=
202506201600 METAR VABB 201600Z 25011G21KT 2500 BR SCT020 FEW025TCU BKN090 29/25 Q1005 NOSIG=
202506201630 METAR VABB 201630Z 24009KT 2500 BR SCT020 FEW025TCU BKN090 29/25 Q1005 NOSIG=
202506201700 METAR VABB 201700Z 25009KT 2500 BR SCT020 FEW025TCU BKN090 29/25 Q1006 NOSIG=
202506201730 METAR VABB 201730Z 24009KT 2500 BR SCT020 FEW025TCU BKN090 29/25 Q1006 NOSIG=
202506201800 METAR VABB 201800Z 25010KT 2500 BR SCT020 FEW025TCU BKN090 29/25 Q1006 NOSIG=
202506201830 METAR VABB 201830Z 24008G18KT 2500 BR SCT020 FEW025TCU BKN090 29/25 Q1005 NOSIG=
202506201900 METAR VABB 201900Z 24010G20KT 2500 BR SCT020 SCT025 BKN090 29/26 Q1005 NOSIG=
202506201930 METAR VABB 201930Z 24012G22KT 2500 BR SCT020 SCT025 BKN090 29/25 Q1005 NOSIG=
202506202000 METAR VABB 202000Z 24011G21KT 2500 BR SCT020 SCT025 BKN090 29/26 Q1004 NOSIG=
202506202030 METAR VABB 202030Z 25012G22KT 2500 BR SCT020 SCT025 BKN090 29/25 Q1004 NOSIG=
202506202100 METAR VABB 202100Z 24010G20KT 2500 BR SCT020 SCT025 BKN090 29/25 Q1004 NOSIG=
202506202130 METAR VABB 202130Z 24007G17KT 2500 BR SCT020 SCT025 BKN090 29/25 Q1004 NOSIG=
202506202200 METAR VABB 202200Z 24008G18KT 2500 BR SCT020 SCT025 BKN090 28/25 Q1004 NOSIG=
202506202230 METAR VABB 202230Z 24009G19KT 2500 BR SCT020 SCT025 BKN090 28/25 Q1004 NOSIG=
202506202300 METAR VABB 202300Z 24013G23KT 2500 BR SCT020 SCT025 BKN090 28/25 Q1004 NOSIG=
202506202330 METAR VABB 202330Z 24009KT 2500 BR SCT020 SCT025 BKN090 28/25 Q1004 NOSIG=
202506210000 METAR VABB 210000Z 24009KT 2500 BR SCT020 SCT025 BKN090 28/25 Q1004 NOSIG=
202506210030 METAR VABB 210030Z 24008G18KT 2500 BR SCT020 SCT025 BKN090 28/25 Q1004 NOSIG=
202506210100 METAR VABB 210100Z 24008G18KT 2500 BR SCT020 SCT025 BKN090 29/24 Q1004 BECMG 3000 HZ=
202506210130 METAR VABB 210130Z 24011G22KT 3000 HZ SCT020 SCT025 BKN100 28/24 Q1005 NOSIG=
202506210200 METAR VABB 210200Z 24011G21KT 3000 HZ SCT020 SCT025 BKN100 29/25 Q1005 NOSIG=
202506210230 METAR VABB 210230Z 25011G21KT 3000 HZ FEW020 SCT025 BKN100 29/24 Q1005 NOSIG=
202506210300 METAR VABB 210300Z 25011G21KT 3000 BR FEW020 SCT025 BKN100 29/25 Q1006 NOSIG=
202506210330 METAR VABB 210330Z 25010KT 3000 BR FEW020 SCT025 BKN100 29/24 Q1006 NOSIG=
202506210400 METAR COR VABB 210400Z 24007G17KT 3000 BR FEW020 FEW025TCU BKN100 30/24 Q1006 NOSIG=
202506210402 METAR VABB 210402Z 24007G17KT 3000 BR FEW020 FEW025TCU BKN100 30/24 Q1006 NOSIG=
202506210430 METAR VABB 210430Z 26008G18KT 3000 HZ FEW020 SCT025 BKN100 30/24 Q1006 NOSIG=
202506210500 METAR VABB 210500Z 24008G18KT 3000 HZ FEW020 SCT025 BKN100 30/25 Q1006 NOSIG=
202506210530 METAR VABB 210530Z 25015G25KT 3000 HZ FEW020 FEW025 BKN100 30/25 Q1006 NOSIG=
202506210555 METAR VABB 210555Z 25014G24KT 3000 HZ FEW020 FEW025 BKN100 31/25 Q1006 NOSIG=
202506210600 METAR VABB 210600Z 25014G24KT 3000 HZ FEW020 FEW025 BKN100 31/25 Q1006 NOSIG=
202506210630 METAR VABB 210630Z 26016G26KT 3000 HZ FEW020 SCT025 BKN100 31/25 Q1006 NOSIG=
202506210700 METAR VABB 210700Z 25013G23KT 3500 HZ FEW020 SCT025 BKN100 31/25 Q1006 NOSIG=
202506210730 METAR VABB 210730Z 25014G24KT 3500 HZ FEW020 SCT025 BKN100 31/26 Q1005 NOSIG=
202506210800 METAR VABB 210800Z 25015G25KT 3500 HZ FEW020 FEW025TCU BKN100 31/24 Q1005 NOSIG=
202506210830 METAR VABB 210830Z 20013G23KT 3500 HZ FEW020 FEW025TCU BKN100 31/25 Q1005 NOSIG=
202506210900 METAR VABB 210900Z 20019G29KT 3500 HZ FEW020 FEW025TCU BKN100 32/26 Q1005 NOSIG=
202506210930 METAR VABB 210930Z 21008G18KT 3500 HZ FEW020 SCT025 BKN100 31/25 Q1005 NOSIG=
202506211000 METAR VABB 211000Z 20012G31KT 3500 HZ FEW020 SCT025 BKN100 31/25 Q1004 NOSIG=
202506211030 METAR VABB 211030Z 25011G21KT 3500 HZ FEW020 SCT025 BKN100 31/25 Q1004 NOSIG=
202506211100 METAR VABB 211100Z 23009G19KT 3500 HZ FEW020 SCT025 BKN100 31/25 Q1004 NOSIG=
202506211130 METAR VABB 211130Z 25008G18KT 3500 HZ FEW020 SCT025 BKN100 30/25 Q1003 NOSIG=
202506211200 METAR VABB 211200Z 25011G21KT 3500 HZ FEW020 SCT025 BKN100 30/25 Q1004 NOSIG=
202506211230 METAR VABB 211230Z 25011G21KT 3500 -SHRA FEW012 SCT018 FEW025TCU BKN100 30/25 Q1004 BECMG 3000 -SHRA=
202506211300 METAR VABB 211300Z 25008G18KT 3000 -SHRA FEW012 SCT018 FEW025TCU BKN100 29/25 Q1004 NOSIG=
202506211330 METAR VABB 211330Z 25011KT 3000 HZ FEW012 SCT018 FEW025TCU BKN100 29/25 Q1004 NOSIG=
202506211400 METAR VABB 211400Z 25010KT 3000 HZ FEW012 SCT018 FEW025TCU BKN100 29/25 Q1004 NOSIG=
202506211430 METAR VABB 211430Z 24011G27KT 3000 -SHRA FEW012 SCT018 FEW025TCU BKN100 29/25 Q1005 TEMPO 1500 SHRA=
202506211500 METAR VABB 211500Z 25007G17KT 3000 HZ FEW012 SCT018 FEW025TCU BKN100 29/25 Q1005 TEMPO 1500 SHRA=
202506211530 METAR VABB 211530Z 25007G17KT 3000 HZ SCT018 FEW025TCU BKN100 29/25 Q1005 NOSIG=
202506211600 METAR VABB 211600Z 24009G19KT 3000 HZ SCT018 FEW025TCU BKN100 29/25 Q1005 NOSIG=
202506211630 METAR VABB 211630Z 24010G26KT 3000 HZ SCT018 FEW025TCU BKN100 29/25 Q1005 NOSIG=
202506211700 METAR VABB 211700Z 24010G20KT 3000 HZ SCT018 FEW025TCU BKN100 29/25 Q1006 NOSIG=
202506211730 METAR VABB 211730Z 24008G18KT 3000 HZ SCT018 FEW025TCU BKN100 29/25 Q1006 NOSIG=
202506211800 METAR VABB 211800Z 24008KT 2500 HZ SCT018 FEW025TCU BKN100 28/25 Q1006 NOSIG=
202506211830 METAR VABB 211830Z 27008KT 2500 HZ SCT018 FEW025TCU BKN100 27/24 Q1005 NOSIG=
202506211900 METAR VABB 211900Z 26005KT 2200 -RA FEW012 SCT018 FEW025TCU BKN090 28/25 Q1005 TEMPO 1500 SHRA=
202506211930 METAR VABB 211930Z 24008KT 2200 -DZ FEW012 SCT018 FEW025TCU BKN090 28/25 Q1005 NOSIG=
202506212000 METAR VABB 212000Z 25008G18KT 2200 HZ SCT018 FEW025TCU BKN090 28/25 Q1004 NOSIG=
202506212030 METAR VABB 212030Z 25008G18KT 2200 HZ SCT018 FEW025TCU BKN090 28/25 Q1004 NOSIG=
202506212100 METAR VABB 212100Z 24009G20KT 2200 HZ SCT018 FEW025TCU BKN090 28/25 Q1004 NOSIG=
202506212130 METAR VABB 212130Z 24010G20KT 2200 HZ SCT018 FEW025TCU BKN090 28/25 Q1003 NOSIG=
202506212200 METAR VABB 212200Z 24008KT 2200 HZ SCT018 FEW025TCU BKN090 28/25 Q1003 NOSIG=
202506212230 METAR VABB 212230Z 24009KT 2200 HZ SCT018 FEW025TCU BKN090 28/24 Q1003 NOSIG=
202506212300 METAR VABB 212300Z 24010G20KT 2200 HZ SCT018 FEW025TCU BKN090 28/24 Q1003 TEMPO 1500 SHRA=
202506212330 METAR VABB 212330Z 23008G18KT 2200 -SHRA SCT018 FEW025TCU BKN090 28/25 Q1003 TEMPO 1500 SHRA=
202506220000 METAR VABB 220000Z 26016G27KT 1800 -RA FEW012 SCT018 FEW025TCU BKN090 25/23 Q1004 TEMPO 1500 SHRA=
202506220030 METAR VABB 220030Z 24006KT 2100 BR FEW012 SCT018 FEW030CB OVC090 26/24 Q1003 TEMPO 1500 SHRA=
202506220100 METAR VABB 220100Z 24009G19KT 2100 BR FEW012 SCT018 FEW025TCU BKN090 27/25 Q1004 NOSIG=
202506220130 METAR VABB 220130Z 25007G17KT 2500 HZ SCT018 FEW025TCU BKN090 28/25 Q1004 NOSIG=
202506220200 METAR VABB 220200Z 25008G18KT 2500 HZ SCT018 FEW025TCU BKN090 28/25 Q1004 NOSIG=
202506220230 METAR VABB 220230Z 25008KT 2500 HZ SCT018 FEW025TCU BKN090 28/23 Q1005 NOSIG=
202506220300 METAR VABB 220300Z 24007G17KT 2500 HZ SCT018 FEW025TCU BKN090 28/23 Q1005 NOSIG=
202506220330 METAR VABB 220330Z 24010G21KT 2500 HZ SCT018 FEW025TCU BKN090 29/25 Q1005 BECMG 3000 BR=
202506220400 METAR VABB 220400Z 23010G21KT 2500 BR SCT018 FEW030CB BKN090 29/25 Q1005 TEMPO 1500 SHRA=
202506220430 METAR VABB 220430Z 24011G21KT 2500 BR SCT018 FEW030CB BKN090 28/23 Q1006 TEMPO 1500 SHRA=
202506220500 METAR VABB 220500Z 24007G17KT 2500 HZ SCT018 FEW030CB BKN090 29/24 Q1005 TEMPO 1500 SHRA=
202506220530 METAR VABB 220530Z 24009G22KT 2500 HZ SCT018 FEW030CB BKN090 29/24 Q1005 NOSIG=
202506220600 METAR VABB 220600Z 24011G25KT 2500 HZ SCT020 SCT025 BKN100 30/25 Q1005 BECMG 3000 HZ=
202506220630 METAR VABB 220630Z 23010G21KT 3000 HZ SCT020 SCT025 BKN100 30/25 Q1005 NOSIG=
202506220700 METAR VABB 220700Z 23013G26KT 3000 BR SCT018 FEW025TCU BKN090 30/25 Q1004 TEMPO 1500 SHRA=
202506220730 METAR VABB 220730Z 24014G26KT 2500 -RA FEW012 SCT018 FEW025TCU BKN090 30/25 Q1004 TEMPO 1500 SHRA=
202506220800 METAR VABB 220800Z 25013G23KT 2500 HZ SCT018 FEW025TCU BKN090 31/25 Q1003 NOSIG=
202506220830 METAR VABB 220830Z 25013G23KT 2500 HZ SCT018 FEW025TCU BKN090 31/25 Q1003 BECMG 3000 HZ=
202506220900 METAR VABB 220900Z 26013G26KT 2500 HZ SCT018 FEW025TCU BKN090 31/25 Q1003 NOSIG=
202506220930 METAR VABB 220930Z 26012G26KT 2500 HZ SCT018 FEW025TCU BKN090 30/26 Q1003 NOSIG=
202506221000 METAR VABB 221000Z 26014G24KT 2500 HZ SCT018 FEW025TCU BKN090 30/25 Q1003 NOSIG=
202506221030 METAR VABB 221030Z 25012G22KT 2500 HZ SCT018 FEW025TCU BKN090 30/25 Q1002 NOSIG=
202506221100 METAR VABB 221100Z 24010G20KT 2500 HZ SCT018 FEW025TCU BKN090 30/25 Q1002 NOSIG=
202506221130 METAR VABB 221130Z 25012G22KT 2500 HZ SCT018 FEW025TCU BKN090 30/25 Q1002 NOSIG=
202506221200 METAR VABB 221200Z 24011G22KT 2500 HZ SCT018 FEW030CB BKN090 30/25 Q1002 NOSIG=
202506221230 METAR VABB 221230Z 24012G26KT 2500 HZ SCT018 FEW030CB BKN090 30/25 Q1002 TEMPO 1500 SHRA=
202506221300 METAR VABB 221300Z 25010G20KT 2500 HZ SCT018 FEW030CB BKN090 29/24 Q1002 NOSIG=
202506221330 METAR VABB 221330Z 25012G22KT 2500 HZ SCT018 FEW030CB BKN090 29/24 Q1002 NOSIG=
202506221400 METAR VABB 221400Z 25010G20KT 2500 HZ SCT018 FEW025TCU BKN090 29/24 Q1003 NOSIG=
202506221430 METAR VABB 221430Z 24009G19KT 1800 -SHRA SCT018 FEW025TCU BKN090 29/25 Q1003 TEMPO 1500 SHRA=
202506221500 METAR VABB 221500Z 25010G20KT 2500 HZ SCT018 FEW025TCU BKN090 29/25 Q1003 NOSIG=
202506221530 METAR VABB 221530Z 24010G20KT 2500 HZ SCT018 FEW025TCU BKN090 29/25 Q1004 NOSIG=
202506221600 METAR VABB 221600Z 24009KT 2500 HZ SCT018 FEW025TCU BKN090 29/24 Q1004 NOSIG=
202506221630 METAR VABB 221630Z 24014G24KT 2500 HZ SCT018 FEW025TCU BKN090 29/25 Q1004 NOSIG=
202506221700 METAR VABB 221700Z 24008G18KT 2500 HZ SCT018 FEW025TCU BKN090 29/25 Q1004 NOSIG=
202506221730 METAR VABB 221730Z 24007G17KT 2500 BR SCT018 FEW025TCU BKN090 29/25 Q1004 NOSIG=
202506221800 METAR VABB 221800Z 24009G19KT 2500 BR SCT018 FEW025TCU BKN090 29/25 Q1004 NOSIG=
202506221830 METAR VABB 221830Z 24012G22KT 2500 BR SCT020 FEW025TCU BKN100 29/24 Q1003 NOSIG=
202506221900 METAR VABB 221900Z 24009G19KT 2500 BR SCT020 FEW025TCU BKN100 28/25 Q1003 NOSIG=
202506221930 METAR VABB 221930Z 24009G19KT 2500 BR SCT020 FEW025TCU BKN100 28/25 Q1003 NOSIG=
202506222000 METAR VABB 222000Z 23011G21KT 1500 RA SCT020 FEW030CB BKN100 28/24 Q1002 TEMPO 0800 +SHRA=
202506222030 METAR VABB 222030Z 26006KT 2500 BR SCT020 FEW030CB BKN100 27/25 Q1002 TEMPO 1500 SHRA=
202506222100 METAR VABB 222100Z 24011G21KT 2500 BR SCT020 FEW025TCU BKN100 28/25 Q1002 NOSIG=
202506222130 METAR VABB 222130Z 25011G21KT 2500 BR SCT020 FEW025TCU BKN100 28/25 Q1001 NOSIG=
202506222200 METAR VABB 222200Z 26009KT 2500 BR SCT020 FEW025TCU BKN100 28/25 Q1001 NOSIG=
202506222230 METAR VABB 222230Z 25011G21KT 2500 BR SCT020 FEW025TCU BKN100 28/25 Q1001 NOSIG=
202506222300 METAR VABB 222300Z 25010G20KT 2500 BR SCT020 FEW025TCU BKN100 28/25 Q1001 NOSIG=
202506222330 METAR VABB 222330Z 25010G23KT 2500 BR SCT020 FEW025TCU BKN100 28/25 Q1001 NOSIG=
202506230000 METAR VABB 230000Z 25010G20KT 2500 BR SCT020 FEW025TCU BKN100 28/25 Q1002 NOSIG=
202506230030 METAR VABB 230030Z 24009G19KT 2500 BR SCT020 FEW025TCU BKN100 28/25 Q1002 NOSIG=
202506230100 METAR VABB 230100Z 24010G20KT 2500 BR SCT020 FEW025TCU BKN100 28/25 Q1002 NOSIG=
202506230130 METAR VABB 230130Z 25008KT 2500 BR SCT020 FEW025TCU BKN100 28/25 Q1002 NOSIG=
202506230200 METAR VABB 230200Z 25012G22KT 2500 -RA FEW012 SCT018 FEW025TCU BKN100 27/25 Q1003 NOSIG=
202506230230 METAR VABB 230230Z 26013G23KT 2500 -DZ FEW012 SCT018 FEW025TCU BKN100 28/25 Q1003 NOSIG=
202506230300 METAR VABB 230300Z 25015G25KT 2500 BR FEW012 SCT018 FEW025TCU BKN100 29/25 Q1003 NOSIG=
202506230330 METAR VABB 230330Z 24012G22KT 2500 BR FEW012 SCT018 FEW025TCU BKN100 29/25 Q1003 NOSIG=
202506230400 METAR VABB 230400Z 25008G18KT 2500 DZ FEW012 SCT018 FEW025TCU BKN090 29/25 Q1003 TEMPO 1500 SHRA=
202506230430 METAR VABB 230430Z 24011G21KT 2500 HZ FEW012 SCT018 FEW025TCU BKN090 29/25 Q1003 NOSIG=
202506230500 METAR VABB 230500Z 24010G20KT 2500 BR FEW012 SCT018 FEW030CB BKN090 29/25 Q1003 TEMPO 1500 SHRA=
202506230530 METAR VABB 230530Z 24013G23KT 2500 -SHRA FEW012 SCT018 FEW030CB BKN090 28/25 Q1003 TEMPO 1500 SHRA=
202506230600 METAR VABB 230600Z 24012G22KT 2500 -DZ FEW012 SCT018 FEW030CB BKN090 29/25 Q1003 TEMPO 1500 SHRA=
202506230630 METAR VABB 230630Z 23017G27KT 2500 -DZ FEW012 SCT018 FEW030CB BKN090 29/25 Q1003 TEMPO 1500 SHRA=
202506230700 METAR VABB 230700Z 25012KT 2500 HZ FEW012 SCT018 FEW030CB BKN090 29/25 Q1003 NOSIG=
202506230730 METAR VABB 230730Z 25009G19KT 1900 RA FEW010 SCT018 FEW030CB OVC090 30/25 Q1002 TEMPO 1500 SHRA=
202506230800 METAR VABB 230800Z 25009G19KT 2500 -DZ FEW010 SCT018 FEW030CB OVC090 29/25 Q1002 TEMPO 1500 SHRA=
202506230830 METAR VABB 230830Z 25010G20KT 2500 HZ FEW010 SCT018 FEW030CB OVC090 29/25 Q1002 TEMPO 1500 SHRA=
202506230900 METAR VABB 230900Z 26010G20KT 2500 DZ FEW010 SCT018 FEW030CB OVC080 29/25 Q1002 TEMPO 1500 SHRA=
202506230930 METAR VABB 230930Z 26012KT 2500 HZ FEW012 SCT020 FEW030CB OVC080 29/25 Q1001 TEMPO 1500 SHRA=
202506231000 METAR VABB 231000Z 26008G18KT 2500 HZ SCT020 FEW030CB BKN090 30/25 Q1001 NOSIG=
202506231030 METAR VABB 231030Z 25010G20KT 2500 HZ SCT020 FEW025TCU BKN090 30/25 Q1001 NOSIG=
202506231100 METAR VABB 231100Z 25012G22KT 2500 HZ SCT020 FEW025TCU BKN090 30/25 Q1001 NOSIG=
202506231130 METAR VABB 231130Z 24013G25KT 2500 HZ SCT020 FEW025TCU BKN090 30/25 Q1001 NOSIG=
202506231200 METAR VABB 231200Z 25013G27KT 2500 HZ SCT018 FEW025TCU BKN090 29/25 Q1000 NOSIG=
202506231230 METAR VABB 231230Z 25008G18KT 2500 HZ SCT018 FEW025TCU BKN090 29/25 Q1001 NOSIG=
202506231300 METAR VABB 231300Z 25011G24KT 2500 HZ SCT018 FEW025TCU BKN090 29/25 Q1000 NOSIG=
202506231330 METAR VABB 231330Z 24011G21KT 2500 HZ SCT018 FEW025TCU BKN090 29/25 Q1001 NOSIG=
202506231400 METAR VABB 231400Z 25010G20KT 2500 HZ FEW010 SCT018 FEW030CB OVC080 27/25 Q1001 TEMPO 1500 SHRA=
202506231430 METAR VABB 231430Z 24011G24KT 2500 -DZ FEW012 SCT018 FEW030CB OVC080 26/24 Q1001 TEMPO 1500 SHRA=
202506231500 METAR VABB 231500Z 25008KT 2500 BR FEW012 SCT018 FEW030CB OVC080 26/24 Q1001 TEMPO 1500 SHRA=
202506231530 METAR VABB 231530Z 24008KT 2500 BR FEW012 SCT018 FEW030CB OVC080 27/25 Q1002 TEMPO 1500 SHRA=
202506231600 METAR VABB 231600Z 28011KT 2500 -RA FEW012 SCT018 FEW030CB OVC080 26/24 Q1002 TEMPO 1500 SHRA=
202506231630 METAR VABB 231630Z 24007KT 2500 -RA FEW012 SCT018 FEW030CB OVC080 26/24 Q1002 TEMPO 1500 SHRA=
202506231700 METAR VABB 231700Z 24007KT 2500 -RA FEW012 SCT018 FEW030CB OVC080 26/24 Q1002 TEMPO 1500 SHRA=
202506231730 METAR VABB 231730Z 25015KT 2500 -RA FEW012 SCT018 FEW030CB OVC080 26/24 Q1002 TEMPO 1500 SHRA=
202506231800 METAR VABB 231800Z 25012KT 2500 -RA FEW012 SCT018 FEW030CB OVC080 26/24 Q1002 TEMPO 1500 SHRA=
202506231830 METAR VABB 231830Z 26011KT 2500 BR FEW012 SCT018 FEW030CB OVC080 26/24 Q1002 TEMPO 1500 SHRA=
202506231900 METAR VABB 231900Z 26011KT 2500 BR FEW012 SCT018 FEW030CB OVC080 26/24 Q1002 TEMPO 1500 SHRA=
202506231930 METAR VABB 231930Z 24004KT 2500 BR FEW012 SCT018 FEW030CB OVC080 26/24 Q1001 TEMPO 1500 SHRA=
202506232000 METAR VABB 232000Z 24009G19KT 2500 SHRA FEW012 SCT018 FEW030CB OVC080 26/25 Q1000 TEMPO 1500 SHRA=
202506232030 METAR VABB 232030Z 26010KT 2500 SHRA FEW012 SCT018 FEW030CB OVC080 27/25 Q1000 TEMPO 1500 SHRA=
202506232100 METAR VABB 232100Z 28016G26KT 2500 -SHRA FEW012 SCT018 FEW030CB OVC080 26/23 Q1000 TEMPO 1500 SHRA=
202506232130 METAR VABB 232130Z 31015G27KT 1500 R27/2000 +RA FEW012 SCT018 FEW030CB OVC080 23/22 Q1001 TEMPO 0800 +RA=
202506232200 METAR VABB 232200Z 00000KT 2500 -RA FEW012 SCT018 FEW030CB OVC080 24/21 Q1000 TEMPO 1500 SHRA=
202506232230 METAR VABB 232230Z 31005KT 2500 -RA FEW012 SCT018 FEW030CB OVC080 25/23 Q1000 TEMPO 1500 SHRA=
202506232300 METAR VABB 232300Z 25007KT 2500 -RA FEW012 SCT018 FEW030CB OVC080 25/23 Q1000 TEMPO 1500 SHRA=
202506232330 METAR VABB 232330Z 22004KT 2500 -RA FEW012 SCT018 FEW030CB OVC080 26/24 Q1000 TEMPO 1500 SHRA=
202506240000 METAR VABB 240000Z 20004KT 2500 -RA FEW012 SCT018 FEW030CB OVC080 24/22 Q1000 TEMPO 1500 SHRA=
202506240030 METAR VABB 240030Z 28014KT 2500 -RA FEW012 SCT018 FEW030CB OVC080 28/26 Q1000 TEMPO 1500 SHRA=
202506240100 METAR VABB 240100Z 23010G20KT 2500 -DZ FEW012 SCT018 FEW030CB OVC080 26/22 Q1001 TEMPO 1500 SHRA=
202506240130 METAR VABB 240130Z 26010KT 2500 BR FEW012 SCT018 FEW030CB OVC080 28/25 Q1001 TEMPO 1500 SHRA=
202506240200 METAR VABB 240200Z 28008KT 2500 BR SCT018 FEW030CB OVC090 28/23 Q1002 NOSIG=
202506240230 METAR VABB 240230Z 26004KT 2500 BR SCT018 FEW025TCU OVC090 29/25 Q1002 NOSIG=
202506240300 METAR VABB 240300Z 26009KT 2500 -DZ FEW012 SCT018 FEW025TCU OVC090 29/26 Q1002 TEMPO 1500 SHRA=
202506240330 METAR VABB 240330Z 27009KT 2500 BR SCT018 FEW025TCU OVC090 29/26 Q1002 NOSIG=
202506240400 METAR VABB 240400Z 26009G19KT 2500 BR SCT018 FEW025TCU BKN090 29/25 Q1002 NOSIG=
202506240430 METAR VABB 240430Z 26014G24KT 2500 BR SCT018 FEW025TCU BKN090 29/25 Q1002 NOSIG=
202506240500 METAR VABB 240500Z 25008G18KT 2500 BR SCT018 FEW025TCU BKN090 29/25 Q1002 NOSIG=
202506240530 METAR VABB 240530Z 25009G19KT 2500 BR SCT018 FEW025TCU BKN090 29/25 Q1002 NOSIG=
202506240600 METAR VABB 240600Z 25008G20KT 2500 BR SCT018 FEW025TCU BKN090 29/26 Q1002 BECMG 3000 BR=
202506240630 METAR VABB 240630Z 25010G20KT 3000 BR SCT018 SCT025 BKN090 29/26 Q1002 NOSIG=
202506240700 METAR VABB 240700Z 25010G21KT 3000 BR SCT018 SCT025 BKN090 30/25 Q1002 NOSIG=
202506240730 METAR VABB 240730Z 25013G23KT 3000 BR SCT018 SCT025 BKN090 29/25 Q1001 NOSIG=
202506240800 METAR VABB 240800Z 23010G20KT 3000 BR SCT018 SCT025 BKN090 29/25 Q1001 NOSIG=
202506240830 METAR VABB 240830Z 27011G23KT 3000 BR SCT018 SCT025 BKN090 30/25 Q1001 NOSIG=
202506240900 METAR VABB 240900Z 26012G22KT 3000 HZ SCT018 SCT025 BKN090 30/25 Q1001 NOSIG=
202506240930 METAR VABB 240930Z 26011G21KT 3000 HZ SCT018 FEW025TCU BKN090 30/25 Q1001 NOSIG=
202506241000 METAR VABB 241000Z 25010G20KT 3000 HZ SCT018 FEW025TCU BKN090 29/25 Q1001 NOSIG=
202506241030 METAR VABB 241030Z 26011G21KT 3000 HZ SCT018 FEW025TCU BKN090 29/25 Q1001 NOSIG=
202506241100 METAR VABB 241100Z 26010G20KT 2500 HZ FEW012 SCT018 FEW025TCU BKN090 29/25 Q1000 NOSIG=
202506241130 METAR VABB 241130Z 26010G20KT 2500 HZ FEW012 SCT018 FEW025TCU BKN090 29/25 Q1000 NOSIG=
202506241200 METAR VABB 241200Z 25010G20KT 2500 HZ SCT018 FEW025TCU BKN090 29/25 Q1000 NOSIG=
202506241230 METAR VABB 241230Z 24009G19KT 2500 HZ SCT018 FEW025TCU BKN090 29/25 Q1000 NOSIG=
202506241300 METAR VABB 241300Z 25007G17KT 2500 HZ FEW012 SCT018 FEW025TCU BKN090 29/25 Q1001 TEMPO 1500 SHRA=
202506241330 METAR VABB 241330Z 25008G18KT 2500 HZ FEW012 SCT018 FEW025TCU BKN090 29/25 Q1001 NOSIG=
202506241400 METAR VABB 241400Z 25008KT 2500 -RA FEW012 SCT018 FEW025TCU BKN090 29/25 Q1001 TEMPO 1500 SHRA=
202506241430 METAR VABB 241430Z 24007G17KT 2500 -RA FEW012 SCT018 FEW025TCU BKN090 28/25 Q1001 TEMPO 1500 SHRA=
202506241500 METAR VABB 241500Z 25008G18KT 2500 BR FEW012 SCT018 FEW025TCU BKN090 28/25 Q1001 TEMPO 1500 SHRA=
202506241530 METAR VABB 241530Z 24007G17KT 2500 BR FEW012 SCT018 FEW025TCU BKN090 28/25 Q1002 TEMPO 1500 SHRA=
202506241600 METAR VABB 241600Z 24011G21KT 2500 BR SCT018 FEW025TCU BKN090 28/25 Q1002 NOSIG=
202506241630 METAR VABB 241630Z 24009G19KT 2500 BR SCT018 FEW025TCU BKN090 29/25 Q1002 NOSIG=
202506241700 METAR VABB 241700Z 24010G20KT 2500 BR SCT018 SCT025 BKN090 29/25 Q1002 NOSIG=
202506241730 METAR VABB 241730Z 25009G19KT 2500 BR SCT018 SCT025 BKN090 28/25 Q1002 NOSIG=
202506241800 METAR VABB 241800Z 24011G21KT 2500 BR SCT018 FEW025TCU BKN090 28/25 Q1002 NOSIG=
202506241830 METAR VABB 241830Z 25008G18KT 2500 BR SCT018 FEW025TCU BKN090 28/25 Q1002 NOSIG=
202506241900 METAR VABB 241900Z 24007G17KT 2500 -DZ SCT018 FEW025TCU BKN090 28/25 Q1002 NOSIG=
202506241930 METAR VABB 241930Z 24011G21KT 2500 BR SCT018 SCT025 BKN090 28/25 Q1001 NOSIG=
202506242000 METAR VABB 242000Z 25010KT 2500 BR SCT018 SCT025 BKN090 28/26 Q1001 NOSIG=
202506242030 METAR VABB 242030Z 24010G20KT 2500 BR SCT018 SCT025 BKN090 28/25 Q1001 NOSIG=
202506242100 METAR VABB 242100Z 24010KT 2500 BR SCT018 SCT025 BKN090 28/25 Q1000 NOSIG=
202506242130 METAR VABB 242130Z 25007G17KT 2500 BR SCT018 SCT025 BKN090 28/25 Q1000 NOSIG=
202506242200 METAR VABB 242200Z 25014G24KT 2500 BR SCT018 FEW025TCU BKN090 28/25 Q1000 NOSIG=
202506242230 METAR VABB 242230Z 25009KT 2500 BR SCT018 FEW025TCU BKN090 28/25 Q1000 NOSIG=
202506242300 METAR VABB 242300Z 25008G18KT 2500 BR SCT018 FEW025TCU BKN090 28/25 Q1000 NOSIG=
202506242330 METAR VABB 242330Z 25007G17KT 2500 BR SCT018 FEW025TCU BKN090 28/25 Q1000 NOSIG=
202506250000 METAR VABB 250000Z 25009G19KT 2500 BR SCT018 FEW025TCU BKN090 28/25 Q1000 NOSIG=
202506250030 METAR VABB 250030Z 24009KT 2500 BR SCT018 FEW025TCU BKN090 28/25 Q1000 TEMPO 1500 SHRA=
202506250100 METAR VABB 250100Z 25008KT 2500 BR SCT018 FEW025TCU BKN090 28/25 Q1000 NOSIG=
202506250130 METAR VABB 250130Z 25010KT 2500 BR SCT018 FEW025TCU BKN090 28/25 Q1001 NOSIG=
202506250200 METAR VABB 250200Z 24009G19KT 2500 BR SCT018 FEW025TCU BKN090 28/25 Q1001 NOSIG=
202506250230 METAR VABB 250230Z 23012G22KT 2500 BR SCT018 FEW025TCU BKN090 29/25 Q1001 NOSIG=
202506250300 METAR VABB 250300Z 24009G19KT 2500 BR SCT018 FEW025TCU BKN090 29/25 Q1002 NOSIG=
202506250330 METAR VABB 250330Z 25007G17KT 2500 BR SCT018 FEW025TCU BKN090 29/25 Q1002 NOSIG=
202506250400 METAR VABB 250400Z 24009G19KT 2500 BR SCT018 FEW025TCU BKN090 29/25 Q1002 NOSIG=
202506250430 METAR VABB 250430Z 23010KT 2500 BR SCT018 FEW025TCU BKN090 29/26 Q1002 NOSIG=
202506250500 METAR VABB 250500Z 25010G20KT 2500 BR SCT018 FEW025TCU BKN090 29/25 Q1002 NOSIG=
202506250530 METAR VABB 250530Z 25009G19KT 2500 BR SCT018 FEW025TCU BKN090 29/25 Q1002 NOSIG=
202506250600 METAR VABB 250600Z 24010G20KT 2500 BR SCT018 FEW025TCU BKN090 30/26 Q1002 NOSIG=
202506250630 METAR VABB 250630Z 26014G24KT 2500 BR SCT018 FEW025TCU BKN090 30/24 Q1002 NOSIG=
202506250700 METAR VABB 250700Z 23010G20KT 2500 BR SCT018 FEW025TCU BKN090 30/25 Q1001 NOSIG=
202506250730 METAR VABB 250730Z 23012KT 2500 HZ SCT018 FEW025TCU BKN090 30/26 Q1001 BECMG 3000 HZ=
202506250800 METAR VABB 250800Z 26014KT 3000 HZ SCT018 FEW025TCU BKN090 30/25 Q1001 NOSIG=
202506250830 METAR VABB 250830Z 24012G27KT 3000 HZ SCT018 FEW025TCU BKN090 30/25 Q1001 NOSIG=
202506250900 METAR VABB 250900Z 25014KT 3000 HZ SCT018 FEW025TCU BKN090 30/25 Q1000 NOSIG=
202506250930 METAR VABB 250930Z 24014KT 3000 HZ SCT018 FEW025TCU BKN090 30/25 Q1000 NOSIG=
202506251000 METAR VABB 251000Z 24012KT 3000 HZ SCT018 SCT025 OVC090 30/25 Q1000 NOSIG=
202506251030 METAR VABB 251030Z 23010KT 2500 VCSH SCT018 FEW025TCU OVC090 29/26 Q1000 NOSIG=
202506251100 METAR VABB 251100Z 25014KT 2500 BR SCT018 FEW025TCU OVC090 29/25 Q0999 NOSIG=
202506251130 METAR VABB 251130Z 24010G22KT 2500 BR SCT018 FEW025TCU OVC090 29/25 Q0999 NOSIG=
202506251200 METAR VABB 251200Z 25012KT 2500 BR SCT018 FEW025TCU OVC090 29/25 Q0999 NOSIG=
202506251230 METAR VABB 251230Z 25012KT 2500 BR SCT018 FEW025TCU OVC090 29/25 Q0999 NOSIG=
202506251300 METAR VABB 251300Z 25010KT 2500 BR SCT018 FEW025TCU OVC090 29/25 Q1000 NOSIG=
202506251330 METAR VABB 251330Z 24012KT 2500 BR SCT018 FEW025TCU OVC090 29/25 Q1000 NOSIG=
202506251400 METAR VABB 251400Z 23010KT 2500 BR SCT018 FEW025TCU OVC090 29/24 Q1000 NOSIG=
202506251430 METAR VABB 251430Z 24010KT 1500 RA SCT018 SCT025 BKN090 29/24 Q1001 TEMPO 0800 +SHRA=
202506251433 METAR VABB 251433Z 24010KT 1500 RA SCT018 SCT025 OVC090 29/24 Q1001 TEMPO 0800 +SHRA=
202506251500 METAR VABB 251500Z 24008KT 1800 -RA FEW012 SCT018 FEW025TCU OVC080 27/25 Q1001 TEMPO 1500 SHRA=
202506251530 METAR VABB 251530Z 23010G20KT 1800 DZ FEW012 SCT018 FEW025TCU OVC080 28/26 Q1001 TEMPO 1500 SHRA=
202506251600 METAR VABB 251600Z 24009KT 2100 BR FEW012 SCT018 FEW025TCU OVC080 28/26 Q1001 TEMPO 1500 SHRA=
202506251630 METAR VABB 251630Z 25011KT 2100 -RA FEW012 SCT018 FEW025TCU OVC080 28/26 Q1002 TEMPO 1500 SHRA=
202506251700 METAR VABB 251700Z 25010KT 2200 BR SCT018 FEW025TCU BKN090 28/26 Q1002 NOSIG=
202506251730 METAR VABB 251730Z 24010G20KT 2200 BR SCT018 FEW025TCU BKN090 28/25 Q1002 NOSIG=
202506251800 METAR VABB 251800Z 25011KT 2100 -RA FEW012 SCT018 FEW025TCU BKN090 28/26 Q1001 NOSIG=
202506251830 METAR VABB 251830Z 25009KT 2100 BR SCT018 FEW025TCU BKN090 28/25 Q1001 NOSIG=
202506251900 METAR VABB 251900Z 25010KT 2100 BR SCT018 FEW025TCU BKN090 28/25 Q1001 NOSIG=
202506251930 METAR VABB 251930Z 26008G18KT 2100 BR SCT018 FEW025TCU BKN090 28/25 Q1001 NOSIG=
202506252000 METAR VABB 252000Z 24010KT 2200 BR SCT018 FEW025TCU BKN090 28/25 Q1001 NOSIG=
202506252030 METAR VABB 252030Z 25010KT 2200 BR SCT018 FEW025TCU BKN090 28/25 Q1000 NOSIG=
202506252100 METAR VABB 252100Z 25011KT 2200 BR SCT018 FEW025TCU BKN090 28/25 Q1000 NOSIG=
202506252130 METAR VABB 252130Z 25011KT 2200 BR SCT018 FEW025TCU BKN090 28/25 Q1000 NOSIG=
202506252200 METAR VABB 252200Z 25009KT 2200 BR SCT018 FEW025TCU BKN090 28/25 Q1000 NOSIG=
202506252230 METAR VABB 252230Z 25008KT 2200 BR SCT018 FEW025TCU BKN090 28/25 Q1000 NOSIG=
202506252300 METAR VABB 252300Z 25007G17KT 2200 BR SCT018 FEW025TCU BKN090 28/25 Q1000 NOSIG=
202506252330 METAR VABB 252330Z 25008KT 2200 BR SCT018 FEW025TCU BKN090 28/25 Q1000 TEMPO 1500 SHRA=
202506260000 METAR VABB 260000Z 24009KT 2200 BR SCT018 FEW025TCU BKN090 28/25 Q1000 NOSIG=
202506260030 METAR VABB 260030Z 24007KT 2200 BR SCT018 FEW025TCU BKN090 28/25 Q1000 NOSIG=
202506260100 METAR VABB 260100Z 24008KT 2200 BR SCT020 FEW025TCU BKN100 28/25 Q1000 NOSIG=
202506260130 METAR VABB 260130Z 24007KT 2200 BR FEW020 FEW025TCU BKN100 28/25 Q1001 NOSIG=
202506260200 METAR VABB 260200Z 24007KT 2500 HZ FEW020 SCT025 BKN100 28/24 Q1001 NOSIG=
202506260230 METAR VABB 260230Z 24007G17KT 2500 HZ FEW020 SCT025 BKN100 29/25 Q1001 NOSIG=
202506260300 METAR VABB 260300Z 25010KT 2500 HZ FEW020 SCT025 BKN100 29/26 Q1001 NOSIG=
202506260330 METAR VABB 260330Z 24008G18KT 2500 HZ FEW020 SCT025 BKN100 29/26 Q1002 NOSIG=
202506260400 METAR VABB 260400Z 24010G20KT 2500 HZ FEW020 SCT025 BKN100 30/25 Q1002 NOSIG=
202506260430 METAR VABB 260430Z 25010G20KT 2500 HZ SCT018 FEW025TCU BKN100 29/25 Q1002 TEMPO 1500 SHRA=
202506260500 METAR VABB 260500Z 28010KT 0600 R27/0800 +RA FEW010 SCT018 FEW025TCU BKN090 28/25 Q1002 TEMPO 0350 +RA=
202506260530 METAR VABB 260530Z 29011KT 1800 -RA FEW010 SCT018 FEW025TCU BKN090 26/25 Q1002 TEMPO 0800 +RA=
202506260600 METAR VABB 260600Z 30008KT 1800 -DZ FEW010 SCT018 FEW025TCU BKN090 26/24 Q1002 TEMPO 0800 +RA=
202506260630 METAR VABB 260630Z 28006KT 2100 -DZ FEW010 SCT018 FEW025TCU BKN090 27/25 Q1002 NOSIG=
202506260700 METAR VABB 260700Z 26009KT 2500 BR SCT018 FEW025TCU OVC090 28/25 Q1002 NOSIG=
202506260730 METAR VABB 260730Z 25009KT 2500 BR SCT018 FEW025TCU OVC090 28/24 Q1002 NOSIG=
202506260800 METAR VABB 260800Z 25009KT 2500 BR SCT018 FEW025TCU OVC090 28/24 Q1002 NOSIG=
202506260830 METAR VABB 260830Z 25009KT 2500 DZ SCT018 FEW025TCU OVC090 28/24 Q1002 TEMPO 1500 SHRA=
202506260900 METAR VABB 260900Z 25010KT 2500 BR SCT018 FEW030CB OVC090 27/24 Q1001 TEMPO 1500 SHRA=
202506260930 METAR VABB 260930Z 23009KT 2500 BR SCT018 FEW030CB OVC090 27/23 Q1001 TEMPO 1500 SHRA=
202506261000 METAR VABB 261000Z 24010KT 2500 BR SCT018 FEW030CB OVC090 28/24 Q1001 NOSIG=
202506261030 METAR VABB 261030Z 17006KT 2500 BR SCT018 FEW030CB OVC090 27/24 Q1001 NOSIG=
202506261100 METAR VABB 261100Z 25012KT 2100 -RA FEW012 SCT018 FEW030CB OVC090 26/23 Q1001 TEMPO 1500 SHRA=
202506261130 METAR VABB 261130Z 24006KT 2500 -DZ FEW012 SCT018 FEW030CB OVC090 26/23 Q1001 TEMPO 1500 SHRA=
202506261200 METAR VABB 261200Z 25006KT 2500 BR FEW012 SCT018 FEW030CB OVC090 28/25 Q1000 NOSIG=
202506261230 METAR VABB 261230Z 25011KT 2500 BR FEW012 SCT018 FEW030CB OVC090 28/25 Q1000 NOSIG=
202506261300 METAR VABB 261300Z 25010KT 2500 BR FEW012 SCT018 FEW030CB OVC090 28/25 Q1000 NOSIG=
202506261330 METAR VABB 261330Z 25008KT 2500 BR FEW012 SCT018 FEW025TCU OVC090 28/24 Q1001 NOSIG=
202506261400 METAR VABB 261400Z 24011KT 2500 BR FEW012 SCT018 FEW025TCU OVC090 26/23 Q1001 NOSIG=
202506261430 METAR VABB 261430Z 24009KT 2500 BR FEW012 SCT018 FEW025TCU OVC090 27/24 Q1001 NOSIG=
202506261500 METAR VABB 261500Z 24008KT 2500 BR FEW012 SCT018 FEW025TCU OVC090 28/25 Q1001 NOSIG=
202506261530 METAR VABB 261530Z 25007G17KT 2500 BR FEW012 SCT018 FEW025TCU OVC090 28/25 Q1001 NOSIG=
202506261600 METAR VABB 261600Z 25009G19KT 2500 BR FEW012 SCT018 FEW025TCU OVC090 28/24 Q1002 NOSIG=
202506261630 METAR VABB 261630Z 24009G19KT 2500 BR SCT018 FEW025TCU BKN090 28/24 Q1002 NOSIG=
202506261700 METAR VABB 261700Z 24013G23KT 2500 BR SCT018 FEW025TCU BKN090 28/24 Q1002 NOSIG=
202506261730 METAR VABB 261730Z 24008G18KT 2500 BR SCT018 FEW025TCU BKN090 28/25 Q1002 NOSIG=
202506261800 METAR VABB 261800Z 23013G23KT 2500 BR SCT018 FEW025TCU BKN090 28/24 Q1002 NOSIG=
202506261830 METAR VABB 261830Z 23011G21KT 2500 BR SCT018 FEW025TCU BKN090 28/24 Q1002 NOSIG=
202506261900 METAR VABB 261900Z 23010G20KT 2500 BR SCT018 FEW025TCU BKN090 28/25 Q1001 NOSIG=
202506261930 METAR VABB 261930Z 23011G21KT 2500 BR SCT018 FEW030CB BKN090 28/24 Q1001 NOSIG=
202506262000 METAR VABB 262000Z 23010G20KT 2500 BR SCT018 FEW030CB BKN090 28/25 Q1001 NOSIG=
202506262030 METAR VABB 262030Z 25011G21KT 2500 BR SCT018 FEW030CB BKN090 28/25 Q1000 NOSIG=
202506262100 METAR VABB 262100Z 24010G20KT 2500 BR SCT018 FEW030CB BKN090 28/25 Q1000 NOSIG=
202506262130 METAR VABB 262130Z 25007G17KT 2500 BR SCT018 FEW030CB BKN090 28/25 Q1000 NOSIG=
202506262200 METAR VABB 262200Z 26009G19KT 2500 -DZ SCT018 FEW030CB BKN090 28/25 Q1000 NOSIG=
202506262230 METAR VABB 262230Z 26010KT 2500 BR SCT018 FEW030CB BKN090 28/25 Q1000 NOSIG=
202506262300 METAR VABB 262300Z 25009KT 2500 BR SCT018 FEW025TCU BKN090 28/25 Q1000 NOSIG=
202506262330 METAR VABB 262330Z 25009KT 2500 -DZ SCT018 FEW025TCU BKN090 28/25 Q1000 NOSIG=
202506270000 METAR VABB 270000Z 25010KT 2500 BR SCT018 FEW025TCU BKN090 28/25 Q1000 NOSIG=
202506270030 METAR VABB 270030Z 25012G22KT 2500 -RA SCT018 FEW025TCU BKN090 28/25 Q1000 TEMPO 1500 SHRA=
202506270100 METAR VABB 270100Z 25010KT 2500 -DZ SCT018 FEW025TCU OVC090 28/25 Q1000 TEMPO 1500 SHRA=
202506270130 METAR VABB 270130Z 26010KT 2500 BR SCT018 FEW025TCU OVC090 28/25 Q1001 NOSIG=
202506270200 METAR VABB 270200Z 25009G19KT 2500 BR SCT018 FEW030CB OVC090 28/25 Q1001 NOSIG=
202506270230 METAR VABB 270230Z 25009G19KT 2500 BR SCT018 FEW030CB BKN090 28/25 Q1001 NOSIG=
202506270300 METAR VABB 270300Z 25009KT 2500 BR SCT018 FEW030CB BKN090 29/25 Q1001 NOSIG=
202506270330 METAR VABB 270330Z 26009G19KT 2500 -DZ SCT018 FEW025TCU BKN090 29/25 Q1002 NOSIG=
202506270400 METAR VABB 270400Z 25011G23KT 2500 HZ SCT018 FEW025TCU BKN090 29/25 Q1002 NOSIG=
202506270430 METAR VABB 270430Z 25014KT 2500 VCSH SCT018 FEW025TCU BKN090 30/25 Q1002 NOSIG=
202506270500 METAR VABB 270500Z 25013G23KT 2500 HZ SCT018 FEW025TCU BKN090 30/25 Q1002 NOSIG=
202506270530 METAR VABB 270530Z 24010G20KT 2500 HZ SCT018 FEW025TCU BKN090 30/26 Q1002 NOSIG=
202506270600 METAR VABB 270600Z 24013G27KT 2500 HZ SCT018 FEW025TCU BKN090 30/25 Q1002 NOSIG=
202506270630 METAR VABB 270630Z 26010G21KT 1000 R27/1200 +SHRA FEW012 SCT018 FEW025TCU BKN090 28/24 Q1003 TEMPO 0800 +SHRA=
202506270700 METAR VABB 270700Z 27009G19KT 2100 VCSH FEW012 SCT018 FEW025TCU BKN090 27/25 Q1002 TEMPO 1500 +SHRA=
202506270730 METAR VABB 270730Z 23014KT 2500 HZ SCT018 FEW030CB BKN090 27/24 Q1003 NOSIG=
202506270800 METAR VABB 270800Z 23012G22KT 2500 HZ SCT018 FEW030CB BKN090 28/24 Q1002 NOSIG=
202506270830 METAR VABB 270830Z 26007G17KT 2500 HZ SCT018 FEW030CB BKN090 28/25 Q1002 NOSIG=
202506270900 METAR VABB 270900Z 23007G17KT 2500 BR SCT018 FEW030CB BKN090 29/25 Q1002 NOSIG=
202506270930 METAR VABB 270930Z 25006KT 2500 BR SCT018 FEW025TCU BKN090 29/24 Q1002 NOSIG=
202506271000 METAR VABB 271000Z 24008KT 2500 BR SCT018 FEW030CB BKN090 29/24 Q1002 NOSIG=
202506271030 METAR VABB 271030Z 24009KT 2500 BR SCT018 FEW030CB BKN090 29/25 Q1001 TEMPO 1500 SHRA=
202506271100 METAR VABB 271100Z 24011G21KT 2500 BR SCT018 FEW030CB BKN090 29/25 Q1001 TEMPO 1500 SHRA=
202506271123 METAR VABB 271123Z 23012G22KT 1500 SHRA SCT018 FEW030CB BKN090 28/25 Q1001 TEMPO 0800 +SHRA=
202506271130 METAR VABB 271130Z 24010G20KT 2500 -RA FEW012 SCT018 FEW030CB BKN090 28/25 Q1001 TEMPO 1500 SHRA=
202506271200 METAR VABB 271200Z 23010G20KT 2500 BR FEW012 SCT018 FEW030CB BKN090 29/26 Q1001 NOSIG=
202506271230 METAR VABB 271230Z 24007G17KT 2500 -RA FEW012 SCT018 FEW030CB BKN090 29/25 Q1001 TEMPO 1500 SHRA=
202506271300 METAR VABB 271300Z 26007G17KT 2500 -DZ FEW012 SCT018 FEW030CB BKN090 29/25 Q1001 TEMPO 1500 SHRA=
202506271330 METAR VABB 271330Z 24010KT 2500 BR FEW012 SCT018 FEW025TCU BKN090 28/25 Q1001 NOSIG=
202506271400 METAR VABB 271400Z 24010G20KT 2500 BR FEW012 SCT018 FEW025TCU BKN090 28/25 Q1002 NOSIG=
202506271430 METAR VABB 271430Z 24009G19KT 2500 BR SCT018 FEW025TCU BKN090 28/25 Q1002 NOSIG=
202506271500 METAR VABB 271500Z 24011KT 2500 BR SCT018 FEW025TCU BKN090 28/25 Q1002 NOSIG=
202506271530 METAR VABB 271530Z 24008KT 2500 BR SCT018 FEW025TCU BKN090 27/24 Q1003 NOSIG=
202506271600 METAR VABB 271600Z 25011KT 2500 BR SCT018 FEW025TCU BKN090 27/24 Q1003 NOSIG=
202506271630 METAR VABB 271630Z 25010KT 2500 BR SCT018 FEW025TCU BKN090 28/23 Q1004 NOSIG=
202506271700 METAR VABB 271700Z 25009KT 2500 BR SCT018 FEW025TCU BKN090 28/24 Q1004 NOSIG=
202506271730 METAR VABB 271730Z 24010G22KT 2500 BR SCT018 FEW025TCU BKN090 28/24 Q1004 NOSIG=
202506271800 METAR VABB 271800Z 23008KT 2500 BR SCT018 FEW025TCU BKN090 28/24 Q1004 NOSIG=
202506271830 METAR VABB 271830Z 24008KT 2500 BR SCT018 FEW025TCU BKN090 28/24 Q1004 NOSIG=
202506271900 METAR VABB 271900Z 23009KT 2500 BR SCT018 FEW025TCU BKN090 28/24 Q1004 NOSIG=
202506271930 METAR VABB 271930Z 24009KT 2500 BR SCT018 FEW025TCU BKN090 28/24 Q1003 NOSIG=
202506272000 METAR VABB 272000Z 24010G20KT 2500 BR SCT018 FEW025TCU BKN090 28/23 Q1003 NOSIG=
202506272030 METAR VABB 272030Z 23009G19KT 2500 BR SCT018 FEW025TCU BKN090 28/24 Q1003 NOSIG=
202506272100 METAR VABB 272100Z 23010KT 2500 BR SCT018 FEW025TCU BKN090 28/24 Q1003 NOSIG=
202506272130 METAR VABB 272130Z 23010KT 2500 BR SCT018 FEW025TCU BKN090 28/24 Q1003 NOSIG=
202506272200 METAR VABB 272200Z 24009KT 2500 BR SCT018 FEW025TCU BKN090 28/24 Q1003 NOSIG=
202506272230 METAR VABB 272230Z 22007G17KT 2500 BR SCT018 FEW025TCU BKN090 28/24 Q1002 NOSIG=
202506272300 METAR VABB 272300Z 23012G24KT 2500 BR SCT018 FEW025TCU BKN090 28/24 Q1002 NOSIG=
202506272330 METAR VABB 272330Z 23009G19KT 2500 BR SCT018 FEW025TCU BKN090 28/24 Q1002 NOSIG=
202506280000 METAR VABB 280000Z 23012G27KT 2500 BR SCT018 FEW025TCU BKN090 28/24 Q1002 NOSIG=
202506280030 METAR VABB 280030Z 22011G21KT 2500 BR SCT018 SCT025 BKN100 28/24 Q1003 NOSIG=
202506280100 METAR VABB 280100Z 23010KT 2500 BR SCT020 SCT025 BKN100 28/24 Q1003 NOSIG=
202506280130 METAR VABB 280130Z 22013KT 2500 BR SCT020 SCT025 BKN100 28/24 Q1003 NOSIG=
202506280200 METAR VABB 280200Z 24013G23KT 2500 HZ SCT020 SCT025 BKN100 28/24 Q1003 BECMG 3000 HZ=
202506280230 METAR VABB 280230Z 24012KT 3000 HZ SCT020 SCT025 BKN100 28/24 Q1003 NOSIG=
202506280300 METAR VABB 280300Z 23012G22KT 3000 HZ SCT020 SCT025 BKN100 29/24 Q1004 NOSIG=
202506280330 METAR VABB 280330Z 23013G23KT 3000 HZ SCT020 SCT025 BKN100 29/24 Q1004 NOSIG=
202506280400 METAR VABB 280400Z 23017G27KT 3000 HZ FEW020 SCT025 BKN100 29/24 Q1004 NOSIG=
202506280430 METAR VABB 280430Z 23017G27KT 3000 HZ SCT020 SCT025 BKN100 30/24 Q1004 NOSIG=
202506280500 METAR VABB 280500Z 24016G26KT 3000 HZ SCT020 SCT025 BKN100 30/24 Q1004 NOSIG=
202506280530 METAR VABB 280530Z 24018G28KT 3000 HZ SCT020 SCT025 BKN100 30/25 Q1004 NOSIG=
202506280600 METAR VABB 280600Z 23020G30KT 3000 HZ SCT020 SCT025 BKN100 30/25 Q1004 NOSIG=
202506280630 METAR VABB 280630Z 24017G27KT 3000 HZ SCT020 SCT025 BKN100 30/25 Q1004 NOSIG=
202506280700 METAR VABB 280700Z 24016G26KT 3000 HZ SCT020 SCT025 BKN100 30/25 Q1004 NOSIG=
202506280730 METAR VABB 280730Z 24019G29KT 3000 HZ SCT020 SCT025 BKN100 30/24 Q1004 NOSIG=
202506280800 METAR VABB 280800Z 24017G27KT 3000 HZ SCT020 SCT025 BKN100 31/24 Q1003 NOSIG=
202506280830 METAR VABB 280830Z 23023G33KT 3000 HZ SCT020 SCT025 BKN100 30/24 Q1003 NOSIG=
202506280900 METAR VABB 280900Z 24017G27KT 3000 HZ SCT020 SCT025 BKN100 30/24 Q1003 NOSIG=
202506280930 METAR VABB 280930Z 24016G26KT 3000 HZ SCT020 FEW025TCU BKN100 30/25 Q1003 NOSIG=
202506281000 METAR VABB 281000Z 23013G23KT 2500 -DZ SCT020 FEW025TCU BKN100 30/25 Q1002 TEMPO 1500 SHRA=
202506281030 METAR VABB 281030Z 23015G29KT 2500 HZ SCT020 FEW025TCU BKN100 30/24 Q1002 NOSIG=
202506281100 METAR VABB 281100Z 23015G25KT 2500 HZ SCT020 FEW025TCU BKN100 30/25 Q1002 NOSIG=
202506281130 METAR VABB 281130Z 23015G31KT 2500 HZ SCT020 FEW025TCU BKN100 30/24 Q1002 BECMG 3000 HZ=
202506281200 METAR VABB 281200Z 23015G28KT 2500 HZ SCT020 FEW025TCU BKN100 29/24 Q1002 NOSIG=
202506281230 METAR VABB 281230Z 23015G25KT 3000 HZ FEW012 SCT020 FEW025TCU BKN100 29/24 Q1003 NOSIG=
202506281300 METAR VABB 281300Z 24012G22KT 3000 HZ FEW012 SCT020 FEW025TCU BKN100 29/25 Q1002 NOSIG=
202506281330 METAR VABB 281330Z 23012G22KT 3000 HZ FEW012 SCT020 FEW025TCU BKN100 29/24 Q1003 NOSIG=
202506281356 METAR VABB 281356Z 26017G31KT 2100 SHRA FEW012 SCT020 FEW025TCU BKN100 28/24 Q1003 TEMPO 1500 SHRA=
202506281430 METAR VABB 281430Z 23010G23KT 2100 -DZ FEW012 SCT018 FEW025TCU BKN090 25/23 Q1004 NOSIG=
202506281500 METAR VABB 281500Z 25007KT 2500 BR FEW012 SCT018 FEW025TCU BKN090 26/23 Q1004 NOSIG=
202506281530 METAR VABB 281530Z 24007KT 2500 BR FEW012 SCT018 FEW025TCU BKN090 27/24 Q1004 NOSIG=
202506281600 METAR VABB 281600Z 24007KT 2500 BR FEW012 SCT018 FEW030CB BKN090 27/24 Q1004 TEMPO 1500 SHRA=
202506281630 METAR VABB 281630Z 26011G21KT 2100 -SHRA FEW012 SCT018 FEW030CB BKN090 27/24 Q1004 TEMPO 1500 SHRA=
202506281700 METAR VABB 281700Z 31016G26KT 2100 -SHRA FEW012 SCT018 FEW030CB BKN090 25/23 Q1005 NOSIG=
202506281730 METAR VABB 281730Z 30011KT 2500 BR FEW012 SCT018 FEW030CB BKN090 26/23 Q1005 NOSIG=
202506281800 METAR VABB 281800Z 27006KT 2500 BR SCT020 FEW025TCU BKN090 26/23 Q1005 NOSIG=
202506281830 METAR VABB 281830Z 26009G19KT 2500 BR SCT020 FEW025TCU BKN100 27/22 Q1005 NOSIG=
202506281900 METAR VABB 281900Z 23003KT 2500 BR SCT020 FEW025TCU BKN100 26/23 Q1005 NOSIG=
202506281930 METAR VABB 281930Z 19003KT 2500 BR SCT020 FEW025TCU BKN100 26/23 Q1004 NOSIG=
202506282000 METAR VABB 282000Z 21006KT 2500 BR SCT020 FEW025TCU BKN100 26/23 Q1004 NOSIG=
202506282030 METAR VABB 282030Z 25008KT 2500 BR SCT020 SCT025 BKN100 26/23 Q1004 NOSIG=
202506282100 METAR VABB 282100Z 23006KT 2500 BR SCT020 SCT025 BKN100 26/23 Q1004 NOSIG=
202506282130 METAR VABB 282130Z 00000KT 2500 BR SCT020 SCT025 BKN100 26/23 Q1004 NOSIG=
202506282200 METAR VABB 282200Z 00000KT 2500 BR SCT020 SCT025 BKN100 26/23 Q1003 NOSIG=
202506282230 METAR VABB 282230Z 22004KT 2500 BR SCT020 SCT025 BKN100 26/24 Q1003 NOSIG=
202506282300 METAR VABB 282300Z 22012G22KT 2500 BR SCT020 SCT025 BKN100 27/24 Q1003 NOSIG=
202506282330 METAR VABB 282330Z 22004KT 2500 BR SCT020 SCT025 BKN100 27/24 Q1003 NOSIG=
202506290000 METAR VABB 290000Z 23005KT 2500 BR SCT020 SCT025 BKN100 27/25 Q1003 NOSIG=
202506290030 METAR VABB 290030Z 26010G20KT 2500 BR SCT020 FEW025TCU BKN100 28/24 Q1003 NOSIG=
202506290100 METAR VABB 290100Z 25009KT 2500 BR SCT020 FEW025TCU BKN100 28/25 Q1003 NOSIG=
202506290130 METAR VABB 290130Z 25007G17KT 2500 BR SCT020 FEW025TCU BKN100 28/25 Q1003 NOSIG=
202506290200 METAR VABB 290200Z 25008G18KT 1800 -SHRA FEW012 SCT018 FEW025TCU BKN090 28/24 Q1004 TEMPO 1500 SHRA=
202506290230 METAR VABB 290230Z 26009KT 2500 BR SCT018 FEW025TCU BKN090 28/25 Q1004 NOSIG=
202506290300 METAR VABB 290300Z 25010G20KT 2500 BR SCT018 FEW025TCU BKN090 29/25 Q1004 NOSIG=
202506290330 METAR VABB 290330Z 25010G20KT 2500 BR SCT018 FEW025TCU BKN090 29/25 Q1004 NOSIG=
202506290400 METAR VABB 290400Z 25008G18KT 2500 BR SCT018 FEW025TCU BKN090 29/25 Q1005 NOSIG=
202506290430 METAR VABB 290430Z 26009G19KT 2500 BR SCT020 FEW025TCU BKN090 30/25 Q1005 NOSIG=
202506290500 METAR VABB 290500Z 25014G26KT 2500 HZ SCT020 FEW025TCU BKN090 30/25 Q1005 BECMG 3000 HZ=
202506290530 METAR VABB 290530Z 26012G22KT 3000 HZ SCT020 FEW025TCU BKN090 30/25 Q1005 NOSIG=
202506290600 METAR VABB 290600Z 26012G22KT 3000 HZ SCT020 FEW025TCU BKN090 30/25 Q1005 NOSIG=
202506290630 METAR VABB 290630Z 26012G22KT 3000 HZ SCT020 FEW025TCU BKN090 31/25 Q1004 NOSIG=
202506290700 METAR VABB 290700Z 26012G24KT 3000 HZ SCT020 FEW025TCU BKN090 30/25 Q1004 NOSIG=
202506290730 METAR VABB 290730Z 25012G22KT 3000 HZ FEW012 SCT018 FEW025TCU BKN090 30/24 Q1004 TEMPO 1500 SHRA=
202506290800 METAR VABB 290800Z 25010G20KT 3000 HZ SCT020 FEW025TCU BKN090 30/25 Q1004 NOSIG=
202506290830 METAR VABB 290830Z 25011G21KT 3000 HZ SCT020 FEW025TCU BKN090 30/24 Q1004 NOSIG=
202506290900 METAR VABB 290900Z 26013G23KT 3000 HZ SCT020 FEW025TCU BKN090 30/24 Q1004 NOSIG=
202506290930 METAR VABB 290930Z 25011G21KT 3000 HZ SCT020 SCT025 BKN090 30/24 Q1003 NOSIG=
202506291000 METAR VABB 291000Z 23011KT 3000 -SHRA SCT018 SCT025 BKN090 29/25 Q1003 TEMPO 1500 SHRA=
202506291030 METAR VABB 291030Z 24011KT 3000 HZ SCT018 SCT025 BKN100 30/25 Q1003 NOSIG=
202506291100 METAR VABB 291100Z 25010KT 3000 HZ SCT018 SCT025 BKN100 29/24 Q1003 BECMG 5000 HZ=
202506291130 METAR VABB 291130Z 25010KT 5000 HZ SCT018 SCT025 BKN100 29/25 Q1002 NOSIG=
202506291200 METAR VABB 291200Z 25011KT 5000 HZ SCT018 SCT025 BKN100 29/24 Q1002 NOSIG=
202506291230 METAR VABB 291230Z 23012KT 4000 HZ SCT018 FEW025TCU 28/25 Q1003 NOSIG=
202506291300 METAR VABB 291300Z 25011KT 4000 HZ SCT018 FEW025TCU 29/25 Q1003 NOSIG=
202506291330 METAR VABB 291330Z 24011KT 4000 HZ SCT018 FEW025TCU 29/24 Q1003 NOSIG=
202506291400 METAR VABB 291400Z 24010KT 4000 HZ SCT018 SCT025 28/24 Q1003 BECMG 3000 HZ=
202506291430 METAR VABB 291430Z 25011KT 4000 HZ SCT018 SCT025 28/24 Q1003 NOSIG=
202506291500 METAR VABB 291500Z 25008G18KT 3000 HZ SCT018 SCT025 28/24 Q1003 NOSIG=
202506291530 METAR VABB 291530Z 25010G20KT 3000 HZ SCT018 SCT025 28/24 Q1004 NOSIG=
202506291600 METAR VABB 291600Z 23009G19KT 3000 HZ SCT018 SCT025 28/24 Q1004 NOSIG=
202506291630 METAR VABB 291630Z 24009G22KT 3000 HZ SCT018 SCT025 29/24 Q1004 NOSIG=
202506291700 METAR VABB 291700Z 24009G19KT 3000 HZ SCT018 SCT025 28/25 Q1004 NOSIG=
202506291730 METAR VABB 291730Z 24008G18KT 3000 HZ SCT018 FEW025TCU BKN100 28/24 Q1004 NOSIG=
202506291800 METAR VABB 291800Z 24010G20KT 2500 -SHRA FEW012 SCT018 FEW025TCU BKN090 28/25 Q1004 TEMPO 1500 SHRA=
202506291830 METAR VABB 291830Z 24013G24KT 2500 HZ SCT018 FEW025TCU BKN090 28/24 Q1004 TEMPO 1500 SHRA=
202506291900 METAR VABB 291900Z 25010G21KT 2500 HZ SCT018 FEW025TCU BKN090 28/24 Q1004 NOSIG=
202506291930 METAR VABB 291930Z 25008G18KT 2500 HZ SCT018 FEW025TCU BKN090 28/24 Q1003 NOSIG=
202506292000 METAR VABB 292000Z 25008G18KT 2500 VCSH FEW012 SCT018 FEW025TCU BKN090 28/25 Q1003 NOSIG=
202506292030 METAR VABB 292030Z 25012G24KT 2500 HZ SCT018 FEW025TCU BKN090 28/25 Q1002 NOSIG=
202506292100 METAR VABB 292100Z 24013G26KT 2500 HZ SCT018 FEW025TCU BKN090 28/24 Q1002 NOSIG=
202506292130 METAR VABB 292130Z 26010G20KT 2500 -RA FEW012 SCT018 FEW025TCU BKN090 27/25 Q1002 TEMPO 1500 SHRA=
202506292200 METAR VABB 292200Z 25012G22KT 2500 HZ FEW012 SCT018 FEW025TCU BKN090 28/24 Q1002 TEMPO 1500 SHRA=
202506292230 METAR VABB 292230Z 25011G21KT 2500 HZ FEW012 SCT018 FEW025TCU BKN090 28/24 Q1002 TEMPO 1500 SHRA=
202506292300 METAR VABB 292300Z 26011G21KT 2500 HZ SCT018 FEW025TCU BKN090 28/24 Q1002 TEMPO 1500 SHRA=
202506292330 METAR VABB 292330Z 26011G21KT 2500 HZ SCT018 FEW025TCU BKN090 28/24 Q1002 NOSIG=
202506300000 METAR VABB 300000Z 26016G26KT 2500 -RA SCT018 FEW025TCU BKN090 27/24 Q1002 TEMPO 1500 SHRA=
202506300030 METAR VABB 300030Z 26007G17KT 2500 BR SCT018 FEW025TCU BKN090 27/24 Q1002 NOSIG=
202506300100 METAR VABB 300100Z 26012G22KT 2500 BR SCT018 FEW025TCU BKN090 28/24 Q1002 NOSIG=
202506300130 METAR VABB 300130Z 26012G22KT 2500 BR SCT018 FEW025TCU BKN090 28/24 Q1003 NOSIG=
202506300200 METAR VABB 300200Z 26010G20KT 2500 HZ SCT018 FEW025TCU BKN090 28/24 Q1003 BECMG 3000 HZ=
202506300230 METAR VABB 300230Z 25011G21KT 2500 VCSH SCT018 FEW025TCU BKN090 28/25 Q1003 NOSIG=
202506300300 METAR VABB 300300Z 26008G18KT 2500 BR FEW012 SCT018 FEW025TCU BKN090 28/25 Q1004 NOSIG=
202506300330 METAR VABB 300330Z 25010G20KT 2500 BR FEW012 SCT018 FEW025TCU BKN090 29/25 Q1004 NOSIG=
202506300400 METAR VABB 300400Z 26011G21KT 2500 BR FEW012 SCT018 FEW025TCU BKN090 30/25 Q1004 NOSIG=
202506300430 METAR VABB 300430Z 26008G18KT 2500 BR FEW012 SCT018 FEW025TCU BKN090 29/24 Q1004 NOSIG=
202506300500 METAR VABB 300500Z 25014KT 2500 HZ SCT018 FEW025TCU BKN090 29/24 Q1004 BECMG 3000 HZ=
202506300530 METAR VABB 300530Z 24014G28KT 3000 HZ SCT018 SCT025 BKN100 30/24 Q1004 NOSIG=
202506300600 METAR VABB 300600Z 26013KT 3000 VCSH FEW012 SCT018 FEW025TCU BKN090 29/25 Q1004 TEMPO 1500 SHRA=
202506300630 METAR VABB 300630Z 25014KT 3000 BR FEW012 SCT018 FEW025TCU BKN090 28/25 Q1004 NOSIG=
202506300700 METAR VABB 300700Z 27010G20KT 3000 BR FEW012 SCT018 FEW025TCU BKN090 29/25 Q1004 NOSIG=
202506300730 METAR VABB 300730Z 25008G18KT 3000 BR FEW012 SCT018 FEW025TCU BKN090 30/25 Q1004 NOSIG=
202506300800 METAR VABB 300800Z 27016KT 3000 HZ FEW012 SCT018 FEW025TCU BKN090 30/25 Q1003 NOSIG=
202506300830 METAR VABB 300830Z 27013KT 3000 HZ FEW012 SCT018 FEW025TCU BKN090 30/25 Q1003 NOSIG=
202506300900 METAR VABB 300900Z 27010G20KT 3000 HZ FEW012 SCT018 FEW025TCU BKN090 30/25 Q1003 NOSIG=
202506300930 METAR VABB 300930Z 26007G17KT 2500 VCSH FEW012 SCT018 FEW025TCU BKN090 29/25 Q1003 TEMPO 1500 SHRA=
202506301000 METAR VABB 301000Z 25011G21KT 0600 R27/0800 +SHRA SCT010 SCT015 FEW025TCU BKN090 29/25 Q1002 TEMPO 0350 +SHRA=
202506301030 METAR VABB 301030Z 27013G23KT 2100 -RA FEW012 SCT018 FEW025TCU BKN090 27/24 Q1002 TEMPO 1500 SHRA=
202506301100 METAR VABB 301100Z 27012KT 2500 VCSH SCT018 FEW025TCU BKN090 28/25 Q1002 NOSIG=
202506301130 METAR VABB 301130Z 26016KT 1500 SHRA FEW012 SCT018 FEW025TCU BKN090 29/25 Q1002 TEMPO 0800 +SHRA=
202506301200 METAR VABB 301200Z 25016G26KT 1500 +RA FEW010 SCT015 FEW025TCU BKN090 26/24 Q1001 TEMPO 0800 +SHRA=
202506301230 METAR VABB 301230Z 26007G17KT 2500 BR SCT018 FEW025TCU BKN090 28/25 Q1002 NOSIG=
202506301300 METAR VABB 301300Z 26012KT 2500 BR SCT018 FEW025TCU BKN090 28/25 Q1002 NOSIG=
202506301330 METAR VABB 301330Z 26012G22KT 2500 BR SCT018 FEW025TCU BKN090 28/25 Q1002 NOSIG=
202506301400 METAR VABB 301400Z 28010G20KT 2500 -RA FEW012 SCT018 FEW025TCU BKN090 28/24 Q1003 TEMPO 1500 SHRA=
202506301430 METAR VABB 301430Z 27012G22KT 2500 BR SCT018 FEW025TCU BKN090 28/24 Q1003 NOSIG=
202506301500 METAR VABB 301500Z 28012G22KT 2500 BR SCT018 FEW025TCU BKN090 28/24 Q1003 NOSIG=
202506301530 METAR VABB 301530Z 26012G24KT 2500 BR SCT018 FEW025TCU BKN090 27/24 Q1004 NOSIG=
202506301600 METAR VABB 301600Z 26012G22KT 2500 BR SCT018 FEW025TCU BKN090 28/24 Q1004 NOSIG=
202506301630 METAR VABB 301630Z 27011G21KT 2500 BR SCT018 FEW025TCU BKN090 28/24 Q1004 NOSIG=
202506301700 METAR VABB 301700Z 26009G19KT 2500 BR SCT018 FEW025TCU BKN090 28/24 Q1004 NOSIG=
202506301730 METAR VABB 301730Z 26008G18KT 2500 BR SCT018 FEW025TCU BKN090 28/24 Q1004 NOSIG=
202506301800 METAR VABB 301800Z 26010G20KT 2500 BR SCT018 FEW025TCU BKN090 28/24 Q1004 NOSIG=
202506301830 METAR VABB 301830Z 26008G18KT 2500 BR SCT018 FEW025TCU BKN090 28/25 Q1004 NOSIG=
202506301900 METAR VABB 301900Z 26009G19KT 2500 BR SCT018 FEW025TCU BKN090 28/24 Q1004 NOSIG=
202506301930 METAR VABB 301930Z 26013G23KT 2500 BR SCT018 FEW025TCU BKN090 28/24 Q1004 NOSIG=
202506302000 METAR VABB 302000Z 26010G20KT 2500 BR SCT018 FEW025TCU BKN090 28/24 Q1003 NOSIG=
202506302030 METAR VABB 302030Z 26008G18KT 2500 BR SCT018 FEW025TCU BKN090 28/24 Q1003 NOSIG=
202506302100 METAR VABB 302100Z 25009KT 2500 BR SCT018 FEW025TCU BKN090 28/25 Q1003 NOSIG=
202506302130 METAR VABB 302130Z 26009KT 2500 BR SCT018 FEW025TCU BKN090 27/24 Q1002 NOSIG=
202506302200 METAR VABB 302200Z 26010G20KT 2500 BR SCT018 FEW025TCU BKN090 28/25 Q1002 NOSIG=
202506302230 METAR VABB 302230Z 26009KT 2500 BR SCT018 FEW025TCU BKN090 28/25 Q1002 NOSIG=
202506302300 METAR VABB 302300Z 25010KT 2500 BR SCT018 FEW025TCU BKN090 28/24 Q1002 NOSIG=
202506302330 METAR VABB 302330Z 26012KT 2500 BR SCT018 FEW025TCU BKN090 28/24 Q1002 NOSIG=
