202507010000 METAR VABB 010000Z 26012G22KT 2500 BR SCT018 FEW025TCU BKN090 28/24 Q1003 NOSIG=
202507010030 METAR VABB 010030Z 26012KT 2500 BR SCT018 FEW025TCU BKN090 28/24 Q1003 NOSIG=
202507010100 METAR VABB 010100Z 26010KT 2500 BR SCT018 FEW025TCU BKN090 28/24 Q1003 NOSIG=
202507010130 METAR VABB 010130Z 25007G17KT 2500 BR SCT018 FEW025TCU BKN090 28/25 Q1003 NOSIG=
202507010200 METAR VABB 010200Z 26008KT 2500 BR SCT018 FEW025TCU BKN090 28/24 Q1004 NOSIG=
202507010230 METAR VABB 010230Z 26007G17KT 2500 BR SCT018 FEW025TCU BKN090 28/25 Q1004 NOSIG=
202507010300 METAR VABB 010300Z 26008G18KT 2500 VCSH SCT018 FEW025TCU BKN090 28/25 Q1004 TEMPO 1500 SHRA=
202507010330 METAR VABB 010330Z 25009KT 2500 HZ SCT018 FEW025TCU BKN090 28/24 Q1004 NOSIG=
202507010400 METAR VABB 010400Z 24006KT 2500 HZ SCT018 FEW025TCU BKN090 28/24 Q1005 NOSIG=
202507010430 METAR VABB 010430Z 25007G17KT 2500 HZ SCT018 FEW025TCU BKN090 29/25 Q1005 NOSIG=
202507010500 METAR VABB 010500Z 26010KT 2500 HZ SCT018 FEW025TCU BKN090 30/25 Q1005 NOSIG=
202507010530 METAR VABB 010530Z 25015KT 2500 HZ SCT018 FEW025TCU BKN090 30/25 Q1005 NOSIG=
202507010600 METAR VABB 010600Z 26010G20KT 2500 HZ SCT018 FEW025TCU BKN090 29/24 Q1005 TEMPO 1500 SHRA=
202507010630 METAR VABB 010630Z 25011G21KT 2500 HZ SCT018 FEW025TCU BKN090 30/25 Q1005 NOSIG=
202507010700 METAR VABB 010700Z 25016KT 2500 HZ SCT018 FEW025TCU BKN090 30/24 Q1004 BECMG 3000 HZ=
202507010730 METAR VABB 010730Z 25012G22KT 3000 HZ SCT018 FEW025TCU BKN090 30/24 Q1004 NOSIG=
202507010800 METAR VABB 010800Z 26016KT 3000 HZ SCT018 FEW025TCU BKN090 30/24 Q1004 NOSIG=
202507010830 METAR VABB 010830Z 25016G26KT 3000 HZ SCT018 FEW025TCU BKN090 30/24 Q1004 NOSIG=
202507010900 METAR VABB 010900Z 25011G21KT 3000 HZ SCT018 FEW025TCU BKN090 30/24 Q1004 NOSIG=
202507010930 METAR VABB 010930Z 25012G22KT 3000 HZ SCT018 FEW025TCU BKN090 30/25 Q1003 NOSIG=
202507011000 METAR VABB 011000Z 25013G23KT 3000 HZ SCT018 FEW025TCU BKN090 29/24 Q1003 NOSIG=
202507011030 METAR VABB 011030Z 25011G21KT 3000 HZ SCT018 FEW025TCU BKN090 29/24 Q1003 NOSIG=
202507011100 METAR VABB 011100Z 26009G19KT 3000 HZ SCT018 FEW025TCU BKN090 30/25 Q1003 NOSIG=
202507011130 METAR VABB 011130Z 24013KT 3000 HZ SCT018 FEW025TCU BKN090 30/25 Q1003 NOSIG=
202507011200 METAR VABB 011200Z 26007G17KT 3000 HZ SCT018 FEW025TCU BKN090 29/25 Q1002 NOSIG=
202507011230 METAR VABB 011230Z 25010KT 3000 HZ SCT018 FEW025TCU BKN090 29/24 Q1002 NOSIG=
202507011300 METAR VABB 011300Z 26008G18KT 3000 VCSH SCT018 FEW025TCU BKN090 29/24 Q1003 NOSIG=
202507011330 METAR VABB 011330Z 25008KT 3000 VCSH SCT018 FEW025TCU BKN090 28/24 Q1003 TEMPO 1500 SHRA=
202507011400 METAR VABB 011400Z 24011G21KT 2500 VCSH FEW012 SCT018 FEW025TCU BKN090 29/25 Q1003 TEMPO 1500 SHRA=
202507011430 METAR VABB 011430Z 25012G22KT 2500 HZ SCT018 FEW025TCU BKN090 29/26 Q1003 TEMPO 1500 SHRA=
202507011500 METAR VABB 011500Z 25010KT 2500 HZ SCT018 FEW025TCU BKN090 28/24 Q1003 NOSIG=
202507011530 METAR VABB 011530Z 25008KT 2500 HZ SCT018 FEW025TCU BKN090 28/25 Q1004 NOSIG=
202507011600 METAR VABB 011600Z 24011G21KT 2500 HZ SCT018 FEW025TCU BKN090 28/24 Q1004 NOSIG=
202507011630 METAR VABB 011630Z 25009KT 2500 HZ SCT018 FEW025TCU BKN090 28/24 Q1004 NOSIG=
202507011700 METAR VABB 011700Z 25012G22KT 2100 -SHRA FEW012 SCT018 FEW025TCU BKN090 26/24 Q1004 TEMPO 0800 +SHRA=
202507011730 METAR VABB 011730Z 23008KT 2100 BR FEW012 SCT018 FEW025TCU BKN090 26/24 Q1004 TEMPO 1500 SHRA=
202507011800 METAR VABB 011800Z 23010KT 2100 BR FEW012 SCT018 FEW025TCU BKN090 27/25 Q1004 TEMPO 1500 SHRA=
202507011830 METAR VABB 011830Z 24007G17KT 2500 BR SCT018 FEW025TCU BKN090 27/25 Q1004 NOSIG=
202507011900 METAR VABB 011900Z 25011KT 2500 BR SCT018 FEW025TCU BKN090 28/25 Q1003 NOSIG=
202507011930 METAR VABB 011930Z 27012KT 2500 BR SCT018 FEW025TCU BKN090 28/25 Q1003 NOSIG=
202507012000 METAR VABB 012000Z 26014KT 2500 BR SCT018 FEW025TCU BKN090 28/25 Q1003 NOSIG=
202507012030 METAR VABB 012030Z 27015KT 2500 BR SCT018 FEW025TCU BKN090 28/25 Q1003 NOSIG=
202507012100 METAR VABB 012100Z 25012G22KT 2500 BR SCT018 FEW025TCU BKN090 28/25 Q1002 NOSIG=
202507012130 METAR VABB 012130Z 26010KT 2500 BR SCT018 FEW025TCU BKN090 28/25 Q1002 NOSIG=
202507012200 METAR VABB 012200Z 26013KT 2500 BR SCT018 FEW025TCU BKN090 28/25 Q1002 NOSIG=
202507012230 METAR VABB 012230Z 26011KT 2500 BR SCT018 FEW025TCU BKN090 28/25 Q1002 NOSIG=
202507012300 METAR VABB 012300Z 26011G21KT 2500 BR SCT018 FEW025TCU BKN090 28/25 Q1002 NOSIG=
202507012330 METAR VABB 012330Z 26012G22KT 2500 BR SCT018 FEW025TCU BKN090 28/24 Q1002 NOSIG=
202507020000 METAR VABB 020000Z 26012KT 2500 BR SCT018 FEW025TCU BKN090 28/24 Q1002 TEMPO 1500 SHRA=
202507020030 METAR VABB 020030Z 27011KT 2500 BR FEW012 SCT018 FEW025TCU BKN090 28/25 Q1002 NOSIG=
202507020100 METAR VABB 020100Z 27012KT 2500 -SHRA FEW012 SCT018 FEW025TCU BKN090 28/25 Q1002 NOSIG=
202507020130 METAR VABB 020130Z 27011KT 2500 BR FEW012 SCT018 FEW025TCU BKN090 28/25 Q1003 BECMG 3000 BR=
202507020200 METAR VABB 020200Z 27011KT 3000 BR FEW012 SCT018 FEW025TCU BKN090 28/25 Q1003 NOSIG=
202507020230 METAR VABB 020230Z 27010KT 3000 BR FEW012 SCT018 FEW025TCU BKN090 28/25 Q1003 NOSIG=
202507020300 METAR VABB 020300Z 25008G18KT 3000 BR FEW012 SCT018 FEW025TCU BKN090 29/26 Q1003 TEMPO 1500 SHRA=
202507020330 METAR VABB 020330Z 26011G21KT 3000 BR SCT018 FEW025TCU BKN090 29/26 Q1003 NOSIG=
202507020400 METAR VABB 020400Z 25014KT 2500 BR SCT018 FEW025TCU BKN090 29/25 Q1003 TEMPO 1500 SHRA=
202507020430 METAR VABB 020430Z 25011G21KT 2500 BR SCT018 FEW030CB BKN090 29/25 Q1004 NOSIG=
202507020500 METAR VABB 020500Z 25012KT 2500 BR SCT018 FEW030CB BKN090 29/26 Q1004 NOSIG=
202507020530 METAR VABB 020530Z 25009G19KT 2500 HZ SCT018 FEW030CB BKN090 29/26 Q1004 TEMPO 1500 SHRA=
202507020600 METAR VABB 020600Z 29011G21KT 2200 DZ FEW012 SCT018 FEW030CB OVC080 26/25 Q1004 TEMPO 1500 SHRA=
202507020630 METAR VABB 020630Z 27013KT 2500 HZ SCT018 FEW030CB OVC080 28/26 Q1004 TEMPO 1500 SHRA=
202507020700 METAR VABB 020700Z 25011KT 2500 HZ SCT018 FEW030CB OVC080 28/25 Q1004 TEMPO 1500 SHRA=
202507020730 METAR VABB 020730Z 25011KT 2500 HZ SCT018 FEW030CB OVC080 28/25 Q1003 TEMPO 1500 SHRA=
202507020800 METAR VABB 020800Z 25007KT 2500 HZ SCT018 FEW030CB OVC080 28/24 Q1003 TEMPO 1500 SHRA=
202507020830 METAR VABB 020830Z 27007KT 2500 BR SCT018 FEW030CB OVC080 28/25 Q1003 TEMPO 1500 SHRA=
202507020900 METAR VABB 020900Z 26009KT 2500 BR FEW012 SCT018 FEW030CB OVC080 28/25 Q1002 TEMPO 1500 SHRA=
202507020930 METAR VABB 020930Z 26009KT 3000 BR SCT018 FEW030CB OVC080 28/25 Q1002 NOSIG=
202507020950 METAR VABB 020950Z 28010G20KT 1400 R27/1700 SHRA FEW012 SCT018 FEW030CB OVC080 27/24 Q1002 TEMPO 0800 +SHRA=
202507021000 METAR VABB 021000Z 27008G18KT 2500 DZ FEW012 SCT018 FEW030CB OVC080 27/24 Q1002 TEMPO 1500 SHRA=
202507021030 METAR VABB 021030Z 25009G19KT 2500 BR FEW012 SCT018 FEW030CB OVC080 27/24 Q1002 TEMPO 1500 SHRA=
202507021100 METAR VABB 021100Z 26010KT 2500 BR FEW012 SCT018 FEW030CB OVC080 28/25 Q1001 TEMPO 1500 SHRA=
202507021130 METAR VABB 021130Z 25012KT 2500 BR SCT018 FEW030CB OVC080 28/25 Q1001 TEMPO 1500 SHRA=
202507021200 METAR VABB 021200Z 24008G18KT 2500 BR FEW012 SCT018 FEW030CB OVC080 28/25 Q1001 TEMPO 1500 SHRA=
202507021230 METAR VABB 021230Z 22009KT 2500 BR FEW012 SCT018 FEW030CB BKN080 27/25 Q1001 NOSIG=
202507021300 METAR VABB 021300Z 24009KT 2500 BR FEW012 SCT018 FEW030CB OVC080 28/25 Q1001 TEMPO 1500 SHRA=
202507021330 METAR VABB 021330Z 25011G21KT 2100 -RA FEW012 SCT018 FEW030CB OVC080 28/25 Q1002 TEMPO 1500 SHRA=
202507021400 METAR VABB 021400Z 24008KT 2500 BR FEW012 SCT018 FEW030CB OVC080 27/25 Q1002 TEMPO 1500 SHRA=
202507021430 METAR VABB 021430Z 26015G25KT 1800 RA FEW012 SCT018 FEW030CB OVC080 26/24 Q1002 TEMPO 1500 +SHRA=
202507021500 METAR VABB 021500Z 25004KT 2100 -DZ FEW012 SCT018 FEW030CB OVC090 25/23 Q1003 TEMPO 1500 SHRA=
202507021530 METAR VABB 021530Z 25007KT 1800 RA FEW012 SCT018 FEW030CB OVC080 26/25 Q1003 TEMPO 1500 SHRA=
202507021600 METAR VABB 021600Z 25007KT 2100 -DZ FEW012 SCT018 FEW030CB OVC080 26/25 Q1003 NOSIG=
202507021630 METAR VABB 021630Z 26006KT 2100 -RA FEW012 SCT018 FEW030CB OVC080 27/25 Q1003 NOSIG=
202507021700 METAR VABB 021700Z 26013KT 1200 R27/1500 +RA FEW010 SCT018 FEW030CB OVC080 25/24 Q1003 TEMPO 0800 +SHRA=
202507021730 METAR VABB 021730Z 25007KT 1500 RA SCT018 FEW030CB OVC080 26/25 Q1003 TEMPO 0800 +SHRA=
202507021800 METAR VABB 021800Z 24015G25KT 1500 -RA FEW012 SCT018 FEW030CB OVC080 25/24 Q1003 TEMPO 0800 +SHRA=
202507021830 METAR VABB 021830Z 26010KT 2100 -DZ SCT018 FEW030CB OVC080 25/24 Q1003 NOSIG=
202507021900 METAR VABB 021900Z 26014G24KT 1200 R27/1400 +RA FEW010 SCT018 FEW030CB OVC080 25/24 Q1003 TEMPO 0800 +RA=
202507021930 METAR VABB 021930Z 25013G24KT 1200 R27/1400 +RA FEW010 SCT018 FEW030CB OVC080 26/24 Q1002 TEMPO 0800 +SHRA=
202507022000 METAR VABB 022000Z 25011KT 2100 -RA FEW012 SCT018 FEW030CB OVC080 26/25 Q1002 TEMPO 1500 SHRA=
202507022030 METAR VABB 022030Z 26015KT 2100 DZ SCT018 FEW030CB OVC080 27/25 Q1002 NOSIG=
202507022100 METAR VABB 022100Z 26008G18KT 2500 BR SCT018 FEW030CB OVC080 27/25 Q1001 NOSIG=
202507022130 METAR VABB 022130Z 26013KT 2500 BR SCT018 FEW030CB OVC080 28/25 Q1001 NOSIG=
202507022200 METAR VABB 022200Z 26011KT 2500 -DZ FEW012 SCT018 FEW030CB OVC080 28/25 Q1001 TEMPO 1500 SHRA=
202507022230 METAR VABB 022230Z 26012G22KT 2100 -DZ SCT012 SCT018 FEW030CB OVC080 27/25 Q1001 TEMPO 1500 SHRA=
202507022300 METAR VABB 022300Z 26010KT 2200 -DZ SCT012 SCT018 FEW030CB OVC080 27/25 Q1001 NOSIG=
202507022330 METAR VABB 022330Z 26008G18KT 2500 BR SCT018 FEW030CB BKN090 27/25 Q1001 NOSIG=
202507030000 METAR VABB 030000Z 25009G19KT 2500 BR SCT018 FEW025TCU BKN090 28/25 Q1002 NOSIG=
202507030030 METAR VABB 030030Z 24010G20KT 2500 BR SCT018 FEW025TCU BKN090 28/25 Q1002 TEMPO 1500 SHRA=
202507030100 METAR VABB 030100Z 26012G22KT 2500 BR SCT018 FEW025TCU BKN090 28/25 Q1002 TEMPO 1500 SHRA=
202507030130 METAR VABB 030130Z 27011KT 2500 BR SCT018 FEW025TCU BKN090 27/24 Q1002 NOSIG=
202507030200 METAR VABB 030200Z 26009KT 2500 -DZ FEW012 SCT018 FEW030CB OVC080 28/24 Q1003 TEMPO 1500 SHRA=
202507030230 METAR VABB 030230Z 26009G19KT 2500 BR SCT018 FEW030CB BKN090 28/25 Q1003 NOSIG=
202507030300 METAR VABB 030300Z 23010G20KT 2500 BR SCT018 FEW030CB BKN090 29/26 Q1003 NOSIG=
202507030330 METAR VABB 030330Z 24009G19KT 2500 BR SCT018 FEW025TCU BKN090 29/26 Q1003 NOSIG=
202507030400 METAR VABB 030400Z 25009G19KT 2500 -RA FEW012 SCT018 FEW025TCU BKN090 30/26 Q1004 TEMPO 1500 SHRA=
202507030430 METAR VABB 030430Z 24012KT 2500 BR FEW012 SCT018 FEW025TCU BKN090 29/26 Q1004 NOSIG=
202507030500 METAR VABB 030500Z 24009G19KT 2500 VCSH FEW012 SCT018 FEW025TCU BKN090 30/26 Q1004 TEMPO 1500 SHRA=
202507030530 METAR VABB 030530Z 25012KT 2500 BR SCT018 FEW025TCU BKN090 30/27 Q1004 NOSIG=
202507030600 METAR VABB 030600Z 24012G22KT 2500 BR SCT018 FEW025TCU BKN090 30/26 Q1004 NOSIG=
202507030630 METAR VABB 030630Z 26019G29KT 2100 -DZ FEW012 SCT018 FEW025TCU BKN090 26/26 Q1003 TEMPO 1500 SHRA=
202507030700 METAR VABB 030700Z 24014G24KT 2500 BR SCT018 FEW025TCU BKN090 30/27 Q1003 NOSIG=
202507030730 METAR VABB 030730Z 25011G21KT 2500 BR SCT018 FEW025TCU BKN090 30/26 Q1003 NOSIG=
202507030800 METAR VABB 030800Z 24014KT 2500 BR SCT018 FEW025TCU BKN090 30/26 Q1003 TEMPO 1500 SHRA=
202507030830 METAR VABB 030830Z 24011G21KT 2500 BR SCT018 FEW025TCU BKN090 31/27 Q1003 NOSIG=
202507030900 METAR VABB 030900Z 25011G21KT 2500 BR SCT018 FEW025TCU BKN090 31/26 Q1003 BECMG 3000 HZ=
202507030930 METAR VABB 030930Z 24013G24KT 3000 BR SCT018 FEW025TCU BKN090 30/26 Q1002 NOSIG=
202507031000 METAR VABB 031000Z 24014G24KT 3000 HZ SCT018 FEW025TCU BKN090 30/25 Q1002 NOSIG=
202507031030 METAR VABB 031030Z 22015KT 3000 HZ SCT018 FEW025TCU BKN090 30/26 Q1002 NOSIG=
202507031100 METAR VABB 031100Z 24014KT 3000 HZ SCT018 FEW025TCU BKN090 30/25 Q1002 NOSIG=
202507031130 METAR VABB 031130Z 25012KT 3000 HZ SCT018 FEW025TCU BKN090 30/25 Q1002 NOSIG=
202507031200 METAR VABB 031200Z 24014G25KT 3000 HZ SCT018 FEW025TCU BKN090 29/24 Q1002 NOSIG=
202507031230 METAR VABB 031230Z 23014KT 2500 BR SCT018 FEW025TCU BKN090 26/24 Q1002 TEMPO 1500 SHRA=
202507031300 METAR VABB 031300Z 24008KT 2500 BR SCT018 FEW025TCU BKN090 27/25 Q1002 TEMPO 1500 SHRA=
202507031330 METAR VABB 031330Z 24010KT 2500 BR SCT018 FEW025TCU BKN090 27/25 Q1002 TEMPO 1500 SHRA=
202507031400 METAR VABB 031400Z 25011KT 2500 BR SCT018 FEW025TCU BKN090 27/24 Q1003 NOSIG=
202507031430 METAR VABB 031430Z 24011KT 2500 BR SCT018 FEW025TCU BKN090 28/24 Q1003 NOSIG=
202507031500 METAR VABB 031500Z 23007G17KT 2500 BR SCT018 FEW025TCU BKN090 28/26 Q1003 TEMPO 1500 SHRA=
202507031530 METAR VABB 031530Z 22012KT 2100 -RA FEW012 SCT018 FEW025TCU BKN080 28/26 Q1003 TEMPO 1500 SHRA=
202507031600 METAR VABB 031600Z 25009G19KT 2100 -DZ FEW012 SCT018 FEW025TCU OVC080 27/25 Q1004 TEMPO 1500 SHRA=
202507031630 METAR VABB 031630Z 25015G35KT 1800 RA FEW010 SCT018 FEW030CB OVC080 26/24 Q1004 TEMPO 0800 +SHRA=
202507031700 METAR VABB 031700Z 24007KT 2200 DZ FEW010 SCT018 FEW030CB OVC080 26/24 Q1004 TEMPO 1500 SHRA=
202507031730 METAR VABB 031730Z 21006KT 2200 -RA FEW010 SCT018 FEW030CB OVC080 27/25 Q1004 NOSIG=
202507031800 METAR VABB 031800Z 23007G17KT 2200 DZ FEW010 SCT018 FEW030CB OVC080 28/26 Q1004 TEMPO 1500 SHRA=
202507031830 METAR VABB 031830Z 24010G20KT 2200 DZ FEW010 SCT018 FEW030CB OVC080 28/26 Q1004 TEMPO 1500 SHRA=
202507031900 METAR VABB 031900Z 27019G35KT 1600 -RA SCT010 SCT018 FEW030CB OVC080 26/26 Q1003 TEMPO 0800 +SHRA=
202507031930 METAR VABB 031930Z 23016G26KT 2100 -RA FEW010 SCT018 FEW030CB OVC080 26/25 Q1003 TEMPO 1500 +SHRA=
202507032000 METAR VABB 032000Z 24007G17KT 2100 -RA FEW010 SCT018 FEW030CB OVC080 27/25 Q1003 TEMPO 1500 SHRA=
202507032030 METAR VABB 032030Z 24010KT 2200 DZ FEW010 SCT018 FEW030CB OVC080 28/26 Q1003 NOSIG=
202507032100 METAR VABB 032100Z 24013KT 2200 BR SCT018 FEW030CB BKN090 28/26 Q1003 NOSIG=
202507032130 METAR VABB 032130Z 24009G19KT 2200 BR SCT018 FEW030CB BKN090 28/26 Q1002 TEMPO 1500 SHRA=
202507032200 METAR VABB 032200Z 25012G22KT 2200 BR SCT018 FEW030CB BKN090 28/25 Q1002 TEMPO 1500 SHRA=
202507032230 METAR VABB 032230Z 25019G30KT 1500 -RA FEW012 SCT018 FEW030CB OVC080 26/25 Q1003 TEMPO 0800 +SHRA=
202507032300 METAR VABB 032300Z 25009KT 2100 -RA FEW012 SCT018 FEW030CB OVC080 27/26 Q1002 TEMPO 1500 SHRA=
202507032330 METAR VABB 032330Z 24013G23KT 2100 -DZ FEW012 SCT018 FEW030CB OVC080 28/25 Q1002 TEMPO 1500 SHRA=
202507040000 METAR VABB 040000Z 24014G28KT 2100 BR FEW012 SCT018 FEW030CB OVC080 28/26 Q1002 TEMPO 1500 SHRA=
202507040030 METAR VABB 040030Z 24012G22KT 2100 BR FEW012 SCT018 FEW030CB OVC080 28/25 Q1003 NOSIG=
202507040100 METAR VABB 040100Z 24012G22KT 2100 BR SCT018 FEW030CB OVC090 29/25 Q1003 NOSIG=
202507040130 METAR VABB 040130Z 25011G21KT 2100 BR SCT018 FEW030CB OVC090 29/26 Q1004 TEMPO 1500 SHRA=
202507040200 METAR VABB 040200Z 24009G19KT 2100 BR SCT018 FEW030CB BKN090 29/25 Q1004 TEMPO 1500 SHRA=
202507040230 METAR VABB 040230Z 25011G21KT 2500 BR SCT018 FEW025TCU BKN090 29/25 Q1004 NOSIG=
202507040300 METAR VABB 040300Z 26011KT 2500 HZ SCT018 FEW025TCU BKN090 29/25 Q1004 NOSIG=
202507040330 METAR VABB 040330Z 24013KT 1500 R27/2000 SHRA SCT018 FEW025TCU BKN090 28/26 Q1005 NOSIG=
202507040400 METAR VABB 040400Z 23011KT 2500 VCSH SCT018 FEW025TCU BKN090 29/26 Q1005 TEMPO 1500 SHRA=
202507040430 METAR VABB 040430Z 26013KT 2500 VCSH SCT018 FEW025TCU BKN090 29/26 Q1005 NOSIG=
202507040500 METAR VABB 040500Z 24016G28KT 1500 R27/2000 SHRA SCT018 FEW025TCU BKN090 27/26 Q1005 NOSIG=
202507040530 METAR VABB 040530Z 26010KT 2500 BR SCT018 FEW025TCU BKN090 29/26 Q1005 TEMPO 1500 SHRA=
202507040600 METAR VABB 040600Z 24016KT 2500 BR SCT018 FEW025TCU BKN090 30/26 Q1005 NOSIG=
202507040630 METAR VABB 040630Z 23013KT 2500 HZ SCT018 FEW025TCU BKN090 30/26 Q1005 NOSIG=
202507040700 METAR VABB 040700Z 24013KT 2500 HZ SCT018 FEW025TCU BKN090 30/26 Q1005 NOSIG=
202507040730 METAR VABB 040730Z 24013KT 2500 HZ SCT018 FEW025TCU BKN090 30/26 Q1004 NOSIG=
202507040800 METAR VABB 040800Z 25019KT 2500 -SHRA SCT018 FEW025TCU BKN090 29/25 Q1004 TEMPO 1500 SHRA=
202507040830 METAR VABB 040830Z 23008KT 2500 HZ SCT018 FEW025TCU BKN090 29/26 Q1004 NOSIG=
202507040900 METAR VABB 040900Z 25011G21KT 2500 HZ SCT018 FEW025TCU BKN090 29/24 Q1004 NOSIG=
202507040930 METAR VABB 040930Z 26007G17KT 2500 HZ SCT018 FEW025TCU BKN090 29/25 Q1003 NOSIG=
202507041000 METAR VABB 041000Z 25009G19KT 2500 HZ FEW012 SCT018 FEW025TCU BKN090 27/24 Q1003 NOSIG=
202507041030 METAR VABB 041030Z 24015KT 2500 HZ FEW012 SCT018 FEW025TCU BKN090 30/26 Q1003 NOSIG=
202507041100 METAR VABB 041100Z 25010G20KT 2500 HZ SCT018 FEW025TCU BKN090 30/26 Q1003 NOSIG=
202507041130 METAR VABB 041130Z 22012G22KT 2500 VCSH SCT018 FEW025TCU BKN090 29/26 Q1003 NOSIG=
202507041200 METAR VABB 041200Z 24013KT 2500 HZ SCT018 FEW025TCU BKN090 29/25 Q1003 NOSIG=
202507041230 METAR VABB 041230Z 23007G17KT 2500 HZ SCT018 FEW025TCU BKN090 29/26 Q1003 NOSIG=
202507041300 METAR VABB 041300Z 23010G20KT 2500 HZ SCT018 FEW025TCU BKN090 29/26 Q1003 NOSIG=
202507041330 METAR VABB 041330Z 23010KT 2500 HZ SCT018 FEW025TCU BKN090 28/24 Q1003 NOSIG=
202507041400 METAR VABB 041400Z 23008G18KT 2500 HZ SCT018 FEW025TCU BKN090 29/25 Q1003 NOSIG=
202507041430 METAR VABB 041430Z 23011KT 2500 HZ SCT018 FEW025TCU BKN090 29/25 Q1004 NOSIG=
202507041500 METAR VABB 041500Z 23015G25KT 2500 BR SCT018 FEW025TCU BKN090 27/25 Q1004 NOSIG=
202507041530 METAR VABB 041530Z 23012KT 2500 BR SCT018 FEW025TCU BKN090 27/24 Q1004 NOSIG=
202507041600 METAR VABB 041600Z 23008G18KT 2500 BR SCT018 FEW025TCU BKN090 27/24 Q1004 NOSIG=
202507041630 METAR VABB 041630Z 25007G17KT 2500 BR SCT018 FEW025TCU BKN090 27/24 Q1004 NOSIG=
202507041700 METAR VABB 041700Z 26010KT 2500 BR SCT018 FEW025TCU BKN090 28/24 Q1005 NOSIG=
202507041730 METAR VABB 041730Z 24007KT 1500 R27/1800 SHRA FEW010 SCT018 FEW025TCU BKN090 28/24 Q1004 TEMPO 0800 +SHRA=
202507041800 METAR VABB 041800Z 25006KT 2500 BR SCT018 FEW025TCU BKN090 26/24 Q1004 NOSIG=
202507041830 METAR VABB 041830Z 23010KT 2500 BR SCT018 FEW025TCU BKN090 26/25 Q1004 TEMPO 1500 SHRA=
202507041900 METAR VABB 041900Z 28016G26KT 2500 -SHRA FEW010 SCT018 FEW025TCU BKN090 26/24 Q1004 NOSIG=
202507041930 METAR VABB 041930Z 24007KT 1500 R27/1800 SHRA FEW010 SCT018 FEW025TCU BKN090 28/24 Q1004 TEMPO 0800 +SHRA=
202507042000 METAR VABB 042000Z 25010KT 2500 BR SCT018 FEW025TCU BKN090 27/25 Q1004 NOSIG=
202507042030 METAR VABB 042030Z 25012G22KT 2500 BR SCT018 FEW025TCU BKN090 27/25 Q1003 NOSIG=
202507042100 METAR VABB 042100Z 28012G22KT 2500 BR SCT018 FEW025TCU BKN090 26/24 Q1003 NOSIG=
202507042130 METAR VABB 042130Z 27009KT 2500 BR SCT018 FEW025TCU BKN090 26/24 Q1003 NOSIG=
202507042200 METAR VABB 042200Z 27015G25KT 1500 SHRA FEW010 SCT018 FEW025TCU OVC090 27/25 Q1003 TEMPO 0800 +SHRA=
202507042230 METAR VABB 042230Z 28013KT 2100 -DZ FEW010 SCT018 FEW025TCU OVC090 26/25 Q1003 TEMPO 1500 SHRA=
202507042300 METAR VABB 042300Z 25014G24KT 2500 BR FEW010 SCT018 FEW025TCU OVC090 28/25 Q1002 NOSIG=
202507042330 METAR VABB 042330Z 24014G24KT 2100 SHRA FEW010 SCT018 FEW030CB OVC090 27/25 Q1002 TEMPO 1500 SHRA=
202507050000 METAR VABB 050000Z 24012KT 2500 BR FEW010 SCT018 FEW030CB OVC090 28/25 Q1003 NOSIG=
202507050030 METAR VABB 050030Z 25014G24KT 2500 BR FEW012 SCT018 FEW030CB OVC090 28/25 Q1003 NOSIG=
202507050100 METAR VABB 050100Z 24012G22KT 2500 BR SCT018 FEW030CB BKN090 28/25 Q1003 NOSIG=
202507050130 METAR VABB 050130Z 23010G20KT 2500 BR SCT018 FEW025TCU BKN090 28/25 Q1003 NOSIG=
202507050200 METAR VABB 050200Z 25010G20KT 2500 BR SCT018 FEW025TCU BKN090 28/25 Q1004 NOSIG=
202507050230 METAR VABB 050230Z 25012G22KT 2500 BR FEW012 SCT018 FEW025TCU BKN090 29/25 Q1004 NOSIG=
202507050300 METAR VABB 050300Z 24008G18KT 2500 BR FEW012 SCT018 FEW025TCU BKN090 29/26 Q1004 NOSIG=
202507050330 METAR VABB 050330Z 24011G21KT 2500 BR FEW012 SCT018 FEW025TCU BKN090 28/26 Q1004 NOSIG=
202507050400 METAR VABB 050400Z 25009G19KT 2500 VCSH FEW012 SCT018 FEW025TCU BKN090 29/26 Q1004 NOSIG=
202507050430 METAR VABB 050430Z 25010G20KT 2100 -SHRA FEW012 SCT018 FEW025TCU BKN090 29/26 Q1004 TEMPO 1500 SHRA=
202507050500 METAR VABB 050500Z 25014G24KT 2100 -SHRA FEW012 SCT018 FEW025TCU BKN090 28/26 Q1004 TEMPO 1500 SHRA=
202507050530 METAR VABB 050530Z 26019G29KT 2100 -SHRA FEW010 SCT018 FEW025TCU BKN090 28/26 Q1004 TEMPO 1500 SHRA=
202507050600 METAR VABB 050600Z 24009G19KT 2500 VCSH FEW012 SCT018 FEW025TCU BKN090 28/26 Q1004 NOSIG=
202507050630 METAR VABB 050630Z 26018G28KT 2500 BR SCT018 FEW025TCU BKN090 28/25 Q1004 NOSIG=
202507050700 METAR VABB 050700Z 24014G24KT 2500 BR SCT018 FEW025TCU BKN090 29/26 Q1004 NOSIG=
202507050730 METAR VABB 050730Z 24013G23KT 2500 BR SCT018 FEW025TCU BKN090 30/26 Q1004 NOSIG=
202507050800 METAR VABB 050800Z 24014G24KT 2500 BR SCT018 FEW025TCU BKN090 30/26 Q1003 NOSIG=
202507050830 METAR VABB 050830Z 24015G25KT 2500 BR SCT018 FEW025TCU BKN090 30/25 Q1003 NOSIG=
202507050900 METAR VABB 050900Z 24011G21KT 2500 HZ SCT018 FEW025TCU BKN090 30/26 Q1003 NOSIG=
202507050930 METAR VABB 050930Z 25014G24KT 2500 HZ SCT018 FEW025TCU BKN090 30/26 Q1003 NOSIG=
202507051000 METAR VABB 051000Z 24016G26KT 2500 HZ SCT018 FEW025TCU BKN090 30/25 Q1002 NOSIG=
202507051030 METAR VABB 051030Z 24009G19KT 2500 VCSH FEW012 SCT018 FEW025TCU BKN090 30/26 Q1002 NOSIG=
202507051100 METAR VABB 051100Z 25012G22KT 2500 DZ FEW012 SCT018 FEW025TCU BKN090 29/27 Q1002 NOSIG=
202507051130 METAR VABB 051130Z 25014G24KT 2500 VCSH FEW012 SCT018 FEW025TCU BKN090 30/26 Q1002 TEMPO 1500 SHRA=
202507051200 METAR VABB 051200Z 25013G23KT 2500 VCSH FEW012 SCT018 FEW025TCU BKN090 29/25 Q1002 TEMPO 1500 SHRA=
202507051211 METAR VABB 051211Z 25018G30KT 1400 R27/1600 +RA SCT010 SCT018 FEW030CB OVC080 27/25 Q1002 TEMPO 0800 +SHRA=
202507051230 METAR VABB 051230Z 26010G20KT 2200 -RA FEW010 SCT018 FEW030CB BKN090 26/24 Q1002 TEMPO 1500 SHRA=
202507051300 METAR VABB 051300Z 25011KT 2100 VCSH SCT010 SCT018 FEW030CB BKN090 28/26 Q1003 TEMPO 1500 SHRA=
202507051330 METAR VABB 051330Z 25008G18KT 2100 -RA SCT010 SCT018 FEW030CB OVC080 26/24 Q1003 TEMPO 1500 SHRA=
202507051400 METAR VABB 051400Z 25007KT 1800 RA SCT010 SCT018 FEW030CB OVC080 27/25 Q1003 TEMPO 1500 SHRA=
202507051430 METAR VABB 051430Z 25010KT 2200 -RA FEW010 SCT018 FEW030CB OVC080 27/24 Q1003 TEMPO 1500 SHRA=
202507051500 METAR VABB 051500Z 24006KT 2200 BR FEW010 SCT018 FEW030CB OVC080 27/25 Q1003 TEMPO 1500 SHRA=
202507051530 METAR VABB 051530Z 25005KT 2200 BR FEW010 SCT018 FEW030CB OVC080 28/25 Q1003 NOSIG=
202507051600 METAR VABB 051600Z 25010G20KT 2200 BR FEW010 SCT018 FEW025TCU OVC080 27/25 Q1003 TEMPO 1500 SHRA=
202507051630 METAR VABB 051630Z 23011KT 2200 BR FEW010 SCT018 FEW025TCU OVC080 28/25 Q1004 TEMPO 1500 SHRA=
202507051700 METAR VABB 051700Z 25013KT 2200 BR FEW010 SCT018 FEW025TCU OVC080 28/25 Q1004 NOSIG=
202507051730 METAR VABB 051730Z 25014KT 2200 BR SCT018 FEW025TCU OVC090 28/25 Q1004 NOSIG=
202507051800 METAR VABB 051800Z 24011KT 2200 BR SCT018 FEW025TCU OVC090 28/25 Q1003 NOSIG=
202507051830 METAR VABB 051830Z 25014KT 2200 -RA FEW012 SCT018 FEW025TCU OVC090 28/26 Q1003 NOSIG=
202507051900 METAR VABB 051900Z 23013KT 2200 DZ FEW012 SCT018 FEW025TCU OVC090 28/26 Q1003 NOSIG=
202507051930 METAR VABB 051930Z 24013KT 2200 BR SCT018 FEW025TCU OVC090 28/26 Q1003 NOSIG=
202507052000 METAR VABB 052000Z 26015G25KT 2200 -RA FEW012 SCT018 FEW025TCU OVC090 28/25 Q1003 NOSIG=
202507052030 METAR VABB 052030Z 25013KT 2200 BR FEW012 SCT018 FEW025TCU OVC090 28/26 Q1002 NOSIG=
202507052100 METAR VABB 052100Z 24013KT 2200 -SHRA FEW012 SCT018 FEW025TCU OVC090 29/25 Q1002 NOSIG=
202507052130 METAR VABB 052130Z 24016KT 2200 BR FEW012 SCT018 FEW025TCU OVC090 28/25 Q1002 NOSIG=
202507052200 METAR VABB 052200Z 24013KT 2200 BR FEW012 SCT018 FEW025TCU OVC090 28/25 Q1002 NOSIG=
202507052230 METAR VABB 052230Z 23013KT 2200 -SHRA FEW012 SCT018 FEW025TCU OVC090 28/25 Q1002 TEMPO 1500 SHRA=
202507052300 METAR VABB 052300Z 26011KT 2500 BR FEW012 SCT018 FEW025TCU OVC090 26/25 Q1002 TEMPO 1500 SHRA=
202507052330 METAR VABB 052330Z 26011KT 2500 -RA FEW012 SCT018 FEW025TCU OVC090 26/25 Q1002 TEMPO 1500 SHRA=
202507060000 METAR VABB 060000Z 26011KT 2500 BR FEW012 SCT018 FEW025TCU OVC090 27/25 Q1002 TEMPO 1500 SHRA=
202507060030 METAR VABB 060030Z 24013KT 2500 -RA FEW012 SCT018 FEW025TCU OVC090 27/26 Q1002 TEMPO 1500 SHRA=
202507060100 METAR VABB 060100Z 24013KT 2500 SHRA FEW010 SCT016 FEW025TCU OVC090 28/25 Q1002 TEMPO 1500 SHRA=
202507060130 METAR VABB 060130Z 23013KT 2500 BR FEW010 SCT016 FEW025TCU OVC090 28/25 Q1002 TEMPO 1500 SHRA=
202507060200 METAR VABB 060200Z 23012KT 2500 -RA FEW010 SCT016 FEW030CB OVC090 28/25 Q1002 TEMPO 1500 SHRA=
202507060235 METAR VABB 060235Z 24012KT 2500 -RA FEW010 SCT016 FEW030CB OVC090 26/25 Q1003 TEMPO 1500 SHRA=
202507060300 METAR VABB 060300Z 23010KT 2500 -RA FEW010 SCT018 FEW030CB OVC090 27/26 Q1003 TEMPO 1500 SHRA=
202507060330 METAR VABB 060330Z 23015KT 2500 -RA FEW012 SCT018 FEW030CB OVC090 27/26 Q1003 TEMPO 1500 SHRA=
202507060400 METAR VABB 060400Z 25015KT 2500 BR FEW012 SCT018 FEW030CB OVC090 28/25 Q1003 TEMPO 1500 SHRA=
202507060430 METAR VABB 060430Z 24016KT 2500 BR FEW012 SCT018 FEW030CB OVC090 28/25 Q1004 NOSIG=
202507060500 METAR VABB 060500Z 24015KT 2500 BR FEW012 SCT018 FEW030CB OVC090 29/25 Q1004 NOSIG=
202507060530 METAR VABB 060530Z 24012KT 2500 BR FEW012 SCT018 FEW030CB OVC090 29/26 Q1004 NOSIG=
202507060600 METAR VABB 060600Z 24015KT 2500 -RA FEW012 SCT018 FEW030CB OVC090 29/26 Q1004 TEMPO 1500 SHRA=
202507060630 METAR VABB 060630Z 25015KT 2500 BR FEW012 SCT018 FEW030CB OVC090 29/26 Q1003 NOSIG=
202507060700 METAR VABB 060700Z 24016KT 2500 BR FEW012 SCT018 FEW025TCU OVC090 29/25 Q1003 NOSIG=
202507060730 METAR VABB 060730Z 24017KT 2500 BR FEW010 SCT018 FEW025TCU OVC090 29/26 Q1003 TEMPO 1500 SHRA=
202507060800 METAR VABB 060800Z 25015KT 2500 BR FEW012 SCT018 FEW025TCU OVC090 30/25 Q1003 NOSIG=
202507060830 METAR VABB 060830Z 24019KT 2500 -DZ FEW010 SCT018 FEW025TCU OVC090 30/25 Q1003 TEMPO 1500 SHRA=
202507060900 METAR VABB 060900Z 25013G23KT 2500 BR FEW012 SCT018 FEW030CB OVC090 30/25 Q1002 NOSIG=
202507060930 METAR VABB 060930Z 25013G23KT 2500 BR FEW012 SCT018 FEW030CB OVC090 30/25 Q1002 TEMPO 1500 SHRA=
202507061000 METAR VABB 061000Z 24014G24KT 2500 BR FEW012 SCT018 FEW030CB OVC090 30/25 Q1002 TEMPO 1500 SHRA=
202507061030 METAR VABB 061030Z 24014KT 2500 BR FEW012 SCT018 FEW030CB OVC090 30/25 Q1002 TEMPO 1500 SHRA=
202507061100 METAR VABB 061100Z 24013G23KT 2200 VCSH FEW012 SCT018 FEW030CB OVC090 26/25 Q1002 TEMPO 1500 SHRA=
202507061130 METAR VABB 061130Z 25013KT 1800 -RA FEW012 SCT018 FEW030CB OVC090 27/26 Q1001 TEMPO 1500 SHRA=
202507061200 METAR VABB 061200Z 28015KT 0800 R27/1000 +RA SCT012 SCT018 FEW025TCU OVC080 26/25 Q1001 TEMPO 0600 +SHRA=
202507061230 METAR VABB 061230Z 25010KT 2100 -RA SCT012 SCT018 FEW025TCU OVC080 27/26 Q1002 TEMPO 1500 +SHRA=
202507061300 METAR VABB 061300Z 24011KT 2100 -DZ SCT012 SCT018 FEW025TCU OVC080 28/26 Q1002 TEMPO 1500 +SHRA=
202507061330 METAR VABB 061330Z 25013KT 2100 BR SCT012 SCT018 FEW025TCU OVC080 28/26 Q1002 TEMPO 1500 SHRA=
202507061400 METAR VABB 061400Z 25013KT 2500 BR FEW012 SCT018 FEW025TCU OVC080 28/26 Q1002 TEMPO 1500 SHRA=
202507061430 METAR VABB 061430Z 25013KT 2500 BR FEW012 SCT018 FEW025TCU OVC090 28/26 Q1003 NOSIG=
202507061500 METAR VABB 061500Z 24009G19KT 2500 BR FEW012 SCT018 FEW025TCU BKN090 28/26 Q1003 NOSIG=
202507061530 METAR VABB 061530Z 25008G18KT 2500 BR FEW012 SCT018 FEW025TCU BKN090 29/26 Q1003 NOSIG=
202507061600 METAR VABB 061600Z 25013KT 2500 BR FEW012 SCT018 FEW025TCU BKN090 29/26 Q1003 NOSIG=
202507061630 METAR VABB 061630Z 24011KT 2500 BR FEW012 SCT018 FEW025TCU BKN090 28/26 Q1004 NOSIG=
202507061700 METAR VABB 061700Z 23011KT 2500 -SHRA FEW012 SCT018 FEW025TCU BKN090 28/26 Q1004 NOSIG=
202507061730 METAR VABB 061730Z 26012KT 2500 BR SCT018 FEW025TCU BKN090 28/26 Q1004 NOSIG=
202507061800 METAR VABB 061800Z 25012KT 2500 BR SCT018 FEW025TCU BKN090 28/26 Q1004 NOSIG=
202507061830 METAR VABB 061830Z 26010G20KT 2500 BR SCT018 FEW025TCU BKN090 29/26 Q1003 NOSIG=
202507061900 METAR VABB 061900Z 25010G20KT 2500 BR SCT018 FEW025TCU BKN090 28/26 Q1003 NOSIG=
202507061930 METAR VABB 061930Z 26008G18KT 2500 BR SCT018 FEW025TCU BKN090 28/26 Q1003 NOSIG=
202507062000 METAR VABB 062000Z 24016KT 2500 BR SCT018 FEW025TCU BKN090 28/25 Q1003 NOSIG=
202507062030 METAR VABB 062030Z 26011G21KT 2500 -SHRA SCT018 FEW025TCU BKN090 28/26 Q1002 NOSIG=
202507062100 METAR VABB 062100Z 25015KT 2500 BR SCT018 FEW025TCU BKN090 28/26 Q1002 NOSIG=
202507062130 METAR VABB 062130Z 25014KT 2500 BR SCT018 FEW025TCU BKN090 28/25 Q1002 NOSIG=
202507062200 METAR VABB 062200Z 24012KT 2500 BR SCT018 FEW025TCU BKN090 28/25 Q1002 NOSIG=
202507062230 METAR VABB 062230Z 24013KT 2500 BR SCT018 FEW025TCU BKN090 28/25 Q1002 NOSIG=
202507062300 METAR VABB 062300Z 24009G19KT 2500 BR SCT018 FEW025TCU BKN090 28/25 Q1002 NOSIG=
202507062330 METAR VABB 062330Z 24012G22KT 2500 BR SCT018 FEW030CB BKN090 28/25 Q1002 NOSIG=
202507070000 METAR VABB 070000Z 23009G19KT 2500 BR SCT018 FEW025TCU BKN090 28/25 Q1002 NOSIG=
202507070030 METAR VABB 070030Z 23008KT 2500 -SHRA FEW012 SCT018 FEW025TCU OVC080 28/26 Q1002 TEMPO 1500 SHRA=
202507070100 METAR VABB 070100Z 24010KT 2500 -SHRA FEW012 SCT018 FEW030CB OVC080 28/25 Q1003 TEMPO 1500 SHRA=
202507070130 METAR VABB 070130Z 24007G17KT 2500 -DZ FEW012 SCT018 FEW030CB OVC080 28/25 Q1003 NOSIG=
202507070200 METAR VABB 070200Z 24012KT 2500 BR FEW012 SCT018 FEW030CB OVC080 28/24 Q1003 NOSIG=
202507070230 METAR VABB 070230Z 25011KT 2500 BR FEW012 SCT018 FEW025TCU OVC080 29/25 Q1004 NOSIG=
202507070300 METAR VABB 070300Z 26013G23KT 2500 VCSH FEW012 SCT018 FEW025TCU OVC080 29/25 Q1004 TEMPO 1500 SHRA=
202507070330 METAR VABB 070330Z 22016G26KT 2500 BR FEW012 SCT018 FEW025TCU OVC080 29/25 Q1004 NOSIG=
202507070400 METAR VABB 070400Z 24012G22KT 2500 BR FEW012 SCT018 FEW025TCU BKN090 29/25 Q1004 BECMG 3000 BR=
202507070430 METAR VABB 070430Z 24011G21KT 3000 BR SCT018 FEW025TCU OVC090 29/25 Q1004 NOSIG=
202507070500 METAR VABB 070500Z 25013KT 3000 BR SCT018 FEW025TCU OVC090 29/26 Q1004 NOSIG=
202507070530 METAR VABB 070530Z 24013KT 3000 BR SCT018 FEW025TCU OVC090 29/26 Q1004 NOSIG=
202507070600 METAR VABB 070600Z 25013G23KT 3000 BR SCT018 FEW025TCU OVC090 30/25 Q1004 NOSIG=
202507070630 METAR VABB 070630Z 24011G21KT 3000 BR SCT018 FEW025TCU OVC090 30/26 Q1004 TEMPO 1500 SHRA=
202507070700 METAR VABB 070700Z 24012KT 3000 BR SCT018 FEW025TCU OVC090 29/26 Q1004 TEMPO 1500 SHRA=
202507070730 METAR VABB 070730Z 24011G21KT 3000 BR SCT018 FEW025TCU OVC090 29/26 Q1004 NOSIG=
202507070800 METAR VABB 070800Z 24010G20KT 3000 -DZ FEW012 SCT018 FEW025TCU OVC090 30/26 Q1004 NOSIG=
202507070830 METAR VABB 070830Z 24015G25KT 3000 VCSH FEW012 SCT018 FEW025TCU OVC090 29/26 Q1004 NOSIG=
202507070900 METAR VABB 070900Z 23009KT 3000 -RA FEW012 SCT018 FEW025TCU OVC090 29/26 Q1004 NOSIG=
202507070930 METAR VABB 070930Z 23009KT 3000 VCSH FEW012 SCT018 FEW025TCU OVC090 29/26 Q1003 TEMPO 1500 SHRA=
202507071000 METAR VABB 071000Z 24012KT 3000 VCSH FEW012 SCT018 FEW025TCU OVC090 29/26 Q1003 NOSIG=
202507071030 METAR VABB 071030Z 25011KT 3000 BR FEW012 SCT018 FEW025TCU OVC090 29/25 Q1003 NOSIG=
202507071100 METAR VABB 071100Z 23013KT 3000 VCSH SCT018 FEW025TCU OVC090 29/25 Q1003 NOSIG=
202507071130 METAR VABB 071130Z 23013KT 3000 BR SCT018 FEW025TCU OVC090 29/25 Q1003 NOSIG=
202507071200 METAR VABB 071200Z 22012KT 3000 BR SCT018 FEW025TCU OVC090 29/25 Q1003 NOSIG=
202507071230 METAR VABB 071230Z 23011KT 3000 BR SCT018 FEW025TCU OVC090 29/25 Q1003 NOSIG=
202507071300 METAR VABB 071300Z 23010KT 3000 BR SCT018 FEW025TCU OVC090 29/25 Q1003 NOSIG=
202507071330 METAR VABB 071330Z 22013KT 3000 BR SCT018 FEW025TCU OVC090 29/25 Q1003 NOSIG=
202507071400 METAR VABB 071400Z 24012KT 3000 BR SCT018 FEW025TCU OVC090 28/26 Q1004 NOSIG=
202507071430 METAR VABB 071430Z 22011KT 3000 BR SCT018 FEW025TCU OVC090 28/26 Q1004 NOSIG=
202507071500 METAR VABB 071500Z 23010KT 3000 BR SCT018 FEW025TCU OVC090 28/26 Q1004 NOSIG=
202507071530 METAR VABB 071530Z 23007G17KT 3000 BR SCT018 FEW025TCU OVC090 28/26 Q1005 NOSIG=
202507071600 METAR VABB 071600Z 23014G24KT 3000 BR SCT018 FEW025TCU BKN090 28/25 Q1005 NOSIG=
202507071630 METAR VABB 071630Z 24007G17KT 3000 BR SCT018 FEW025TCU BKN090 28/26 Q1005 NOSIG=
202507071700 METAR VABB 071700Z 23009G19KT 3000 BR SCT018 FEW025TCU BKN090 28/26 Q1005 NOSIG=
202507071730 METAR VABB 071730Z 23011G21KT 3000 BR SCT018 FEW025TCU BKN090 28/25 Q1005 NOSIG=
202507071800 METAR VABB 071800Z 24007G17KT 3000 BR SCT018 FEW025TCU BKN090 28/26 Q1005 NOSIG=
202507071830 METAR VABB 071830Z 24009G19KT 3000 BR SCT018 FEW025TCU BKN090 28/25 Q1005 NOSIG=
202507071900 METAR VABB 071900Z 23011G21KT 3000 BR SCT018 FEW025TCU BKN090 28/25 Q1004 TEMPO 1500 SHRA=
202507071930 METAR VABB 071930Z 23012G22KT 3000 BR SCT018 FEW025TCU BKN090 28/25 Q1004 NOSIG=
202507072000 METAR VABB 072000Z 24011G23KT 3000 BR SCT018 FEW025TCU BKN090 28/25 Q1004 NOSIG=
202507072030 METAR VABB 072030Z 23010KT 3000 BR SCT018 FEW025TCU BKN090 28/25 Q1003 NOSIG=
202507072100 METAR VABB 072100Z 23010KT 3000 BR SCT018 FEW025TCU BKN090 28/26 Q1003 NOSIG=
202507072130 METAR VABB 072130Z 24010KT 3000 BR SCT018 FEW025TCU BKN090 28/26 Q1003 NOSIG=
202507072200 METAR VABB 072200Z 23009KT 3000 BR SCT018 SCT025 BKN090 28/25 Q1003 NOSIG=
202507072230 METAR VABB 072230Z 23009KT 3000 BR SCT018 SCT025 BKN090 28/26 Q1003 NOSIG=
202507072300 METAR VABB 072300Z 24008G18KT 3000 BR SCT018 SCT025 BKN090 28/26 Q1003 NOSIG=
202507072330 METAR VABB 072330Z 24008G18KT 3000 BR SCT018 SCT025 BKN090 28/25 Q1003 NOSIG=
202507080000 METAR VABB 080000Z 24009KT 3000 BR SCT018 SCT025 BKN090 28/25 Q1003 NOSIG=
202507080030 METAR VABB 080030Z 24008G18KT 3000 BR SCT018 SCT025 BKN090 28/25 Q1003 NOSIG=
202507080100 METAR VABB 080100Z 24011KT 3000 BR SCT018 SCT025 BKN090 28/25 Q1004 NOSIG=
202507080130 METAR VABB 080130Z 24010KT 3000 BR SCT018 SCT025 BKN090 28/26 Q1004 NOSIG=
202507080200 METAR VABB 080200Z 23010KT 3000 BR FEW010 SCT018 FEW025TCU BKN090 28/25 Q1004 NOSIG=
202507080230 METAR VABB 080230Z 24007G17KT 3000 BR SCT018 SCT025 BKN090 29/26 Q1005 NOSIG=
202507080300 METAR VABB 080300Z 23011G22KT 3000 BR SCT018 SCT025 BKN090 29/25 Q1005 NOSIG=
202507080330 METAR VABB 080330Z 23012KT 3000 BR SCT018 SCT025 BKN090 29/26 Q1005 NOSIG=
202507080400 METAR VABB 080400Z 23014KT 3000 BR SCT018 SCT025 BKN090 29/26 Q1005 NOSIG=
202507080430 METAR VABB 080430Z 23013G23KT 3000 BR SCT018 SCT025 BKN090 30/26 Q1005 NOSIG=
202507080500 METAR VABB 080500Z 24012G22KT 3000 BR SCT018 SCT025 BKN090 30/26 Q1005 NOSIG=
202507080530 METAR VABB 080530Z 23012G22KT 3000 BR SCT018 FEW025TCU BKN090 30/26 Q1005 NOSIG=
202507080600 METAR VABB 080600Z 23011G21KT 3000 BR SCT018 FEW025TCU BKN090 29/26 Q1005 NOSIG=
202507080630 METAR VABB 080630Z 23013G23KT 3000 BR SCT018 FEW025TCU BKN090 30/26 Q1005 NOSIG=
202507080700 METAR VABB 080700Z 23013KT 3000 BR SCT018 FEW025TCU BKN090 30/26 Q1005 NOSIG=
202507080730 METAR VABB 080730Z 23015G26KT 3000 VCSH SCT018 FEW025TCU BKN090 30/26 Q1005 NOSIG=
202507080800 METAR VABB 080800Z 24013KT 3000 BR SCT018 FEW025TCU BKN090 30/26 Q1005 NOSIG=
202507080830 METAR VABB 080830Z 24015KT 3000 BR SCT018 FEW025TCU BKN090 30/26 Q1004 NOSIG=
202507080900 METAR VABB 080900Z 25012G22KT 3000 HZ SCT018 FEW025TCU BKN090 30/26 Q1004 NOSIG=
202507080930 METAR VABB 080930Z 25010G20KT 3000 HZ SCT018 FEW025TCU BKN090 30/26 Q1004 NOSIG=
202507081000 METAR VABB 081000Z 24009G19KT 3000 HZ SCT018 FEW025TCU BKN090 30/26 Q1004 NOSIG=
202507081030 METAR VABB 081030Z 24014G24KT 3000 HZ SCT018 FEW025TCU BKN090 29/26 Q1003 NOSIG=
202507081100 METAR VABB 081100Z 24011G21KT 3000 HZ SCT018 FEW025TCU BKN090 29/26 Q1003 NOSIG=
202507081130 METAR VABB 081130Z 24011G21KT 3000 HZ SCT018 FEW025TCU BKN090 29/26 Q1003 NOSIG=
202507081200 METAR VABB 081200Z 25009G19KT 3000 HZ SCT018 FEW025TCU BKN090 29/26 Q1003 NOSIG=
202507081230 METAR VABB 081230Z 24014KT 3000 HZ SCT018 SCT025 BKN090 29/25 Q1004 NOSIG=
202507081300 METAR VABB 081300Z 24008G18KT 3000 HZ SCT018 SCT025 BKN090 29/25 Q1004 NOSIG=
202507081330 METAR VABB 081330Z 23012KT 3000 HZ SCT018 SCT025 BKN090 29/25 Q1004 NOSIG=
202507081400 METAR VABB 081400Z 24009KT 3000 HZ SCT018 SCT025 BKN090 29/25 Q1004 NOSIG=
202507081430 METAR VABB 081430Z 24007G17KT 3000 HZ SCT018 SCT025 BKN090 29/26 Q1005 NOSIG=
202507081500 METAR VABB 081500Z 23009KT 3000 BR SCT018 SCT025 BKN090 29/26 Q1005 NOSIG=
202507081530 METAR VABB 081530Z 24010KT 3000 BR SCT018 SCT025 BKN090 29/26 Q1005 NOSIG=
202507081600 METAR VABB 081600Z 24009KT 3000 BR SCT018 SCT025 BKN090 29/25 Q1005 NOSIG=
202507081630 METAR VABB 081630Z 23009G19KT 3000 VCSH SCT018 SCT025 BKN090 29/26 Q1005 NOSIG=
202507081700 METAR VABB 081700Z 24010KT 3000 BR SCT018 SCT025 BKN090 29/25 Q1005 NOSIG=
202507081730 METAR VABB 081730Z 24009KT 3000 BR SCT018 SCT025 BKN090 29/26 Q1005 NOSIG=
202507081800 METAR VABB 081800Z 24011G21KT 3000 BR SCT018 SCT025 BKN090 29/25 Q1005 NOSIG=
202507081830 METAR VABB 081830Z 23010KT 3000 BR SCT018 SCT025 BKN090 28/26 Q1005 NOSIG=
202507081900 METAR VABB 081900Z 24010KT 3000 BR SCT018 SCT025 BKN090 28/26 Q1005 NOSIG=
202507081930 METAR VABB 081930Z 24010KT 3000 BR SCT018 SCT025 BKN090 28/25 Q1004 NOSIG=
202507082000 METAR VABB 082000Z 23010G20KT 3000 BR SCT018 SCT025 BKN090 28/25 Q1004 NOSIG=
202507082030 METAR VABB 082030Z 24012KT 3000 BR SCT018 SCT025 BKN090 28/25 Q1004 NOSIG=
202507082100 METAR VABB 082100Z 24008G18KT 3000 VCSH SCT018 SCT025 BKN090 28/25 Q1004 NOSIG=
202507082130 METAR VABB 082130Z 24011KT 3000 BR SCT018 SCT025 BKN090 28/25 Q1004 NOSIG=
202507082200 METAR VABB 082200Z 23011KT 3000 VCSH SCT018 SCT025 BKN090 28/25 Q1003 NOSIG=
202507082230 METAR VABB 082230Z 23009KT 3000 BR SCT018 SCT025 BKN090 28/25 Q1003 NOSIG=
202507082300 METAR VABB 082300Z 24011G21KT 3000 -RA FEW012 SCT018 FEW025TCU BKN090 28/25 Q1003 NOSIG=
202507082330 METAR VABB 082330Z 24008G18KT 3000 BR FEW012 SCT018 FEW025TCU BKN090 28/26 Q1003 NOSIG=
202507090000 METAR VABB 090000Z 24008G18KT 2500 -SHRA FEW012 SCT018 FEW025TCU BKN090 28/26 Q1003 NOSIG=
202507090030 METAR VABB 090030Z 24012KT 2500 BR SCT018 FEW025TCU BKN090 28/25 Q1003 NOSIG=
202507090100 METAR VABB 090100Z 24012KT 2500 BR SCT018 FEW025TCU BKN090 28/25 Q1004 BECMG 3000 BR=
202507090130 METAR VABB 090130Z 24010KT 2500 -RA FEW012 SCT018 FEW025TCU BKN090 28/26 Q1004 NOSIG=
202507090200 METAR VABB 090200Z 25010G20KT 3000 VCSH SCT018 FEW025TCU BKN090 28/26 Q1004 NOSIG=
202507090230 METAR VABB 090230Z 25013KT 3000 BR SCT018 FEW025TCU BKN090 29/26 Q1004 NOSIG=
202507090300 METAR VABB 090300Z 25007G17KT 3000 BR SCT018 FEW025TCU BKN090 29/26 Q1005 NOSIG=
202507090330 METAR VABB 090330Z 24007G17KT 3000 BR SCT018 FEW025TCU BKN090 29/26 Q1005 NOSIG=
202507090400 METAR VABB 090400Z 25008G18KT 3000 BR SCT018 FEW030CB BKN090 29/26 Q1005 NOSIG=
202507090430 METAR VABB 090430Z 27013G23KT 3000 BR SCT018 FEW030CB BKN090 28/26 Q1005 NOSIG=
202507090500 METAR VABB 090500Z 25010G20KT 3000 BR SCT018 FEW030CB BKN090 28/25 Q1005 TEMPO 1500 SHRA=
202507090530 METAR VABB 090530Z 24009G19KT 2200 -RA FEW010 SCT018 FEW030CB OVC080 27/25 Q1006 TEMPO 1500 SHRA=
202507090600 METAR VABB 090600Z 27007G17KT 2100 -RA FEW010 SCT018 FEW030CB OVC080 26/25 Q1005 TEMPO 1500 SHRA=
202507090630 METAR VABB 090630Z 24008KT 2500 BR SCT018 FEW030CB BKN090 28/26 Q1005 NOSIG=
202507090700 METAR VABB 090700Z 26007G17KT 2500 BR SCT018 FEW030CB BKN090 28/26 Q1005 NOSIG=
202507090730 METAR VABB 090730Z 25007G17KT 2500 BR SCT018 FEW025TCU BKN090 29/26 Q1005 NOSIG=
202507090800 METAR VABB 090800Z 25011KT 2500 BR SCT018 FEW025TCU BKN090 29/26 Q1005 NOSIG=
202507090830 METAR VABB 090830Z 26010KT 2500 BR SCT018 FEW025TCU BKN090 29/26 Q1005 BECMG 1500 SHRA=
202507090900 METAR VABB 090900Z 26013KT 2500 BR SCT018 FEW025TCU BKN090 29/26 Q1004 TEMPO 1500 SHRA=
202507090930 METAR VABB 090930Z 25011KT 2500 BR SCT018 FEW025TCU BKN090 29/26 Q1004 NOSIG=
202507091000 METAR VABB 091000Z 25012KT 2500 BR SCT018 FEW025TCU BKN090 29/26 Q1004 NOSIG=
202507091030 METAR VABB 091030Z 26011KT 2500 BR SCT018 FEW025TCU BKN090 29/26 Q1004 NOSIG=
202507091100 METAR VABB 091100Z 25009G19KT 2500 BR SCT018 FEW025TCU BKN090 29/25 Q1004 NOSIG=
202507091130 METAR VABB 091130Z 25008G18KT 2500 BR SCT018 FEW025TCU BKN090 29/26 Q1004 NOSIG=
202507091200 METAR VABB 091200Z 25009G19KT 2500 BR SCT018 FEW025TCU BKN090 29/26 Q1004 NOSIG=
202507091230 METAR VABB 091230Z 25012KT 2500 VCSH FEW012 SCT018 FEW025TCU BKN090 29/26 Q1004 TEMPO 1500 SHRA=
202507091300 METAR VABB 091300Z 25011KT 2500 BR FEW012 SCT018 FEW025TCU BKN090 29/26 Q1004 NOSIG=
202507091330 METAR VABB 091330Z 24011KT 2500 BR SCT018 FEW025TCU BKN090 29/26 Q1004 NOSIG=
202507091400 METAR VABB 091400Z 26009KT 2500 BR SCT018 FEW025TCU BKN090 28/26 Q1004 NOSIG=
202507091430 METAR VABB 091430Z 25010KT 2500 BR SCT018 FEW025TCU BKN090 28/26 Q1005 NOSIG=
202507091500 METAR VABB 091500Z 24010KT 2500 BR SCT018 FEW025TCU BKN090 28/26 Q1005 NOSIG=
202507091530 METAR VABB 091530Z 24009KT 2500 BR SCT018 FEW025TCU BKN090 28/26 Q1005 NOSIG=
202507091600 METAR VABB 091600Z 24009G19KT 2500 BR SCT018 FEW025TCU BKN090 28/26 Q1005 NOSIG=
202507091630 METAR VABB 091630Z 24010KT 2500 BR SCT018 FEW025TCU BKN090 28/26 Q1005 NOSIG=
202507091700 METAR VABB 091700Z 23011KT 2500 -SHRA SCT018 FEW025TCU BKN090 28/26 Q1005 NOSIG=
202507091730 METAR VABB 091730Z 24009KT 2500 BR SCT018 FEW025TCU BKN090 28/26 Q1005 NOSIG=
202507091800 METAR VABB 091800Z 25008KT 2500 BR SCT018 FEW025TCU BKN090 28/26 Q1005 NOSIG=
202507091830 METAR VABB 091830Z 23011KT 2500 BR SCT018 SCT025 BKN090 28/26 Q1005 NOSIG=
202507091900 METAR VABB 091900Z 25010KT 2500 BR SCT018 SCT025 BKN090 28/26 Q1005 NOSIG=
202507091930 METAR VABB 091930Z 24010KT 2500 BR SCT018 SCT025 BKN090 28/26 Q1005 NOSIG=
202507092000 METAR VABB 092000Z 25011KT 2500 BR SCT018 SCT025 BKN090 28/25 Q1005 NOSIG=
202507092030 METAR VABB 092030Z 24008KT 2500 DZ SCT018 SCT025 BKN090 28/26 Q1005 NOSIG=
202507092100 METAR VABB 092100Z 24010KT 2500 BR SCT018 SCT025 BKN090 28/25 Q1004 NOSIG=
202507092130 METAR VABB 092130Z 25009KT 2500 BR SCT018 SCT025 BKN090 28/25 Q1004 NOSIG=
202507092200 METAR VABB 092200Z 25006KT 2500 BR SCT018 FEW025TCU BKN090 28/25 Q1004 NOSIG=
202507092230 METAR VABB 092230Z 25008KT 2500 BR SCT018 FEW025TCU BKN090 28/25 Q1004 NOSIG=
202507092300 METAR VABB 092300Z 25009KT 2500 BR SCT018 SCT025 BKN090 28/25 Q1004 NOSIG=
202507092330 METAR VABB 092330Z 25009KT 2500 BR SCT018 SCT025 BKN090 28/26 Q1004 NOSIG=
202507100000 METAR VABB 100000Z 25008KT 2500 BR SCT018 SCT025 BKN090 28/26 Q1004 NOSIG=
202507100030 METAR VABB 100030Z 25009KT 2500 BR SCT018 SCT025 BKN090 28/25 Q1004 NOSIG=
202507100100 METAR VABB 100100Z 25008KT 2500 BR SCT018 SCT025 BKN090 28/25 Q1005 BECMG 3000 BR=
202507100130 METAR VABB 100130Z 23008KT 3000 BR SCT018 SCT025 BKN090 28/25 Q1005 NOSIG=
202507100200 METAR VABB 100200Z 24008KT 3000 BR SCT018 SCT025 BKN100 29/26 Q1005 NOSIG=
202507100230 METAR VABB 100230Z 25008KT 3000 BR SCT018 SCT025 BKN100 29/25 Q1005 NOSIG=
202507100300 METAR VABB 100300Z 24011KT 3000 BR SCT018 SCT025 BKN100 29/26 Q1005 NOSIG=
202507100330 METAR VABB 100330Z 25014KT 3000 BR SCT018 SCT025 BKN100 29/25 Q1005 NOSIG=
202507100400 METAR VABB 100400Z 26011KT 3000 BR SCT018 SCT025 BKN100 29/25 Q1006 NOSIG=
202507100430 METAR VABB 100430Z 23012KT 3000 HZ FEW020 SCT025 BKN100 30/25 Q1006 NOSIG=
202507100500 METAR VABB 100500Z 23013KT 3000 HZ FEW020 SCT025 BKN100 30/25 Q1006 NOSIG=
202507100530 METAR VABB 100530Z 23013KT 3000 HZ FEW020 SCT025 BKN100 30/26 Q1006 NOSIG=
202507100600 METAR VABB 100600Z 24012KT 4000 HZ FEW020 SCT025 BKN100 30/25 Q1006 NOSIG=
202507100630 METAR VABB 100630Z 24012KT 4000 HZ FEW020 SCT025 BKN100 30/26 Q1006 NOSIG=
202507100700 METAR VABB 100700Z 24013KT 4000 HZ FEW020 SCT025 BKN100 30/26 Q1006 NOSIG=
202507100730 METAR VABB 100730Z 24014KT 4000 HZ FEW020 SCT025 BKN100 31/25 Q1006 NOSIG=
202507100800 METAR VABB 100800Z 24011G21KT 4000 HZ FEW020 SCT025 BKN100 30/26 Q1005 NOSIG=
202507100830 METAR VABB 100830Z 24011KT 4000 HZ FEW020 SCT025 BKN100 30/26 Q1005 NOSIG=
202507100900 METAR VABB 100900Z 25012G22KT 4000 HZ FEW020 SCT025 BKN100 30/26 Q1005 NOSIG=
202507100930 METAR VABB 100930Z 23012KT 4000 HZ FEW020 SCT025 BKN100 30/25 Q1004 NOSIG=
202507101000 METAR VABB 101000Z 24010KT 4000 HZ FEW020 SCT025 BKN100 30/26 Q1004 NOSIG=
202507101030 METAR VABB 101030Z 25011KT 4000 HZ FEW020 SCT025 BKN100 30/25 Q1004 NOSIG=
202507101100 METAR VABB 101100Z 25014KT 3000 HZ SCT018 SCT025 BKN100 30/25 Q1003 NOSIG=
202507101130 METAR VABB 101130Z 24013G23KT 3000 HZ SCT018 SCT025 BKN100 30/25 Q1003 NOSIG=
202507101200 METAR VABB 101200Z 25013KT 3000 HZ SCT018 SCT025 BKN100 30/25 Q1003 NOSIG=
202507101230 METAR VABB 101230Z 24013KT 3000 HZ SCT018 SCT025 BKN100 29/26 Q1004 NOSIG=
202507101300 METAR VABB 101300Z 24012KT 3000 HZ SCT018 SCT025 BKN100 29/25 Q1004 NOSIG=
202507101330 METAR VABB 101330Z 24010G20KT 3000 HZ SCT018 SCT025 BKN100 29/25 Q1004 NOSIG=
202507101400 METAR VABB 101400Z 24010KT 3000 BR SCT018 SCT025 BKN100 29/26 Q1004 NOSIG=
202507101430 METAR VABB 101430Z 24010KT 3000 -DZ SCT018 SCT025 BKN100 29/26 Q1004 NOSIG=
202507101500 METAR VABB 101500Z 24007G17KT 3000 BR SCT018 SCT025 BKN100 28/25 Q1005 NOSIG=
202507101530 METAR VABB 101530Z 23006KT 3000 BR SCT018 SCT025 BKN100 28/25 Q1005 NOSIG=
202507101600 METAR VABB 101600Z 23006KT 3000 BR SCT018 SCT025 BKN100 28/26 Q1005 NOSIG=
202507101630 METAR VABB 101630Z 24008G18KT 2500 DZ FEW012 SCT018 FEW025TCU BKN100 27/26 Q1005 NOSIG=
202507101700 METAR VABB 101700Z 25008KT 2500 BR FEW012 SCT018 FEW025TCU BKN100 28/26 Q1005 NOSIG=
202507101730 METAR VABB 101730Z 24009KT 2500 BR SCT018 FEW025TCU BKN100 28/26 Q1005 NOSIG=
202507101800 METAR VABB 101800Z 24006KT 2500 BR SCT018 FEW025TCU BKN100 28/26 Q1005 NOSIG=
202507101830 METAR VABB 101830Z 24009KT 2500 BR SCT018 FEW025TCU BKN100 28/26 Q1005 NOSIG=
202507101900 METAR VABB 101900Z 24008KT 2500 BR SCT018 FEW025TCU BKN100 28/26 Q1005 NOSIG=
202507101930 METAR VABB 101930Z 23014KT 2500 -SHRA FEW012 SCT018 FEW025TCU BKN100 28/26 Q1005 NOSIG=
202507102000 METAR VABB 102000Z 23008KT 2100 DZ SCT018 FEW025TCU BKN100 27/26 Q1004 NOSIG=
202507102030 METAR VABB 102030Z 24009KT 2100 BR SCT018 FEW025TCU BKN100 28/26 Q1004 NOSIG=
202507102100 METAR VABB 102100Z 23007KT 2100 BR SCT018 FEW025TCU BKN100 28/26 Q1004 NOSIG=
202507102130 METAR VABB 102130Z 26010KT 2100 BR SCT018 FEW025TCU BKN100 28/26 Q1004 NOSIG=
202507102200 METAR VABB 102200Z 25008KT 2500 BR SCT018 FEW025TCU BKN100 28/26 Q1004 NOSIG=
202507102230 METAR VABB 102230Z 23007KT 2500 BR SCT018 FEW025TCU BKN100 28/26 Q1004 NOSIG=
202507102300 METAR VABB 102300Z 25009KT 2500 BR SCT018 FEW025TCU BKN100 28/26 Q1004 NOSIG=
202507102330 METAR VABB 102330Z 25008KT 2500 BR SCT018 FEW025TCU BKN100 28/25 Q1004 NOSIG=
202507110000 METAR VABB 110000Z 24011KT 2500 BR SCT018 FEW025TCU BKN100 28/26 Q1004 NOSIG=
202507110030 METAR VABB 110030Z 24007KT 2500 BR SCT018 FEW025TCU BKN100 28/26 Q1004 NOSIG=
202507110100 METAR VABB 110100Z 24010KT 2500 BR SCT018 FEW025TCU BKN100 28/24 Q1004 BECMG 3000 BR=
202507110130 METAR VABB 110130Z 25006KT 3000 BR SCT018 FEW025TCU BKN100 28/25 Q1005 NOSIG=
202507110200 METAR VABB 110200Z 24007KT 3000 BR SCT018 FEW025TCU BKN100 28/26 Q1005 NOSIG=
202507110230 METAR VABB 110230Z 25010KT 3000 BR SCT018 FEW025TCU BKN100 29/26 Q1005 NOSIG=
202507110300 METAR VABB 110300Z 28010KT 2500 -RA FEW012 SCT018 FEW025TCU BKN100 29/26 Q1005 TEMPO 1500 SHRA=
202507110330 METAR VABB 110330Z 24011KT 2500 BR SCT018 FEW025TCU BKN100 29/26 Q1005 NOSIG=
202507110400 METAR VABB 110400Z 24013KT 2500 -RA FEW012 SCT018 FEW025TCU BKN100 29/26 Q1005 TEMPO 1500 SHRA=
202507110430 METAR VABB 110430Z 24012KT 2500 BR SCT018 FEW025TCU BKN100 29/26 Q1006 NOSIG=
202507110500 METAR VABB 110500Z 25010G20KT 2500 BR SCT018 FEW025TCU BKN100 30/26 Q1006 BECMG 3000 HZ=
202507110530 METAR VABB 110530Z 26014KT 3000 HZ SCT018 FEW025TCU BKN100 30/26 Q1006 NOSIG=
202507110600 METAR VABB 110600Z 26010G20KT 3000 HZ SCT018 FEW025TCU BKN100 31/26 Q1006 NOSIG=
202507110630 METAR VABB 110630Z 27014KT 3000 HZ SCT018 FEW025TCU BKN100 31/26 Q1006 NOSIG=
202507110700 METAR VABB 110700Z 26013KT 3000 HZ SCT018 FEW025TCU BKN100 30/26 Q1006 NOSIG=
202507110730 METAR VABB 110730Z 26013KT 3000 -DZ FEW012 SCT018 FEW025TCU BKN100 30/26 Q1006 NOSIG=
202507110800 METAR VABB 110800Z 27013KT 3000 HZ SCT018 FEW025TCU BKN100 31/26 Q1006 NOSIG=
202507110830 METAR VABB 110830Z 25012KT 3000 HZ SCT018 FEW025TCU BKN100 31/25 Q1005 NOSIG=
202507110900 METAR VABB 110900Z 25009G19KT 3000 HZ SCT018 FEW025TCU BKN100 30/25 Q1005 NOSIG=
202507110930 METAR VABB 110930Z 27011KT 3000 HZ SCT018 FEW025TCU BKN100 30/25 Q1005 NOSIG=
202507111000 METAR VABB 111000Z 26011KT 3000 HZ SCT018 FEW025TCU BKN100 30/25 Q1004 NOSIG=
202507111030 METAR VABB 111030Z 25010G20KT 3000 HZ SCT018 FEW025TCU BKN100 29/24 Q1004 NOSIG=
202507111100 METAR VABB 111100Z 24008KT 3000 -SHRA SCT018 FEW025TCU BKN100 28/26 Q1004 NOSIG=
202507111130 METAR VABB 111130Z 25012KT 3000 HZ SCT018 FEW025TCU BKN100 30/26 Q1004 NOSIG=
202507111200 METAR VABB 111200Z 26013KT 3000 HZ SCT018 FEW025TCU BKN100 30/25 Q1004 NOSIG=
202507111230 METAR VABB 111230Z 25012KT 3000 HZ SCT018 FEW025TCU BKN100 30/26 Q1004 NOSIG=
202507111300 METAR VABB 111300Z 26010KT 3000 HZ SCT018 FEW025TCU BKN100 29/24 Q1004 NOSIG=
202507111330 METAR VABB 111330Z 25008KT 3000 HZ SCT018 FEW025TCU BKN100 28/25 Q1004 NOSIG=
202507111400 METAR VABB 111400Z 23009KT 2500 -RA FEW012 SCT018 FEW025TCU BKN090 29/26 Q1004 NOSIG=
202507111430 METAR VABB 111430Z 25012KT 2500 BR SCT018 FEW025TCU BKN090 29/25 Q1005 NOSIG=
202507111500 METAR VABB 111500Z 26010KT 2500 HZ SCT018 FEW025TCU BKN090 29/24 Q1005 NOSIG=
202507111530 METAR VABB 111530Z 26011KT 2500 HZ SCT018 FEW025TCU BKN100 29/25 Q1005 NOSIG=
202507111600 METAR VABB 111600Z 23006KT 2500 HZ SCT018 FEW025TCU BKN100 28/25 Q1006 NOSIG=
202507111630 METAR VABB 111630Z 25007KT 2500 HZ SCT018 FEW025TCU BKN100 28/25 Q1006 NOSIG=
202507111700 METAR VABB 111700Z 25011KT 2500 HZ SCT018 FEW025TCU BKN100 28/24 Q1006 NOSIG=
202507111730 METAR VABB 111730Z 26011KT 2500 VCSH FEW012 SCT018 FEW025TCU BKN090 28/26 Q1006 TEMPO 1500 SHRA=
202507111800 METAR VABB 111800Z 25008KT 2500 HZ FEW012 SCT018 FEW025TCU BKN090 28/25 Q1006 NOSIG=
202507111830 METAR VABB 111830Z 26008KT 2500 HZ SCT018 FEW025TCU BKN090 28/26 Q1006 NOSIG=
202507111900 METAR VABB 111900Z 25010KT 2500 HZ SCT018 FEW025TCU BKN090 28/25 Q1006 NOSIG=
202507111930 METAR VABB 111930Z 25010KT 2500 HZ SCT018 FEW025TCU BKN090 28/25 Q1006 NOSIG=
202507112000 METAR VABB 112000Z 25011KT 2500 HZ SCT018 FEW025TCU BKN090 28/25 Q1006 NOSIG=
202507112030 METAR VABB 112030Z 24010KT 2500 HZ SCT018 FEW025TCU BKN090 28/25 Q1005 NOSIG=
202507112100 METAR VABB 112100Z 24008KT 2500 -RA FEW012 SCT018 FEW025TCU BKN090 27/25 Q1005 NOSIG=
202507112130 METAR VABB 112130Z 25009KT 2500 HZ SCT018 FEW025TCU BKN090 28/25 Q1005 NOSIG=
202507112200 METAR VABB 112200Z 25008KT 2500 BR SCT018 FEW025TCU BKN090 28/25 Q1005 NOSIG=
202507112230 METAR VABB 112230Z 24009KT 2500 BR SCT018 FEW025TCU BKN090 28/25 Q1005 NOSIG=
202507112300 METAR VABB 112300Z 27010KT 2500 BR SCT018 FEW025TCU BKN090 28/25 Q1005 NOSIG=
202507112330 METAR VABB 112330Z 26010KT 2500 BR SCT018 FEW025TCU BKN090 28/25 Q1005 NOSIG=
202507120000 METAR VABB 120000Z 26010KT 2500 BR SCT018 FEW025TCU BKN090 28/25 Q1005 NOSIG=
202507120030 METAR VABB 120030Z 25011KT 2500 BR SCT018 FEW025TCU BKN090 28/25 Q1005 NOSIG=
202507120100 METAR VABB 120100Z 27011KT 2500 BR SCT018 FEW025TCU BKN090 28/25 Q1005 NOSIG=
202507120130 METAR VABB 120130Z 25009KT 2500 BR SCT018 FEW025TCU BKN100 28/25 Q1005 BECMG 3000 BR=
202507120200 METAR VABB 120200Z 27014KT 3000 -DZ SCT018 FEW025TCU BKN100 28/25 Q1006 NOSIG=
202507120230 METAR VABB 120230Z 26009KT 3000 HZ SCT018 FEW025TCU BKN100 29/25 Q1006 NOSIG=
202507120258 METAR VABB 120258Z 26010KT 1800 SHRA FEW012 SCT018 FEW025TCU BKN090 29/26 Q1006 TEMPO 1500 SHRA=
202507120330 METAR VABB 120330Z 27010KT 1800 RA FEW012 SCT018 FEW025TCU BKN090 26/25 Q1006 TEMPO 1500 SHRA=
202507120400 METAR VABB 120400Z 29007KT 2500 -RA FEW012 SCT018 FEW025TCU BKN090 28/25 Q1006 TEMPO 1500 SHRA=
202507120430 METAR VABB 120430Z 27013KT 2500 BR SCT018 FEW025TCU BKN090 30/26 Q1006 NOSIG=
202507120500 METAR VABB 120500Z 26012KT 2500 BR SCT018 FEW025TCU BKN090 30/27 Q1006 NOSIG=
202507120530 METAR VABB 120530Z 26012KT 2500 BR SCT018 FEW025TCU BKN100 30/26 Q1006 BECMG 3000 HZ=
202507120600 METAR VABB 120600Z 27015KT 3000 HZ SCT018 SCT025 BKN100 31/26 Q1006 NOSIG=
202507120630 METAR VABB 120630Z 25015KT 3000 HZ SCT018 SCT025 BKN100 31/26 Q1006 NOSIG=
202507120700 METAR VABB 120700Z 25016KT 3000 HZ SCT018 FEW025TCU BKN100 31/25 Q1006 NOSIG=
202507120730 METAR VABB 120730Z 26009G19KT 3000 HZ SCT018 FEW025TCU BKN100 32/26 Q1006 NOSIG=
202507120800 METAR VABB 120800Z 26008G18KT 3000 HZ SCT018 SCT025 BKN100 31/26 Q1006 NOSIG=
202507120830 METAR VABB 120830Z 27013G23KT 3000 HZ SCT020 SCT025 BKN100 31/26 Q1006 NOSIG=
202507120900 METAR VABB 120900Z 25007G17KT 3000 HZ SCT020 SCT025 BKN100 31/25 Q1005 NOSIG=
202507120930 METAR VABB 120930Z 23007G17KT 2500 HZ SCT018 FEW025TCU BKN100 28/26 Q1005 NOSIG=
202507121000 METAR VABB 121000Z 27009G19KT 2500 HZ SCT018 FEW025TCU BKN100 30/26 Q1005 BECMG 3000 HZ=
202507121030 METAR VABB 121030Z 27015KT 3000 HZ SCT018 FEW025TCU BKN100 30/26 Q1005 NOSIG=
202507121100 METAR VABB 121100Z 25015KT 3000 HZ SCT018 FEW025TCU BKN100 30/25 Q1005 NOSIG=
202507121130 METAR VABB 121130Z 24013G23KT 3000 HZ SCT018 FEW025TCU BKN100 30/25 Q1004 NOSIG=
202507121200 METAR VABB 121200Z 25015KT 3000 HZ SCT018 FEW025TCU BKN100 30/25 Q1005 NOSIG=
202507121230 METAR VABB 121230Z 26012KT 3500 HZ SCT018 FEW025TCU BKN100 30/25 Q1005 NOSIG=
202507121300 METAR VABB 121300Z 25011KT 3500 HZ SCT018 FEW025TCU BKN100 29/25 Q1005 NOSIG=
202507121330 METAR VABB 121330Z 25011KT 3500 HZ SCT018 SCT025 BKN100 29/25 Q1005 NOSIG=
202507121400 METAR VABB 121400Z 25012KT 3000 HZ SCT018 SCT025 BKN100 29/25 Q1005 NOSIG=
202507121430 METAR VABB 121430Z 25010KT 3000 HZ SCT018 SCT025 BKN100 29/25 Q1006 NOSIG=
202507121500 METAR VABB 121500Z 25010KT 3000 HZ SCT018 SCT025 BKN100 29/25 Q1006 NOSIG=
202507121530 METAR VABB 121530Z 25008KT 3000 HZ SCT018 SCT025 BKN100 29/24 Q1006 NOSIG=
202507121600 METAR VABB 121600Z 25011G21KT 3000 HZ SCT018 SCT025 BKN100 29/25 Q1006 NOSIG=
202507121630 METAR VABB 121630Z 25010KT 3000 HZ SCT018 SCT025 BKN100 29/25 Q1006 NOSIG=
202507121700 METAR VABB 121700Z 25009KT 3000 HZ SCT018 SCT025 BKN100 29/25 Q1006 NOSIG=
202507121730 METAR VABB 121730Z 24009KT 3000 HZ SCT018 SCT025 BKN100 29/25 Q1006 NOSIG=
202507121800 METAR VABB 121800Z 24008KT 3000 HZ SCT018 SCT025 BKN100 29/25 Q1006 NOSIG=
202507121830 METAR VABB 121830Z 24007G17KT 3000 HZ SCT018 SCT025 BKN100 28/25 Q1006 NOSIG=
202507121900 METAR VABB 121900Z 24008KT 3000 VCSH SCT018 SCT025 BKN100 28/25 Q1006 TEMPO 1500 SHRA=
202507121930 METAR VABB 121930Z 25010KT 3000 BR SCT018 SCT025 BKN100 29/25 Q1006 NOSIG=
202507122000 METAR VABB 122000Z 25012KT 3000 BR SCT018 SCT025 BKN100 29/25 Q1005 NOSIG=
202507122030 METAR VABB 122030Z 24009KT 3000 BR SCT018 SCT025 BKN100 28/25 Q1005 NOSIG=
202507122100 METAR VABB 122100Z 25011KT 3000 BR SCT018 SCT025 BKN100 28/25 Q1005 NOSIG=
202507122130 METAR VABB 122130Z 25011KT 3000 VCSH SCT018 SCT025 BKN100 28/25 Q1005 NOSIG=
202507122200 METAR VABB 122200Z 26010KT 3000 BR SCT018 SCT025 BKN100 28/25 Q1005 NOSIG=
202507122230 METAR VABB 122230Z 26008KT 3000 VCSH SCT018 SCT025 BKN100 27/26 Q1005 NOSIG=
202507122300 METAR VABB 122300Z 25011KT 3000 BR SCT018 SCT025 BKN100 27/24 Q1005 NOSIG=
202507122330 METAR VABB 122330Z 26009KT 3000 BR SCT018 SCT025 BKN100 27/24 Q1005 NOSIG=
202507130000 METAR VABB 130000Z 25007KT 3000 BR SCT018 SCT025 BKN100 28/25 Q1005 NOSIG=
202507130030 METAR VABB 130030Z 25009KT 3000 BR SCT018 SCT025 BKN100 28/25 Q1005 NOSIG=
202507130100 METAR VABB 130100Z 26008KT 3000 BR SCT018 SCT025 BKN100 26/24 Q1005 NOSIG=
202507130130 METAR VABB 130130Z 23004KT 2100 -SHRA FEW012 SCT018 FEW025TCU BKN100 27/24 Q1005 TEMPO 1500 SHRA=
202507130200 METAR VABB 130200Z 25007KT 3000 BR SCT018 SCT025 BKN100 27/25 Q1006 NOSIG=
202507130230 METAR VABB 130230Z 24005KT 3000 BR SCT018 FEW025TCU BKN100 27/25 Q1006 NOSIG=
202507130300 METAR VABB 130300Z 25008KT 2500 VCSH FEW012 SCT018 FEW025TCU BKN100 27/25 Q1006 NOSIG=
202507130330 METAR VABB 130330Z 24007KT 2500 BR FEW012 SCT018 FEW025TCU BKN100 28/26 Q1006 BECMG 3000 BR=
202507130400 METAR VABB 130400Z 25010KT 6000 SCT020 SCT080 29/25 Q1006 NOSIG=
202507130430 METAR VABB 130430Z 25013KT 3000 BR SCT018 FEW025TCU BKN100 29/26 Q1006 NOSIG=
202507130500 METAR VABB 130500Z 25012KT 3000 -DZ FEW012 SCT018 FEW025TCU BKN100 29/26 Q1006 TEMPO 1500 SHRA=
202507130530 METAR VABB 130530Z 26014KT 3000 HZ SCT018 FEW025TCU BKN100 30/26 Q1006 NOSIG=
202507130600 METAR VABB 130600Z 27007G17KT 2500 -SHRA FEW012 SCT018 FEW025TCU BKN100 28/26 Q1006 NOSIG=
202507130630 METAR VABB 130630Z 24010G20KT 1600 SHRA FEW012 SCT018 FEW025TCU BKN100 29/26 Q1006 TEMPO 1500 SHRA=
202507130700 METAR VABB 130700Z 28012G22KT 2500 HZ SCT018 FEW025TCU BKN100 29/27 Q1006 NOSIG=
202507130730 METAR VABB 130730Z 29013KT 3000 HZ SCT018 FEW025TCU BKN100 29/26 Q1005 NOSIG=
202507130800 METAR VABB 130800Z 28012KT 3000 HZ SCT018 FEW030CB BKN100 30/25 Q1005 NOSIG=
202507130830 METAR VABB 130830Z 27013KT 3000 HZ SCT018 FEW030CB BKN100 30/26 Q1005 NOSIG=
202507130900 METAR VABB 130900Z 27012KT 3000 HZ SCT018 FEW025TCU BKN100 30/26 Q1004 NOSIG=
202507130930 METAR VABB 130930Z 25012KT 3000 HZ SCT018 FEW025TCU BKN100 30/25 Q1004 TEMPO 1500 SHRA=
202507131000 METAR VABB 131000Z 26012KT 3000 -SHRA FEW012 SCT018 FEW025TCU BKN090 29/26 Q1004 TEMPO 1500 SHRA=
202507131030 METAR VABB 131030Z 26008KT 1700 -RA FEW012 SCT018 FEW030CB BKN090 28/26 Q1004 TEMPO 1500 SHRA=
202507131100 METAR VABB 131100Z 25013KT 2500 -DZ FEW012 SCT018 FEW030CB BKN090 29/27 Q1003 TEMPO 1500 SHRA=
202507131130 METAR VABB 131130Z 24010KT 2500 HZ SCT018 FEW025TCU BKN090 29/26 Q1003 NOSIG=
202507131200 METAR VABB 131200Z 23013G23KT 2500 HZ SCT018 FEW025TCU BKN090 29/25 Q1003 NOSIG=
202507131230 METAR VABB 131230Z 23012G24KT 2500 VCSH SCT018 FEW025TCU BKN090 29/26 Q1003 TEMPO 1500 SHRA=
202507131300 METAR VABB 131300Z 25014KT 2500 BR SCT018 FEW025TCU BKN090 28/25 Q1004 TEMPO 1500 SHRA=
202507131330 METAR VABB 131330Z 25011KT 2500 BR SCT018 FEW025TCU BKN090 28/25 Q1004 NOSIG=
202507131400 METAR VABB 131400Z 27007G17KT 2500 -RA FEW012 SCT018 FEW025TCU BKN090 29/25 Q1004 TEMPO 1500 SHRA=
202507131430 METAR VABB 131430Z 24011KT 2500 HZ SCT018 FEW025TCU BKN090 29/25 Q1004 NOSIG=
202507131500 METAR VABB 131500Z 30009G19KT 2500 BR SCT018 FEW025TCU BKN090 28/26 Q1005 NOSIG=
202507131530 METAR VABB 131530Z 28009KT 2500 BR SCT018 FEW025TCU BKN090 27/25 Q1005 TEMPO 1500 SHRA=
202507131600 METAR VABB 131600Z 32006KT 2500 BR SCT018 FEW025TCU BKN090 27/25 Q1005 TEMPO 1500 SHRA=
202507131630 METAR VABB 131630Z 29009KT 2500 -RA SCT018 FEW030CB BKN090 27/25 Q1005 TEMPO 1500 SHRA=
202507131700 METAR VABB 131700Z 31009KT 1800 RA SCT018 FEW030CB BKN090 26/25 Q1005 TEMPO 1500 SHRA=
202507131730 METAR VABB 131730Z 33007KT 2500 DZ SCT018 FEW030CB BKN090 26/25 Q1005 TEMPO 1500 SHRA=
202507131800 METAR VABB 131800Z 32004KT 2500 DZ SCT018 FEW030CB BKN090 27/25 Q1005 TEMPO 1500 SHRA=
202507131830 METAR VABB 131830Z 22006KT 2500 -RA SCT018 FEW030CB BKN090 27/25 Q1005 TEMPO 1500 SHRA=
202507131900 METAR VABB 131900Z 23010KT 2500 BR SCT018 FEW025TCU BKN090 28/25 Q1005 NOSIG=
202507131930 METAR VABB 131930Z 23010KT 2500 BR SCT018 FEW025TCU BKN090 28/25 Q1005 NOSIG=
202507132000 METAR VABB 132000Z 23008KT 2500 BR SCT018 FEW025TCU BKN090 28/25 Q1004 NOSIG=
202507132030 METAR VABB 132030Z 23007KT 2500 BR SCT018 FEW025TCU BKN090 27/25 Q1004 TEMPO 1500 SHRA=
202507132100 METAR VABB 132100Z 23009KT 2500 BR SCT018 FEW025TCU BKN090 27/25 Q1004 TEMPO 1500 SHRA=
202507132130 METAR VABB 132130Z 22009KT 2500 SHRA SCT018 FEW025TCU BKN090 27/25 Q1003 TEMPO 1500 SHRA=
202507132200 METAR VABB 132200Z 24013KT 2500 DZ SCT018 FEW025TCU BKN090 27/24 Q1003 NOSIG=
202507132230 METAR VABB 132230Z 23006KT 2500 BR SCT018 FEW025TCU BKN090 26/24 Q1003 NOSIG=
202507132300 METAR VABB 132300Z 23006KT 2500 BR SCT018 FEW025TCU BKN090 27/25 Q1003 TEMPO 1500 SHRA=
202507132330 METAR VABB 132330Z 22007G17KT 2500 BR SCT018 FEW025TCU BKN090 27/25 Q1003 NOSIG=
202507140000 METAR VABB 140000Z 23009KT 2500 BR SCT018 FEW025TCU BKN090 27/25 Q1003 TEMPO 1500 SHRA=
202507140030 METAR VABB 140030Z 22009KT 2500 BR SCT018 FEW025TCU BKN090 27/25 Q1003 TEMPO 1500 SHRA=
202507140100 METAR VABB 140100Z 24008KT 2500 BR SCT018 FEW025TCU BKN090 27/25 Q1003 NOSIG=
202507140130 METAR VABB 140130Z 24007KT 2500 VCSH FEW012 SCT018 FEW025TCU BKN090 28/25 Q1004 TEMPO 1500 SHRA=
202507140200 METAR VABB 140200Z 22011G21KT 2500 -SHRA FEW012 SCT018 FEW025TCU BKN090 26/24 Q1004 TEMPO 1500 SHRA=
202507140230 METAR VABB 140230Z 20006KT 2500 BR SCT018 FEW025TCU BKN090 26/24 Q1004 NOSIG=
202507140300 METAR VABB 140300Z 24010KT 2500 BR SCT018 FEW025TCU BKN090 28/25 Q1004 NOSIG=
202507140330 METAR VABB 140330Z 24014KT 2100 -SHRA FEW012 SCT018 FEW025TCU BKN090 28/25 Q1004 TEMPO 1500 SHRA=
202507140400 METAR VABB 140400Z 23010KT 2500 VCSH FEW012 SCT018 FEW025TCU BKN090 28/26 Q1004 TEMPO 1500 SHRA=
202507140430 METAR VABB 140430Z 24010KT 2500 HZ SCT018 FEW025TCU BKN090 28/26 Q1004 NOSIG=
202507140500 METAR VABB 140500Z 27012KT 1800 -RA FEW010 SCT018 FEW025TCU BKN090 27/25 Q1004 TEMPO 1500 SHRA=
202507140530 METAR VABB 140530Z 25012KT 2500 BR FEW012 SCT018 FEW025TCU BKN090 28/26 Q1004 TEMPO 1500 SHRA=
202507140600 METAR VABB 140600Z 25012G22KT 2500 -RA FEW012 SCT018 FEW025TCU BKN090 28/25 Q1004 TEMPO 1500 SHRA=
202507140630 METAR VABB 140630Z 25013KT 2500 BR FEW012 SCT018 FEW025TCU BKN090 29/26 Q1004 NOSIG=
202507140700 METAR VABB 140700Z 25010KT 2500 BR FEW012 SCT018 FEW025TCU BKN090 29/26 Q1004 NOSIG=
202507140730 METAR VABB 140730Z 26015KT 2500 HZ SCT018 FEW025TCU BKN090 29/25 Q1004 TEMPO 1500 SHRA=
202507140800 METAR VABB 140800Z 24013KT 2500 HZ SCT018 FEW030CB BKN090 29/25 Q1003 TEMPO 1500 SHRA=
202507140830 METAR VABB 140830Z 26017KT 2500 HZ SCT018 FEW030CB BKN090 29/25 Q1003 TEMPO 1500 SHRA=
202507140900 METAR VABB 140900Z 28016KT 2500 BR FEW012 SCT018 FEW030CB BKN090 28/24 Q1003 TEMPO 1500 SHRA=
202507140930 METAR VABB 140930Z 26014KT 2500 BR FEW012 SCT018 FEW030CB BKN090 26/24 Q1003 TEMPO 1500 SHRA=
202507141000 METAR VABB 141000Z 27011KT 2100 BR FEW012 SCT018 FEW030CB BKN090 26/24 Q1003 TEMPO 1500 SHRA=
202507141030 METAR VABB 141030Z 27012G22KT 2100 -RA FEW012 SCT018 FEW030CB OVC080 26/24 Q1003 TEMPO 1500 SHRA=
202507141100 METAR VABB 141100Z 27015KT 2100 -RA FEW012 SCT018 FEW030CB OVC080 27/26 Q1003 TEMPO 1500 SHRA=
202507141130 METAR VABB 141130Z 28010KT 2500 -RA FEW012 SCT018 FEW025TCU OVC080 27/25 Q1003 TEMPO 1500 SHRA=
202507141200 METAR VABB 141200Z 28013KT 2100 -RA FEW012 SCT018 FEW025TCU OVC080 27/25 Q1003 TEMPO 1500 SHRA=
202507141230 METAR VABB 141230Z 28009KT 2100 -RA FEW012 SCT018 FEW025TCU OVC080 26/25 Q1003 TEMPO 1500 SHRA=
202507141300 METAR VABB 141300Z 25007KT 2100 BR FEW012 SCT018 FEW025TCU OVC080 26/24 Q1003 TEMPO 1500 SHRA=
202507141330 METAR VABB 141330Z 24006KT 2100 BR FEW012 SCT018 FEW025TCU OVC080 26/24 Q1003 TEMPO 1500 SHRA=
202507141400 METAR VABB 141400Z 31010KT 1500 RA FEW012 SCT018 FEW025TCU OVC080 25/25 Q1004 TEMPO 0800 +SHRA=
202507141430 METAR VABB 141430Z 29006KT 2500 -DZ FEW012 SCT018 FEW025TCU OVC080 26/25 Q1004 TEMPO 1500 SHRA=
202507141500 METAR VABB 141500Z 24008KT 2100 -DZ FEW012 SCT018 FEW030CB OVC080 26/25 Q1004 TEMPO 1500 SHRA=
202507141530 METAR VABB 141530Z 00000KT 1800 RA FEW012 SCT018 FEW030CB OVC080 26/25 Q1004 TEMPO 1500 RA=
202507141600 METAR VABB 141600Z 00000KT 2100 -RA FEW012 SCT018 FEW030CB OVC080 26/26 Q1004 TEMPO 1500 SHRA=
202507141630 METAR VABB 141630Z 00000KT 2100 BR FEW012 SCT018 FEW030CB OVC080 27/26 Q1004 TEMPO 1500 SHRA=
202507141700 METAR VABB 141700Z 25011KT 2500 BR FEW012 SCT018 FEW030CB BKN090 28/25 Q1004 TEMPO 1500 SHRA=
202507141730 METAR VABB 141730Z 25010KT 2500 BR FEW012 SCT018 FEW030CB BKN090 28/25 Q1004 NOSIG=
202507141800 METAR VABB 141800Z 25009KT 2500 BR SCT018 FEW030CB BKN090 28/25 Q1004 NOSIG=
202507141830 METAR VABB 141830Z 25010KT 2500 BR SCT018 FEW030CB BKN090 28/25 Q1004 NOSIG=
202507141900 METAR VABB 141900Z 27010KT 2500 BR SCT018 FEW025TCU BKN090 28/25 Q1003 NOSIG=
202507141930 METAR VABB 141930Z 28009KT 2500 BR SCT018 FEW025TCU BKN090 28/25 Q1003 NOSIG=
202507142000 METAR VABB 142000Z 27009KT 2500 -SHRA SCT018 FEW025TCU BKN090 28/26 Q1003 NOSIG=
202507142030 METAR VABB 142030Z 28011KT 2500 BR SCT018 FEW025TCU BKN090 28/25 Q1002 NOSIG=
202507142100 METAR VABB 142100Z 28008KT 2500 BR SCT018 FEW025TCU BKN090 28/26 Q1002 NOSIG=
202507142130 METAR VABB 142130Z 26010G20KT 1800 SHRA FEW012 SCT018 FEW025TCU BKN090 28/26 Q1002 TEMPO 1500 SHRA=
202507142200 METAR VABB 142200Z 29005KT 2100 -RA FEW012 SCT018 FEW025TCU BKN090 26/25 Q1002 TEMPO 1500 SHRA=
202507142230 METAR VABB 142230Z 29004KT 2100 -RA FEW012 SCT018 FEW025TCU BKN090 27/25 Q1001 TEMPO 1500 SHRA=
202507142300 METAR VABB 142300Z 27007KT 2100 -RA FEW012 SCT018 FEW025TCU BKN090 27/26 Q1002 NOSIG=
202507142330 METAR VABB 142330Z 27006KT 2100 BR FEW012 SCT018 FEW025TCU BKN090 28/26 Q1002 NOSIG=
202507150000 METAR VABB 150000Z 29010KT 2100 BR FEW012 SCT018 FEW025TCU BKN090 28/25 Q1002 NOSIG=
202507150030 METAR VABB 150030Z 29007KT 2500 BR FEW012 SCT018 FEW025TCU BKN090 28/26 Q1002 NOSIG=
202507150100 METAR VABB 150100Z 35005KT 2500 BR SCT018 FEW025TCU BKN100 28/26 Q1002 NOSIG=
202507150130 METAR VABB 150130Z 31005KT 2500 BR SCT018 FEW025TCU BKN100 28/26 Q1002 NOSIG=
202507150200 METAR VABB 150200Z 31005KT 2500 BR SCT018 FEW030CB BKN100 28/26 Q1003 NOSIG=
202507150230 METAR VABB 150230Z 31005KT 2500 HZ FEW018 SCT025 FEW030CB BKN100 29/26 Q1003 NOSIG=
202507150300 METAR VABB 150300Z 30007KT 2500 BR FEW018 SCT025 FEW030CB BKN100 29/26 Q1003 NOSIG=
202507150330 METAR VABB 150330Z 28010KT 2500 BR FEW018 SCT025 FEW030CB BKN100 29/26 Q1003 NOSIG=
202507150400 METAR VABB 150400Z 25009G19KT 2500 VCSH FEW018 SCT025 FEW030CB BKN100 28/26 Q1003 TEMPO 1500 SHRA=
202507150430 METAR VABB 150430Z 26013G23KT 1500 R27/2000 SHRA FEW012 SCT018 FEW030CB BKN090 27/26 Q1004 TEMPO 0800 +SHRA=
202507150500 METAR VABB 150500Z 27015G25KT 0800 R27/1000 +RA FEW010 SCT015 FEW030CB OVC080 26/25 Q1004 TEMPO 0350 +RA=
202507150530 METAR VABB 150530Z 29010G20KT 0500 R27/0700 +RA FEW010 SCT015 FEW030CB OVC080 26/25 Q1004 TEMPO 0350 +RA=
202507150600 METAR VABB 150600Z 23004KT 1700 -RA FEW010 SCT015 FEW030CB OVC080 26/26 Q1004 TEMPO 0800 +SHRA=
202507150630 METAR VABB 150630Z 34009KT 0800 RR27/1000 +RA FEW010 SCT015 FEW030CB OVC080 26/25 Q1004 TEMPO 0350 +RA=
202507150700 METAR VABB 150700Z 35007KT 1500 TSRA FEW010 SCT015 FEW030CB OVC080 26/25 Q1004 TEMPO 0800 +TSRA=
202507150730 METAR VABB 150730Z 12003KT 2500 -TSRA FEW010 SCT015 FEW030CB OVC080 26/25 Q1004 TEMPO 1500 TSRA=
202507150800 METAR VABB 150800Z 17004KT 2500 TS FEW010 SCT015 FEW030CB OVC080 27/26 Q1004 TEMPO 1500 SHRA=
202507150830 METAR VABB 150830Z 25009KT 2500 BR SCT018 FEW030CB OVC090 29/26 Q1003 TEMPO 1500 SHRA=
202507150900 METAR VABB 150900Z 26008KT 2500 BR FEW012 SCT018 FEW030CB OVC090 28/25 Q1003 NOSIG=
202507150930 METAR VABB 150930Z 26008KT 2500 BR FEW012 SCT018 FEW030CB OVC090 28/26 Q1002 NOSIG=
202507151000 METAR VABB 151000Z 27010KT 2500 BR FEW012 SCT018 FEW025TCU OVC090 28/25 Q1002 NOSIG=
202507151030 METAR VABB 151030Z 26011KT 2500 BR FEW012 SCT018 FEW025TCU OVC090 28/25 Q1002 NOSIG=
202507151100 METAR VABB 151100Z 25011KT 2500 BR FEW012 SCT018 FEW025TCU OVC090 29/26 Q1002 NOSIG=
202507151130 METAR VABB 151130Z 25012KT 2500 BR FEW012 SCT018 FEW025TCU OVC090 29/26 Q1002 NOSIG=
202507151200 METAR VABB 151200Z 25012KT 2500 BR FEW012 SCT018 FEW025TCU OVC090 29/26 Q1002 NOSIG=
202507151230 METAR VABB 151230Z 24014KT 2500 BR FEW012 SCT018 FEW025TCU OVC090 29/26 Q1002 NOSIG=
202507151300 METAR VABB 151300Z 26010KT 2500 BR FEW012 SCT018 FEW025TCU OVC090 28/25 Q1002 NOSIG=
202507151330 METAR VABB 151330Z 25008KT 2500 BR FEW012 SCT018 FEW025TCU BKN090 28/24 Q1002 NOSIG=
202507151400 METAR VABB 151400Z 25011KT 2500 BR FEW012 SCT018 FEW025TCU BKN090 28/25 Q1002 NOSIG=
202507151430 METAR VABB 151430Z 26008KT 2500 BR FEW012 SCT018 FEW025TCU BKN090 28/26 Q1003 NOSIG=
202507151500 METAR VABB 151500Z 25008KT 2500 -SHRA FEW012 SCT018 FEW025TCU BKN090 28/26 Q1003 TEMPO 1500 SHRA=
202507151530 METAR VABB 151530Z 25007KT 2500 BR FEW012 SCT018 FEW025TCU BKN090 28/25 Q1003 TEMPO 1500 SHRA=
202507151600 METAR VABB 151600Z 24008G18KT 2500 BR FEW012 SCT018 FEW025TCU BKN090 28/25 Q1004 NOSIG=
202507151630 METAR VABB 151630Z 24007KT 2500 BR SCT018 FEW025TCU BKN090 28/26 Q1004 NOSIG=
202507151700 METAR VABB 151700Z 25008KT 2500 BR SCT018 FEW025TCU BKN090 28/26 Q1004 NOSIG=
202507151730 METAR VABB 151730Z 25009KT 2500 BR SCT018 FEW025TCU BKN090 28/26 Q1004 NOSIG=
202507151800 METAR VABB 151800Z 25010KT 2500 BR SCT018 FEW025TCU BKN090 28/25 Q1004 NOSIG=
202507151830 METAR VABB 151830Z 24009KT 2500 BR SCT018 FEW025TCU BKN090 28/25 Q1004 NOSIG=
202507151900 METAR VABB 151900Z 25007KT 2500 BR SCT018 FEW025TCU BKN090 28/26 Q1004 NOSIG=
202507151930 METAR VABB 151930Z 26007KT 2500 BR SCT018 FEW025TCU BKN090 28/26 Q1004 NOSIG=
202507152000 METAR VABB 152000Z 27008KT 2100 RA FEW010 SCT018 FEW025TCU BKN090 27/26 Q1003 TEMPO 1500 SHRA=
202507152030 METAR VABB 152030Z 26008KT 2100 -RA FEW010 SCT018 FEW025TCU BKN090 28/26 Q1003 NOSIG=
202507152100 METAR VABB 152100Z 25009KT 2100 BR SCT018 FEW025TCU BKN090 28/26 Q1003 NOSIG=
202507152130 METAR VABB 152130Z 25008KT 2200 BR SCT018 FEW025TCU BKN090 28/26 Q1003 NOSIG=
202507152200 METAR VABB 152200Z 26009KT 2200 BR SCT018 FEW025TCU BKN090 28/26 Q1002 NOSIG=
202507152230 METAR VABB 152230Z 25008KT 2200 BR SCT018 FEW025TCU BKN090 28/26 Q1002 NOSIG=
202507152300 METAR VABB 152300Z 22006KT 2200 -RA FEW012 SCT018 FEW025TCU BKN090 28/26 Q1003 TEMPO 1500 SHRA=
202507152330 METAR VABB 152330Z 26009KT 2200 BR FEW012 SCT018 FEW025TCU BKN090 28/26 Q1003 NOSIG=
202507160000 METAR VABB 160000Z 27009KT 2200 BR SCT018 FEW025TCU BKN090 28/26 Q1003 NOSIG=
202507160030 METAR VABB 160030Z 28007KT 2200 BR SCT018 FEW025TCU BKN090 28/26 Q1003 NOSIG=
202507160100 METAR VABB 160100Z 26009KT 2500 BR SCT018 FEW025TCU BKN090 28/26 Q1003 NOSIG=
202507160130 METAR VABB 160130Z 27008KT 2500 BR SCT018 FEW025TCU BKN090 28/29 Q1003 TEMPO 1500 SHRA=
202507160200 METAR VABB 160200Z 26011KT 2500 BR SCT018 FEW025TCU BKN090 28/26 Q1004 NOSIG=
202507160230 METAR VABB 160230Z 28008KT 3000 BR SCT018 FEW025TCU BKN090 29/26 Q1004 NOSIG=
202507160300 METAR VABB 160300Z 27008KT 3000 BR SCT018 SCT025 BKN100 29/26 Q1004 NOSIG=
202507160330 METAR VABB 160330Z 25012KT 3000 BR SCT018 SCT025 BKN100 29/26 Q1004 NOSIG=
202507160400 METAR VABB 160400Z 27012KT 3000 BR SCT018 SCT025 BKN100 30/27 Q1004 NOSIG=
202507160430 METAR VABB 160430Z 25013KT 3000 BR SCT018 SCT025 BKN100 29/26 Q1004 NOSIG=
202507160500 METAR VABB 160500Z 26011KT 3000 HZ SCT018 SCT025 BKN100 30/26 Q1004 NOSIG=
202507160530 METAR VABB 160530Z 26013KT 3500 HZ SCT018 SCT025 BKN100 30/26 Q1004 NOSIG=
202507160600 METAR VABB 160600Z 27013KT 3500 HZ SCT020 SCT025 BKN100 30/26 Q1004 NOSIG=
202507160630 METAR VABB 160630Z 25013KT 3000 HZ SCT020 SCT025 BKN100 30/26 Q1004 NOSIG=
202507160700 METAR VABB 160700Z 26015KT 3000 HZ SCT020 SCT025 BKN100 30/26 Q1004 NOSIG=
202507160730 METAR VABB 160730Z 27012KT 3000 HZ SCT020 SCT025 BKN100 30/26 Q1004 NOSIG=
202507160800 METAR VABB 160800Z 26007G17KT 3000 HZ SCT020 SCT025 BKN100 30/26 Q1004 NOSIG=
202507160830 METAR VABB 160830Z 26007G17KT 3000 HZ SCT020 SCT025 BKN100 30/26 Q1003 NOSIG=
202507160900 METAR VABB 160900Z 25012G22KT 3000 HZ SCT020 SCT025 BKN100 30/26 Q1003 NOSIG=
202507160930 METAR VABB 160930Z 27007G17KT 3000 HZ SCT020 SCT025 BKN100 31/26 Q1003 NOSIG=
202507161000 METAR VABB 161000Z 28014KT 3000 HZ SCT020 SCT025 BKN100 31/26 Q1003 NOSIG=
202507161030 METAR VABB 161030Z 27015KT 3000 HZ SCT020 SCT025 BKN100 31/26 Q1002 NOSIG=
202507161100 METAR VABB 161100Z 27014KT 3000 HZ SCT020 SCT025 BKN100 30/26 Q1002 NOSIG=
202507161130 METAR VABB 161130Z 27014KT 3000 HZ SCT020 SCT025 BKN100 30/26 Q1002 NOSIG=
202507161200 METAR VABB 161200Z 25012KT 3500 HZ SCT020 SCT025 BKN100 30/26 Q1002 NOSIG=
202507161230 METAR VABB 161230Z 27009KT 3500 HZ SCT020 SCT025 BKN100 30/26 Q1002 NOSIG=
202507161300 METAR VABB 161300Z 27013KT 3500 HZ SCT020 SCT025 BKN100 29/26 Q1003 NOSIG=
202507161330 METAR VABB 161330Z 25010KT 3500 HZ SCT020 SCT025 BKN100 29/25 Q1003 NOSIG=
202507161400 METAR VABB 161400Z 26009KT 3500 HZ SCT020 SCT025 BKN100 29/26 Q1003 BECMG 3000 HZ=
202507161430 METAR VABB 161430Z 25009KT 3000 HZ SCT020 SCT025 BKN100 29/25 Q1004 NOSIG=
202507161500 METAR VABB 161500Z 27009KT 3000 BR SCT020 SCT025 BKN100 28/24 Q1004 NOSIG=
202507161530 METAR VABB 161530Z 27006KT 3000 BR FEW020 SCT025 BKN100 28/24 Q1004 NOSIG=
202507161600 METAR VABB 161600Z 24009KT 3000 BR FEW020 SCT025 BKN100 29/26 Q1004 NOSIG=
202507161630 METAR VABB 161630Z 25008KT 3000 BR FEW020 SCT025 BKN100 28/26 Q1004 NOSIG=
202507161700 METAR VABB 161700Z 25010KT 3000 BR FEW020 SCT025 BKN100 29/26 Q1004 NOSIG=
202507161730 METAR VABB 161730Z 26007KT 3000 BR FEW020 SCT025 BKN100 28/26 Q1005 NOSIG=
202507161800 METAR VABB 161800Z 26008KT 3000 BR FEW020 SCT025 BKN100 29/26 Q1005 NOSIG=
202507161830 METAR VABB 161830Z 24010KT 3000 BR FEW020 SCT025 BKN100 28/26 Q1004 NOSIG=
202507161900 METAR VABB 161900Z 25007KT 3000 BR FEW020 SCT025 BKN100 29/26 Q1004 NOSIG=
202507161930 METAR VABB 161930Z 25008KT 3000 BR FEW020 SCT025 BKN100 28/26 Q1004 NOSIG=
202507162000 METAR VABB 162000Z 25008KT 3000 BR FEW020 SCT025 BKN100 28/26 Q1004 NOSIG=
202507162030 METAR VABB 162030Z 25009KT 3000 BR FEW020 SCT025 BKN100 28/26 Q1004 NOSIG=
202507162100 METAR VABB 162100Z 24007KT 3000 BR FEW020 SCT025 BKN100 28/25 Q1003 NOSIG=
202507162130 METAR VABB 162130Z 26009KT 3000 BR FEW020 SCT025 BKN100 28/25 Q1003 NOSIG=
202507162200 METAR VABB 162200Z 26004KT 3000 BR FEW020 SCT025 BKN100 27/24 Q1003 NOSIG=
202507162230 METAR VABB 162230Z 26004KT 3000 BR FEW020 SCT025 BKN100 27/25 Q1003 NOSIG=
202507162300 METAR VABB 162300Z 28007KT 2500 BR FEW020 SCT025 BKN100 27/24 Q1003 NOSIG=
202507162330 METAR VABB 162330Z 29006KT 2500 BR FEW020 SCT025 BKN100 28/24 Q1003 NOSIG=
202507170000 METAR VABB 170000Z 30006KT 2500 BR FEW020 SCT025 BKN100 28/24 Q1004 NOSIG=
202507170030 METAR VABB 170030Z 30005KT 2500 BR FEW020 SCT025 BKN100 28/25 Q1004 NOSIG=
202507170100 METAR VABB 170100Z 26008KT 2500 BR FEW020 SCT025 BKN100 28/24 Q1004 NOSIG=
202507170130 METAR VABB 170130Z 30005KT 2500 BR FEW020 SCT025 BKN100 28/24 Q1005 BECMG 3000 HZ=
202507170200 METAR VABB 170200Z 28004KT 3000 BR FEW020 SCT025 BKN100 28/25 Q1005 NOSIG=
202507170230 METAR VABB 170230Z 29004KT 3000 BR SCT020 FEW025 BKN090 28/25 Q1005 NOSIG=
202507170300 METAR VABB 170300Z 30006KT 3000 -DZ SCT018 SCT025 BKN090 29/26 Q1005 NOSIG=
202507170330 METAR VABB 170330Z 29009KT 3000 BR SCT018 FEW025TCU BKN090 29/26 Q1005 NOSIG=
202507170400 METAR VABB 170400Z 31008KT 3000 BR SCT018 FEW025TCU BKN090 29/26 Q1005 NOSIG=
202507170430 METAR VABB 170430Z 29008KT 3000 BR SCT018 FEW025TCU BKN090 29/26 Q1005 NOSIG=
202507170500 METAR VABB 170500Z 30009KT 3000 BR SCT018 SCT025 BKN090 30/26 Q1005 NOSIG=
202507170530 METAR VABB 170530Z 29010KT 3000 BR SCT020 SCT025 BKN100 30/26 Q1005 NOSIG=
202507170600 METAR VABB 170600Z 28011KT 3000 HZ SCT020 SCT025 BKN100 31/26 Q1005 NOSIG=
202507170630 METAR VABB 170630Z 26011KT 3000 HZ SCT020 SCT025 BKN100 30/26 Q1005 NOSIG=
202507170700 METAR VABB 170700Z 26011KT 3500 HZ SCT020 SCT025 BKN100 31/25 Q1005 NOSIG=
202507170730 METAR VABB 170730Z 28013KT 3500 HZ SCT020 SCT025 BKN100 31/25 Q1004 NOSIG=
202507170800 METAR VABB 170800Z 27011KT 3500 HZ SCT020 SCT025 BKN100 31/25 Q1004 NOSIG=
202507170830 METAR VABB 170830Z 29010KT 3500 HZ SCT020 SCT025 BKN100 30/26 Q1004 NOSIG=
202507170900 METAR VABB 170900Z 27012KT 3500 HZ SCT020 SCT025 BKN100 31/26 Q1004 NOSIG=
202507170930 METAR VABB 170930Z 27012KT 4000 HZ FEW020 SCT025 BKN100 31/26 Q1003 NOSIG=
202507171000 METAR VABB 171000Z 29011KT 4000 HZ SCT020 SCT025 BKN100 30/26 Q1003 NOSIG=
202507171030 METAR VABB 171030Z 26010KT 4000 HZ SCT020 SCT025 BKN100 31/25 Q1003 NOSIG=
202507171100 METAR VABB 171100Z 26008KT 3500 HZ SCT020 SCT025 BKN100 31/25 Q1003 NOSIG=
202507171130 METAR VABB 171130Z 27011KT 3500 HZ SCT020 SCT025 BKN100 30/25 Q1003 NOSIG=
202507171200 METAR VABB 171200Z 24010KT 3500 HZ SCT020 SCT025 BKN100 30/25 Q1003 NOSIG=
202507171230 METAR VABB 171230Z 25011KT 3500 HZ SCT020 SCT025 BKN100 30/25 Q1003 NOSIG=
202507171300 METAR VABB 171300Z 27010KT 3500 HZ SCT020 SCT025 BKN100 29/25 Q1003 BECMG 3000 HZ=
202507171330 METAR VABB 171330Z 25010KT 3500 HZ SCT020 SCT025 BKN100 29/25 Q1003 NOSIG=
202507171400 METAR VABB 171400Z 27007KT 3000 HZ SCT020 SCT025 BKN100 29/25 Q1004 NOSIG=
202507171430 METAR VABB 171430Z 25007KT 3000 HZ SCT020 SCT025 BKN100 29/25 Q1004 NOSIG=
202507171500 METAR VABB 171500Z 24009KT 3000 HZ SCT020 SCT025 BKN100 29/25 Q1004 NOSIG=
202507171530 METAR VABB 171530Z 24007KT 3000 HZ SCT020 SCT025 BKN100 29/25 Q1004 NOSIG=
202507171600 METAR VABB 171600Z 24007KT 3000 HZ SCT020 SCT025 BKN100 29/26 Q1005 NOSIG=
202507171630 METAR VABB 171630Z 24008KT 3000 BR SCT020 SCT025 BKN100 29/26 Q1005 NOSIG=
202507171700 METAR VABB 171700Z 23006KT 3000 BR SCT020 SCT025 BKN100 29/25 Q1005 NOSIG=
202507171730 METAR VABB 171730Z 24004KT 3000 BR SCT020 SCT025 BKN100 29/25 Q1005 NOSIG=
202507171800 METAR VABB 171800Z 24009KT 3000 BR SCT020 SCT025 BKN100 29/26 Q1005 NOSIG=
202507171830 METAR VABB 171830Z 24009KT 3000 BR SCT020 SCT025 BKN100 29/25 Q1006 NOSIG=
202507171900 METAR VABB 171900Z 24007KT 3000 BR SCT020 SCT025 BKN100 29/25 Q1005 NOSIG=
202507171930 METAR VABB 171930Z 24008KT 3000 BR SCT020 SCT025 BKN100 29/25 Q1005 NOSIG=
202507172000 METAR VABB 172000Z 23007KT 3000 BR SCT020 SCT025 BKN100 29/25 Q1005 NOSIG=
202507172030 METAR VABB 172030Z 25007KT 3000 BR SCT020 SCT025 BKN100 29/25 Q1005 NOSIG=
202507172100 METAR VABB 172100Z 24008KT 3000 BR SCT020 SCT025 BKN100 29/25 Q1004 NOSIG=
202507172130 METAR VABB 172130Z 24008KT 3000 BR SCT020 SCT025 BKN100 29/25 Q1004 NOSIG=
202507172200 METAR VABB 172200Z 24006KT 3000 BR SCT020 SCT025 BKN100 28/25 Q1004 NOSIG=
202507172230 METAR VABB 172230Z 25006KT 3000 BR SCT020 SCT025 BKN100 28/25 Q1004 NOSIG=
202507172300 METAR VABB 172300Z 24008KT 3000 BR SCT020 SCT025 BKN100 29/25 Q1004 NOSIG=
202507172330 METAR VABB 172330Z 24007KT 3000 BR SCT020 SCT025 BKN100 28/25 Q1004 NOSIG=
202507180000 METAR VABB 180000Z 24006KT 3000 BR SCT020 SCT025 BKN100 28/25 Q1004 NOSIG=
202507180030 METAR VABB 180030Z 24007KT 3000 BR SCT020 SCT025 BKN100 28/25 Q1004 NOSIG=
202507180100 METAR VABB 180100Z 23005KT 3000 BR SCT020 SCT025 BKN100 29/25 Q1004 NOSIG=
202507180130 METAR VABB 180130Z 23005KT 3000 BR SCT020 SCT025 BKN100 28/25 Q1005 NOSIG=
202507180200 METAR VABB 180200Z 25008KT 3000 BR FEW020 SCT025 BKN100 29/25 Q1005 NOSIG=
202507180230 METAR VABB 180230Z 26008KT 3000 BR FEW020 SCT025 BKN100 29/26 Q1005 NOSIG=
202507180300 METAR VABB 180300Z 27009KT 3000 HZ FEW020 SCT025 BKN100 29/25 Q1005 NOSIG=
202507180330 METAR VABB 180330Z 27008KT 3000 HZ FEW020 SCT025 BKN100 30/25 Q1005 NOSIG=
202507180400 METAR VABB 180400Z 26008KT 3000 HZ FEW020 SCT025 BKN100 30/26 Q1006 NOSIG=
202507180430 METAR VABB 180430Z 25009KT 3000 HZ FEW020 SCT025 BKN100 30/25 Q1006 NOSIG=
202507180500 METAR VABB 180500Z 27010KT 3000 HZ FEW020 SCT025 BKN100 30/25 Q1006 NOSIG=
202507180530 METAR VABB 180530Z 28011KT 3000 HZ FEW020 SCT025 BKN100 30/25 Q1006 NOSIG=
202507180600 METAR VABB 180600Z 25009KT 3000 HZ FEW020 SCT025 BKN100 31/26 Q1006 NOSIG=
202507180630 METAR VABB 180630Z 27012KT 3000 HZ FEW020 SCT025 BKN100 31/24 Q1006 NOSIG=
202507180700 METAR VABB 180700Z 27010KT 3500 HZ FEW020 SCT025 BKN100 31/26 Q1006 NOSIG=
202507180730 METAR VABB 180730Z 28011KT 3500 HZ FEW020 SCT025 BKN100 31/25 Q1005 NOSIG=
202507180800 METAR VABB 180800Z 27010KT 3500 HZ FEW020 SCT025 BKN100 31/25 Q1005 NOSIG=
202507180830 METAR VABB 180830Z 28011KT 3500 HZ FEW020 SCT025 BKN100 31/26 Q1005 NOSIG=
202507180900 METAR VABB 180900Z 27007G17KT 3500 HZ FEW020 SCT025 BKN100 31/24 Q1004 NOSIG=
202507180930 METAR VABB 180930Z 28011KT 3500 HZ FEW020 SCT025 BKN100 31/25 Q1004 NOSIG=
202507181000 METAR VABB 181000Z 30010KT 3500 HZ FEW020 SCT025 BKN100 30/23 Q1004 NOSIG=
202507181030 METAR VABB 181030Z 30007G17KT 3500 HZ FEW020 SCT025 BKN100 30/23 Q1003 NOSIG=
202507181100 METAR VABB 181100Z 27014KT 3500 HZ FEW020 SCT025 BKN100 31/25 Q1003 NOSIG=
202507181130 METAR VABB 181130Z 29012KT 3500 HZ FEW020 SCT025 BKN100 31/25 Q1003 NOSIG=
202507181200 METAR VABB 181200Z 30010KT 3500 HZ FEW020 SCT025 BKN100 31/25 Q1003 NOSIG=
202507181230 METAR VABB 181230Z 30008KT 3500 HZ FEW020 SCT025 BKN100 30/24 Q1003 NOSIG=
202507181300 METAR VABB 181300Z 30008KT 3500 HZ FEW020 SCT025 BKN100 29/24 Q1003 NOSIG=
202507181330 METAR VABB 181330Z 29005KT 3500 HZ FEW020 SCT025 BKN100 29/24 Q1004 BECMG 3000 HZ=
202507181400 METAR VABB 181400Z 30004KT 3000 HZ FEW020 SCT025 BKN100 29/26 Q1004 NOSIG=
202507181430 METAR VABB 181430Z 26010KT 3000 HZ FEW020 SCT025 BKN100 30/25 Q1004 NOSIG=
202507181500 METAR VABB 181500Z 27009KT 3000 HZ FEW020 SCT025 BKN100 29/25 Q1004 NOSIG=
202507181530 METAR VABB 181530Z 27008KT 3000 HZ FEW020 SCT025 BKN100 29/25 Q1004 NOSIG=
202507181600 METAR VABB 181600Z 25010KT 3000 HZ FEW020 SCT025 BKN100 29/25 Q1005 NOSIG=
202507181630 METAR VABB 181630Z 25009KT 3000 HZ FEW020 SCT025 BKN100 29/25 Q1005 NOSIG=
202507181700 METAR VABB 181700Z 25009KT 3000 HZ FEW020 SCT025 BKN100 29/25 Q1005 NOSIG=
202507181730 METAR VABB 181730Z 26009KT 3000 HZ FEW020 SCT025 BKN100 29/25 Q1005 NOSIG=
202507181800 METAR VABB 181800Z 26009KT 3000 HZ FEW020 SCT025 BKN100 29/25 Q1004 NOSIG=
202507181830 METAR VABB 181830Z 26009KT 3000 HZ FEW020 SCT025 BKN100 29/25 Q1004 NOSIG=
202507181900 METAR VABB 181900Z 24008KT 3000 HZ FEW020 SCT025 BKN100 29/25 Q1004 NOSIG=
202507181930 METAR VABB 181930Z 25010KT 3000 HZ FEW020 SCT025 BKN100 29/25 Q1003 NOSIG=
202507182000 METAR VABB 182000Z 25008KT 3000 HZ FEW020 SCT025 BKN100 29/25 Q1003 NOSIG=
202507182030 METAR VABB 182030Z 26008KT 3000 HZ FEW020 SCT025 BKN100 29/25 Q1003 NOSIG=
202507182100 METAR VABB 182100Z 25008KT 3000 HZ FEW020 SCT025 BKN100 29/25 Q1002 NOSIG=
202507182130 METAR VABB 182130Z 25009KT 3000 HZ FEW020 SCT025 BKN100 29/25 Q1002 NOSIG=
202507182200 METAR VABB 182200Z 23005KT 3000 HZ FEW020 SCT025 BKN100 28/25 Q1002 NOSIG=
202507182230 METAR VABB 182230Z 25006KT 3000 HZ FEW020 SCT025 BKN100 28/25 Q1002 NOSIG=
202507182300 METAR VABB 182300Z 24008KT 2500 -DZ SCT018 SCT025 BKN100 28/25 Q1002 NOSIG=
202507182330 METAR VABB 182330Z 25008KT 2500 BR SCT020 SCT025 BKN100 28/25 Q1002 NOSIG=
202507190000 METAR VABB 190000Z 24007KT 2500 BR SCT020 SCT025 BKN100 28/25 Q1002 NOSIG=
202507190030 METAR VABB 190030Z 25008KT 2500 BR SCT020 SCT025 BKN100 28/25 Q1002 NOSIG=
202507190100 METAR VABB 190100Z 24006KT 2500 BR FEW020 SCT025 BKN100 28/25 Q1002 BECMG 3000 BR=
202507190130 METAR VABB 190130Z 25008KT 3000 BR FEW020 SCT025 BKN100 28/25 Q1002 NOSIG=
202507190200 METAR VABB 190200Z 25011KT 3000 BR FEW020 SCT025 BKN100 29/25 Q1003 NOSIG=
202507190230 METAR VABB 190230Z 25010KT 3000 BR FEW020 SCT025 BKN100 29/25 Q1003 NOSIG=
202507190300 METAR VABB 190300Z 26008KT 3000 BR FEW020 SCT025 BKN100 28/24 Q1003 NOSIG=
202507190330 METAR VABB 190330Z 27008KT 3000 HZ FEW020 SCT025 BKN100 29/24 Q1003 NOSIG=
202507190400 METAR VABB 190400Z 28010KT 3000 HZ FEW020 SCT025 BKN100 29/24 Q1004 NOSIG=
202507190430 METAR VABB 190430Z 25009KT 3000 HZ FEW020 SCT025 BKN100 29/24 Q1004 NOSIG=
202507190500 METAR VABB 190500Z 24012KT 3500 HZ FEW020 SCT025 BKN100 30/25 Q1004 NOSIG=
202507190530 METAR VABB 190530Z 26011KT 3500 HZ FEW020 SCT025 BKN100 31/25 Q1004 NOSIG=
202507190600 METAR VABB 190600Z 26011KT 3500 HZ FEW020 SCT025 BKN100 30/25 Q1004 NOSIG=
202507190630 METAR VABB 190630Z 27011KT 2500 VCSH FEW020 SCT025 BKN100 30/25 Q1003 NOSIG=
202507190700 METAR VABB 190700Z 27009KT 2500 HZ FEW020 SCT025 BKN100 30/24 Q1003 BECMG 3000 HZ=
202507190730 METAR VABB 190730Z 26011KT 3000 HZ FEW020 SCT025 BKN100 29/24 Q1003 NOSIG=
202507190800 METAR VABB 190800Z 29008KT 3000 HZ FEW020 SCT025 BKN100 29/25 Q1003 NOSIG=
202507190830 METAR VABB 190830Z 27008G18KT 3000 HZ FEW020 SCT025 BKN100 31/25 Q1002 NOSIG=
202507190900 METAR VABB 190900Z 27007G17KT 3500 HZ FEW020 SCT025 BKN100 31/25 Q1002 NOSIG=
202507190930 METAR VABB 190930Z 26011G21KT 3500 HZ FEW020 SCT025 BKN100 31/25 Q1001 NOSIG=
202507191000 METAR VABB 191000Z 27011KT 3500 HZ FEW020 SCT025 BKN100 31/25 Q1001 NOSIG=
202507191030 METAR VABB 191030Z 26009G19KT 3500 HZ SCT020 SCT025 BKN100 31/26 Q1001 NOSIG=
202507191100 METAR VABB 191100Z 28011KT 3500 HZ SCT020 SCT025 BKN100 31/26 Q1000 NOSIG=
202507191130 METAR VABB 191130Z 24011KT 2500 DZ SCT018 FEW025TCU BKN100 30/26 Q1000 NOSIG=
202507191200 METAR VABB 191200Z 27007G17KT 2500 HZ SCT018 FEW025TCU BKN100 31/25 Q1000 NOSIG=
202507191230 METAR VABB 191230Z 28008G18KT 2500 HZ SCT018 FEW025TCU BKN100 30/25 Q1000 NOSIG=
202507191300 METAR VABB 191300Z 27012KT 3000 HZ SCT018 FEW025TCU BKN100 30/25 Q1001 NOSIG=
202507191330 METAR VABB 191330Z 26009KT 3000 HZ SCT018 FEW025TCU BKN100 30/25 Q1001 NOSIG=
202507191400 METAR VABB 191400Z 26010KT 3000 HZ SCT018 FEW025TCU BKN100 29/25 Q1001 NOSIG=
202507191430 METAR VABB 191430Z 25011KT 3000 HZ SCT018 SCT025 BKN100 29/25 Q1002 NOSIG=
202507191500 METAR VABB 191500Z 25010KT 3000 HZ FEW018 SCT025 29/25 Q1002 NOSIG=
202507191530 METAR VABB 191530Z 25011KT 3000 HZ FEW018 SCT025 29/25 Q1002 NOSIG=
202507191600 METAR VABB 191600Z 25010KT 3000 HZ SCT018 SCT025 29/25 Q1003 NOSIG=
202507191630 METAR VABB 191630Z 24008KT 3000 HZ SCT018 SCT025 29/25 Q1003 NOSIG=
202507191700 METAR VABB 191700Z 23008G18KT 3000 -SHRA SCT018 FEW025TCU SCT100 28/25 Q1003 TEMPO 1500 SHRA=
202507191730 METAR VABB 191730Z 24008KT 3000 HZ SCT018 FEW025TCU SCT100 28/25 Q1003 NOSIG=
202507191800 METAR VABB 191800Z 23007KT 3000 BR SCT018 FEW025TCU SCT100 28/26 Q1003 NOSIG=
202507191830 METAR VABB 191830Z 23009KT 3000 BR SCT018 FEW025TCU SCT100 29/25 Q1002 NOSIG=
202507191900 METAR VABB 191900Z 23008KT 3000 BR SCT018 SCT100 28/25 Q1002 NOSIG=
202507191930 METAR VABB 191930Z 23008KT 3000 BR SCT018 SCT100 29/25 Q1002 NOSIG=
202507192000 METAR VABB 192000Z 24008KT 3000 BR SCT018 SCT025 28/25 Q1002 NOSIG=
202507192030 METAR VABB 192030Z 24008KT 3000 BR SCT018 SCT025 28/26 Q1001 NOSIG=
202507192100 METAR VABB 192100Z 24007KT 3000 BR SCT018 SCT025 28/25 Q1001 NOSIG=
202507192130 METAR VABB 192130Z 24007KT 3000 BR SCT018 SCT025 28/26 Q1001 NOSIG=
202507192200 METAR VABB 192200Z 24006KT 3000 BR SCT018 SCT025 28/25 Q1001 NOSIG=
202507192230 METAR VABB 192230Z 25007KT 3000 BR SCT018 SCT025 28/25 Q1001 NOSIG=
202507192300 METAR VABB 192300Z 23007KT 3000 BR SCT018 SCT025 28/25 Q1001 NOSIG=
202507192330 METAR VABB 192330Z 24008KT 3000 BR SCT018 SCT025 28/25 Q1000 NOSIG=
202507200000 METAR VABB 200000Z 23007KT 3000 BR SCT018 SCT025 28/25 Q1000 NOSIG=
202507200030 METAR VABB 200030Z 22007KT 3000 BR SCT018 SCT025 28/25 Q1001 NOSIG=
202507200100 METAR VABB 200100Z 23005KT 3000 BR SCT018 SCT025 28/25 Q1001 NOSIG=
202507200130 METAR VABB 200130Z 25005KT 3000 BR SCT018 FEW025TCU 28/25 Q1001 NOSIG=
202507200200 METAR VABB 200200Z 20004KT 3000 BR SCT018 FEW025TCU 28/25 Q1001 NOSIG=
202507200230 METAR VABB 200230Z 24011KT 3000 -SHRA SCT018 FEW025TCU 28/26 Q1002 TEMPO 1500 SHRA=
202507200330 METAR VABB 200330Z 21009KT 4000 BR SCT020 FEW025TCU 29/25 Q1002 BECMG 5000 HZ=
202507200400 METAR VABB 200400Z 22010KT 4000 HZ SCT020 FEW025TCU 29/25 Q1002 NOSIG=
202507200430 METAR VABB 200430Z 25009KT 4000 HZ SCT020 FEW025TCU 29/26 Q1002 NOSIG=
202507200500 METAR VABB 200500Z 23012KT 4000 HZ SCT020 FEW025TCU 29/25 Q1002 NOSIG=
202507200530 METAR VABB 200530Z 25011KT 4000 HZ SCT020 FEW025TCU BKN100 30/26 Q1002 BECMG 3000 HZ=
202507200600 METAR VABB 200600Z 31011KT 3000 -SHRA SCT018 FEW025TCU BKN090 28/26 Q1002 TEMPO 1500 SHRA=
202507200630 METAR VABB 200630Z 27008G18KT 1500 SHRA FEW010 SCT018 FEW025TCU OVC090 27/25 Q1002 TEMPO 0800 +SHRA=
202507200648 METAR VABB 200648Z 22012G22KT 2500 -SHRA FEW010 SCT018 FEW025TCU OVC090 26/26 Q1002 TEMPO 1500 SHRA=
202507200700 METAR VABB 200700Z 22011KT 2500 -SHRA FEW010 SCT018 FEW025TCU OVC090 26/25 Q1002 TEMPO 1500 SHRA=
202507200730 METAR VABB 200730Z 22009KT 2500 DZ FEW010 SCT018 FEW025TCU OVC090 26/25 Q1002 NOSIG=
202507200800 METAR VABB 200800Z 22009KT 2500 -SHRA FEW010 SCT018 FEW025TCU OVC090 28/26 Q1001 TEMPO 1500 SHRA=
202507200830 METAR VABB 200830Z 25007G17KT 2100 RA FEW010 SCT018 FEW025TCU OVC090 27/26 Q1001 TEMPO 1500 SHRA=
202507200900 METAR VABB 200900Z 27007KT 2500 DZ SCT018 FEW025TCU OVC090 27/24 Q1001 NOSIG=
202507200930 METAR VABB 200930Z 22005KT 2500 BR SCT018 FEW025TCU OVC090 28/25 Q1001 BECMG 3000 BR=
202507201000 METAR VABB 201000Z 27006KT 3000 BR SCT018 FEW025TCU OVC090 29/25 Q1000 NOSIG=
202507201030 METAR VABB 201030Z 26007KT 3000 VCSH FEW012 SCT018 FEW025TCU OVC090 29/25 Q1000 TEMPO 1500 SHRA=
202507201100 METAR VABB 201100Z 22009KT 3000 VCSH FEW012 SCT018 FEW025TCU BKN090 28/25 Q1000 NOSIG=
202507201130 METAR VABB 201130Z 24007KT 2500 VCSH FEW012 SCT018 FEW025TCU OVC090 27/25 Q1000 TEMPO 1500 SHRA=
202507201200 METAR VABB 201200Z 32005KT 2500 BR FEW012 SCT018 FEW025TCU OVC090 27/25 Q1000 NOSIG=
202507201230 METAR VABB 201230Z 22003KT 2500 BR SCT018 FEW025TCU OVC090 27/24 Q1000 NOSIG=
202507201300 METAR VABB 201300Z 16004KT 3000 BR SCT018 FEW025TCU OVC090 28/25 Q1000 NOSIG=
202507201330 METAR VABB 201330Z 14005KT 3000 VCSH SCT018 FEW025TCU OVC090 28/25 Q1001 NOSIG=
202507201400 METAR VABB 201400Z 16003KT 2500 VCSH FEW012 SCT018 FEW025TCU OVC090 28/25 Q1001 TEMPO 1500 SHRA=
202507201430 METAR VABB 201430Z 00000KT 2100 -RA FEW012 SCT018 FEW025TCU OVC090 26/25 Q1001 TEMPO 1500 SHRA=
202507201500 METAR VABB 201500Z 00000KT 2100 DZ FEW012 SCT018 FEW025TCU OVC090 26/24 Q1002 TEMPO 1500 SHRA=
202507201530 METAR VABB 201530Z 14005KT 2100 BR FEW012 SCT018 FEW025TCU OVC090 26/24 Q1002 TEMPO 1500 SHRA=
202507201600 METAR VABB 201600Z 12008KT 2500 BR FEW012 SCT018 FEW025TCU OVC090 26/25 Q1002 TEMPO 1500 SHRA=
202507201630 METAR VABB 201630Z 15006KT 2500 BR FEW012 SCT018 FEW025TCU OVC090 27/25 Q1003 TEMPO 1500 SHRA=
202507201700 METAR VABB 201700Z 00000KT 2500 BR FEW012 SCT018 FEW025TCU OVC090 26/24 Q1003 TEMPO 1500 SHRA=
202507201730 METAR VABB 201730Z 00000KT 2500 BR FEW012 SCT018 FEW025TCU OVC090 26/24 Q1003 TEMPO 1500 SHRA=
202507201800 METAR VABB 201800Z 00000KT 2500 BR FEW012 SCT018 FEW025TCU OVC090 26/24 Q1003 TEMPO 1500 SHRA=
202507201830 METAR VABB 201830Z 00000KT 2500 BR FEW012 SCT018 FEW025TCU OVC090 26/25 Q1003 TEMPO 1500 SHRA=
202507201900 METAR VABB 201900Z 13003KT 2500 BR FEW012 SCT018 FEW025TCU OVC090 26/24 Q1003 TEMPO 1500 SHRA=
202507201930 METAR VABB 201930Z 11003KT 2500 BR FEW012 SCT018 FEW025TCU OVC090 26/24 Q1002 NOSIG=
202507202000 METAR VABB 202000Z 13004KT 2500 BR FEW020 SCT025 BKN100 26/24 Q1002 NOSIG=
202507202030 METAR VABB 202030Z 13004KT 2500 BR FEW020 SCT025 BKN100 26/24 Q1002 NOSIG=
202507202100 METAR VABB 202100Z 11004KT 2500 BR FEW020 SCT025 BKN100 26/24 Q1002 NOSIG=
202507202130 METAR VABB 202130Z 12005KT 2500 BR FEW020 SCT025 BKN100 26/24 Q1001 NOSIG=
202507202200 METAR VABB 202200Z 12004KT 2500 BR FEW020 SCT025 BKN100 26/25 Q1001 NOSIG=
202507202230 METAR VABB 202230Z 11004KT 2500 BR FEW020 SCT025 BKN100 26/25 Q1001 NOSIG=
202507202300 METAR VABB 202300Z 11004KT 2500 -RA FEW020 SCT025 BKN100 26/25 Q1001 TEMPO 1500 SHRA=
202507202330 METAR VABB 202330Z 12004KT 2500 BR FEW020 SCT025 BKN100 26/25 Q1001 NOSIG=
202507210000 METAR VABB 210000Z 13006KT 2500 BR FEW020 SCT025 BKN100 26/25 Q1001 NOSIG=
202507210030 METAR VABB 210030Z 14004KT 1500 RA FEW012 SCT018 FEW025TCU BKN090 26/25 Q1002 TEMPO 0800 +SHRA=
202507210100 METAR VABB 210100Z 23005KT 2100 -DZ FEW012 SCT018 FEW025TCU BKN090 26/25 Q1002 NOSIG=
202507210130 METAR VABB 210130Z 13005KT 0800 R27 RVR 1000 +RA FEW012 SCT018 FEW025TCU BKN090 26/25 Q1003 TEMPO 0600 +RA=
202507210200 METAR COR VABB 210200Z 06005KT 0800 R27/1000 +RA FEW012 SCT018 FEW025TCU BKN090 26/25 Q1003 TEMPO 0600 +RA=
202507210230 METAR VABB 210230Z 09008KT 0800 RR27/1000 +RA FEW012 SCT018 FEW025TCU OVC090 25/25 Q1003 TEMPO 0600 +RA=
202507210300 METAR VABB 210300Z 12007KT 2100 -RA FEW010 SCT018 FEW025TCU OVC080 25/25 Q1003 TEMPO 1500 SHRA=
202507210330 METAR VABB 210330Z 35005KT 1000 R27/1200 +TSRA SCT008 SCT018 FEW030CB OVC080 25/25 Q1004 TEMPO 0600 +TSRA=
202507210400 METAR VABB 210400Z 18004KT 1000 R27/1200 TSRA SCT006 SCT018 FEW030CB OVC080 25/25 Q1004 TEMPO 0600 +TSRA=
202507210426 METAR VABB 210426Z 25005KT 1400 R27/1600 TSRA SCT008 SCT018 FEW030CB OVC080 25/25 Q1004 TEMPO 0800 +TSRA=
202507210500 METAR VABB 210500Z 19003KT 2500 -RA SCT010 SCT018 FEW030CB OVC080 26/25 Q1004 TEMPO 1500 TSRA=
202507210530 METAR VABB 210530Z 17003KT 2500 -RA SCT010 SCT018 FEW030CB OVC080 26/25 Q1004 TEMPO 1500 SHRA=
202507210600 METAR VABB 210600Z 22003KT 2500 BR FEW012 SCT018 FEW030CB BKN090 27/25 Q1004 NOSIG=
202507210630 METAR VABB 210630Z 29004KT 2500 BR FEW012 SCT018 FEW030CB BKN090 28/26 Q1004 TEMPO 1500 SHRA=
202507210700 METAR VABB 210700Z 23008KT 2100 -RA FEW008 SCT018 FEW030CB OVC080 27/26 Q1003 TEMPO 1500 SHRA=
202507210730 METAR VABB 210730Z 25006KT 2500 -RA FEW008 SCT018 FEW030CB OVC080 26/25 Q1003 TEMPO 1500 SHRA=
202507210800 METAR VABB 210800Z 26010KT 2500 -RA FEW008 SCT018 FEW030CB OVC080 26/25 Q1003 TEMPO 1500 SHRA=
202507210830 METAR VABB 210830Z 23007KT 2100 -RA FEW008 SCT018 FEW030CB OVC080 26/25 Q1003 TEMPO 1500 SHRA=
202507210900 METAR VABB 210900Z 26009KT 2500 -RA FEW008 SCT018 FEW030CB OVC080 26/26 Q1003 TEMPO 1500 SHRA=
202507210930 METAR VABB 210930Z 24007KT 2100 -RA FEW008 SCT018 FEW030CB OVC080 27/26 Q1002 TEMPO 1500 SHRA=
202507211000 METAR VABB 211000Z 25009KT 2100 -RA FEW008 SCT018 FEW030CB OVC080 27/25 Q1002 TEMPO 1500 SHRA=
202507211030 METAR VABB 211030Z 24007KT 2500 -RA FEW012 SCT018 FEW030CB OVC080 27/25 Q1002 TEMPO 1500 SHRA=
202507211100 METAR VABB 211100Z 24007KT 2500 -RA FEW012 SCT018 FEW030CB OVC080 27/26 Q1002 TEMPO 1500 SHRA=
202507211130 METAR VABB 211130Z 26011KT 2500 -RA FEW012 SCT018 FEW030CB OVC080 27/25 Q1002 TEMPO 1500 SHRA=
202507211200 METAR VABB 211200Z 25007KT 2500 -DZ FEW012 SCT018 FEW030CB OVC080 27/25 Q1002 NOSIG=
202507211230 METAR VABB 211230Z 23005KT 2500 BR FEW012 SCT018 FEW025TCU OVC080 27/26 Q1002 TEMPO 1500 SHRA=
202507211300 METAR VABB 211300Z 24004KT 2500 BR FEW012 SCT018 FEW025TCU OVC080 27/26 Q1002 NOSIG=
202507211330 METAR VABB 211330Z 22005KT 2500 BR FEW012 SCT018 FEW025TCU BKN090 27/25 Q1003 TEMPO 1500 SHRA=
202507211400 METAR VABB 211400Z 19003KT 2500 VCSH FEW012 SCT018 FEW025TCU BKN090 27/25 Q1003 NOSIG=
202507211430 METAR VABB 211430Z 33004KT 2100 RA FEW012 SCT018 FEW025TCU OVC090 25/24 Q1004 TEMPO 1500 SHRA=
202507211500 METAR VABB 211500Z 23004KT 2100 -RA FEW012 SCT018 FEW025TCU OVC090 26/24 Q1004 TEMPO 1500 SHRA=
202507211530 METAR VABB 211530Z 16003KT 2500 BR FEW012 SCT018 FEW025TCU BKN090 25/24 Q1004 NOSIG=
202507211600 METAR VABB 211600Z 18004KT 2500 BR FEW012 SCT018 FEW025TCU BKN090 26/24 Q1005 NOSIG=
202507211630 METAR VABB 211630Z 00000KT 2500 BR FEW012 SCT018 FEW030CB BKN090 26/24 Q1005 TEMPO 1500 SHRA=
202507211700 METAR VABB 211700Z 14003KT 2500 -RA FEW012 SCT018 FEW030CB OVC090 26/24 Q1005 TEMPO 1500 SHRA=
202507211730 METAR VABB 211730Z 22004KT 2500 -RA FEW012 SCT018 FEW030CB OVC090 26/24 Q1005 TEMPO 1500 SHRA=
202507211800 METAR VABB 211800Z 22007KT 2500 BR FEW012 SCT018 FEW025TCU OVC090 25/24 Q1005 TEMPO 1500 SHRA=
202507211830 METAR VABB 211830Z 22004KT 2500 BR FEW012 SCT018 FEW025TCU OVC090 26/24 Q1004 NOSIG=
202507211900 METAR VABB 211900Z 00000KT 2500 -RA FEW012 SCT018 FEW025TCU OVC090 26/24 Q1004 NOSIG=
202507211930 METAR VABB 211930Z 19003KT 2500 BR FEW012 SCT018 FEW025TCU OVC090 26/25 Q1004 NOSIG=
202507212000 METAR VABB 212000Z 00000KT 2500 BR FEW012 SCT018 FEW025TCU OVC090 26/25 Q1004 NOSIG=
202507212030 METAR VABB 212030Z 18003KT 2500 BR FEW012 SCT018 FEW025TCU OVC090 27/25 Q1003 NOSIG=
202507212100 METAR VABB 212100Z 17004KT 2500 BR SCT018 FEW025TCU OVC090 26/25 Q1003 NOSIG=
202507212130 METAR VABB 212130Z 17004KT 2500 BR SCT018 FEW025TCU OVC090 26/25 Q1003 NOSIG=
202507212205 METAR VABB 212205Z 17003KT 2100 SHRA FEW012 SCT018 FEW030CB OVC090 26/25 Q1003 TEMPO 1500 SHRA=
202507212230 METAR VABB 212230Z 35006KT 2500 DZ FEW012 SCT018 FEW030CB OVC090 26/25 Q1003 NOSIG=
202507212300 METAR VABB 212300Z 26004KT 2500 BR FEW012 SCT018 FEW030CB OVC090 26/25 Q1003 NOSIG=
202507212330 METAR VABB 212330Z 16003KT 2500 BR FEW012 SCT018 FEW030CB OVC090 26/25 Q1003 NOSIG=
202507220000 METAR VABB 220000Z 18005KT 2500 DZ FEW012 SCT018 FEW030CB OVC090 26/25 Q1004 NOSIG=
202507220030 METAR VABB 220030Z 11004KT 2500 BR FEW012 SCT018 FEW030CB OVC090 26/25 Q1004 TEMPO 1500 SHRA=
202507220100 METAR VABB 220100Z 17007KT 2500 BR FEW012 SCT018 FEW030CB OVC090 26/25 Q1004 TEMPO 1500 SHRA=
202507220130 METAR VABB 220130Z 16005KT 2500 BR FEW012 SCT018 FEW030CB OVC090 25/24 Q1004 TEMPO 1500 SHRA=
202507220200 METAR VABB 220200Z 17003KT 1500 R27/2000 SHRA FEW010 SCT018 FEW030CB OVC080 25/24 Q1004 TEMPO 0800 +SHRA=
202507220230 METAR VABB 220230Z 20003KT 2100 BR FEW010 SCT018 FEW030CB OVC080 26/24 Q1005 TEMPO 1500 SHRA=
202507220300 METAR VABB 220300Z 13005KT 1500 RA SCT010 SCT018 FEW030CB OVC080 26/25 Q1005 TEMPO 0800 +SHRA=
202507220307 METAR VABB 220307Z 13005KT 1500 RA SCT010 SCT018 FEW030CB OVC080 26/25 Q1005 TEMPO 0800 +SHRA=
202507220330 METAR VABB 220330Z 33004KT 1000 R27/1200 +RA SCT010 SCT018 FEW030CB OVC080 26/25 Q1005 TEMPO 0800 +SHRA=
202507220400 METAR VABB 220400Z 00000KT 1800 -RA SCT010 SCT018 FEW030CB OVC080 26/25 Q1005 TEMPO 1500 SHRA=
202507220430 METAR VABB 220430Z 26008KT 1800 RA SCT010 SCT018 FEW030CB OVC080 26/25 Q1005 TEMPO 1500 SHRA=
202507220500 METAR VABB 220500Z 26005KT 2100 -DZ SCT010 SCT018 FEW030CB OVC080 27/24 Q1005 TEMPO 1500 SHRA=
202507220530 METAR VABB 220530Z 22006KT 2500 BR SCT010 SCT018 FEW030CB OVC080 27/25 Q1005 TEMPO 1500 SHRA=
202507220600 METAR VABB 220600Z 23007KT 2500 BR SCT018 FEW030CB OVC090 28/25 Q1005 TEMPO 1500 SHRA=
202507220630 METAR VABB 220630Z 22006KT 2500 BR SCT018 FEW030CB OVC090 29/26 Q1004 TEMPO 1500 SHRA=
202507220700 METAR VABB 220700Z 28009KT 2500 BR SCT018 FEW030CB BKN090 29/26 Q1004 TEMPO 1500 SHRA=
202507220730 METAR VABB 220730Z 25011KT 2500 VCSH SCT018 FEW030CB OVC090 29/26 Q1004 TEMPO 1500 SHRA=
202507220800 METAR VABB 220800Z 25009KT 2500 -DZ FEW010 SCT018 FEW030CB OVC090 28/26 Q1003 TEMPO 1500 SHRA=
202507220830 METAR VABB 220830Z 26009G19KT 2500 BR SCT018 FEW030CB OVC090 29/25 Q1003 TEMPO 1500 SHRA=
202507220900 METAR VABB 220900Z 28010G20KT 2500 BR SCT018 FEW030CB OVC080 28/24 Q1003 TEMPO 1500 SHRA=
202507220930 METAR VABB 220930Z 29010G20KT 2500 BR SCT018 FEW030CB OVC080 28/25 Q1002 TEMPO 1500 SHRA=
202507221000 METAR VABB 221000Z 29009G19KT 2500 BR SCT018 FEW030CB OVC090 27/25 Q1002 TEMPO 1500 SHRA=
202507221030 METAR VABB 221030Z 29008G18KT 2500 BR SCT018 FEW030CB OVC090 27/24 Q1002 TEMPO 1500 SHRA=
202507221100 METAR VABB 221100Z 28011KT 2500 BR SCT018 FEW030CB BKN090 28/25 Q1002 TEMPO 1500 SHRA=
202507221130 METAR VABB 221130Z 29008G18KT 2500 BR SCT018 FEW030CB BKN090 28/25 Q1002 TEMPO 1500 SHRA=
202507221200 METAR VABB 221200Z 29012KT 2500 BR SCT018 FEW030CB BKN090 28/24 Q1002 TEMPO 1500 SHRA=
202507221230 METAR VABB 221230Z 30013KT 2500 BR SCT018 FEW030CB BKN090 28/24 Q1002 TEMPO 1500 SHRA=
202507221300 METAR VABB 221300Z 29013KT 2500 BR SCT018 FEW030CB BKN090 27/24 Q1003 TEMPO 1500 SHRA=
202507221330 METAR VABB 221330Z 25009KT 2100 DZ FEW012 SCT018 FEW030CB OVC080 27/26 Q1003 TEMPO 1500 SHRA=
202507221356 METAR VABB 221356Z 25007G17KT 1500 +RA FEW012 SCT018 FEW030CB OVC080 26/25 Q1003 TEMPO 0800 +SHRA=
202507221430 METAR VABB 221430Z 28008G18KT 1500 +RA FEW012 SCT018 FEW030CB OVC080 25/25 Q1004 TEMPO 0800 +RA=
202507221500 METAR VABB 221500Z 26013KT 2100 RA FEW012 SCT018 FEW030CB OVC080 25/25 Q1004 TEMPO 1500 SHRA=
202507221530 METAR VABB 221530Z 26009KT 2100 -RA FEW012 SCT018 FEW030CB OVC080 25/25 Q1004 TEMPO 1500 SHRA=
202507221600 METAR VABB 221600Z 26007KT 2100 -RA FEW012 SCT018 FEW030CB OVC080 26/25 Q1004 TEMPO 1500 SHRA=
202507221630 METAR VABB 221630Z 24007KT 2100 -RA FEW012 SCT018 FEW030CB OVC080 26/25 Q1004 TEMPO 1500 SHRA=
202507221700 METAR VABB 221700Z 28005KT 2100 -RA FEW012 SCT018 FEW030CB OVC080 26/24 Q1005 TEMPO 1500 SHRA=
202507221730 METAR VABB 221730Z 25006KT 2100 -RA FEW012 SCT018 FEW030CB OVC080 26/25 Q1005 TEMPO 1500 SHRA=
202507221800 METAR VABB 221800Z 27010KT 2100 -RA FEW012 SCT018 FEW030CB OVC080 25/24 Q1005 TEMPO 1500 SHRA=
202507221830 METAR VABB 221830Z 29005KT 2100 DZ FEW012 SCT018 FEW030CB OVC080 25/24 Q1004 TEMPO 1500 SHRA=
202507221900 METAR VABB 221900Z 00000KT 2100 DZ FEW012 SCT018 FEW030CB OVC080 26/24 Q1004 TEMPO 1500 SHRA=
202507221930 METAR VABB 221930Z 27008KT 2100 -DZ FEW012 SCT018 FEW030CB OVC080 26/24 Q1004 TEMPO 1500 SHRA=
202507222000 METAR VABB 222000Z 27008KT 2100 -SHRA FEW012 SCT018 FEW030CB OVC080 27/24 Q1003 TEMPO 1500 SHRA=
202507222030 METAR VABB 222030Z 28006KT 2100 RA FEW012 SCT018 FEW030CB OVC080 25/24 Q1003 TEMPO 1500 SHRA=
202507222100 METAR VABB 222100Z 23003KT 2100 -DZ FEW012 SCT018 FEW030CB OVC080 25/24 Q1003 TEMPO 1500 SHRA=
202507222130 METAR VABB 222130Z 00000KT 2100 -DZ FEW012 SCT018 FEW030CB OVC080 25/24 Q1003 TEMPO 1500 SHRA=
202507222200 METAR VABB 222200Z 34004KT 2100 RA FEW010 SCT018 FEW030CB OVC080 25/24 Q1003 TEMPO 1500 SHRA=
202507222230 METAR VABB 222230Z 00000KT 2100 RA FEW010 SCT018 FEW030CB OVC080 25/24 Q1003 TEMPO 1500 SHRA=
202507222300 METAR VABB 222300Z 28004KT 2100 -RA FEW012 SCT018 FEW030CB OVC080 25/24 Q1002 TEMPO 1500 SHRA=
202507222330 METAR VABB 222330Z 15007KT 2100 -RA FEW012 SCT018 FEW030CB OVC080 25/24 Q1002 NOSIG=
202507230000 METAR VABB 230000Z 18005KT 2100 -RA FEW010 SCT018 FEW030CB OVC080 25/24 Q1002 TEMPO 1500 SHRA=
202507230030 METAR VABB 230030Z 18004KT 2500 -RA FEW010 SCT018 FEW030CB OVC080 25/24 Q1002 NOSIG=
202507230100 METAR VABB 230100Z 00000KT 2500 DZ FEW010 SCT018 FEW030CB OVC080 25/24 Q1002 NOSIG=
202507230130 METAR VABB 230130Z 11007KT 2500 DZ FEW010 SCT018 FEW030CB OVC080 25/24 Q1002 TEMPO 1500 SHRA=
202507230200 METAR VABB 230200Z 11007KT 2500 BR FEW010 SCT018 FEW030CB OVC080 25/24 Q1003 NOSIG=
202507230230 METAR VABB 230230Z 07007KT 2100 RA FEW010 SCT018 FEW030CB OVC080 26/25 Q1003 TEMPO 1500 SHRA=
202507230300 METAR VABB 230300Z 00000KT 1500 R27/1800 RA FEW010 SCT018 FEW030CB OVC080 25/24 Q1003 TEMPO 0800 +RA=
202507230330 METAR VABB 230330Z 12007KT 2100 -RA FEW012 SCT018 FEW030CB OVC080 25/25 Q1003 TEMPO 1500 RA=
202507230400 METAR VABB 230400Z 17004KT 1500 R27/1800 RA FEW010 SCT015 FEW030CB OVC080 26/25 Q1003 TEMPO 0800 +RA=
202507230430 METAR VABB 230430Z 36004KT 1800 R27/2000 -RA FEW012 SCT018 FEW030CB OVC080 26/25 Q1003 TEMPO 1500 RA=
202507230500 METAR VABB 230500Z 18004KT 1500 -RA FEW012 SCT018 FEW030CB OVC080 26/25 Q1003 TEMPO 0800 +RA=
202507230530 METAR VABB 230530Z 15004KT 2100 BR FEW012 SCT018 FEW025TCU OVC080 27/25 Q1003 TEMPO 1500 SHRA=
202507230557 METAR VABB 230557Z 32011KT 0500 R27/0800 +RA FEW012 SCT018 FEW025TCU OVC080 27/25 Q1003 TEMPO 0350 +RA=
202507230630 METAR VABB 230630Z 21012KT 1500 -DZ FEW012 SCT018 FEW025TCU OVC080 26/24 Q1003 TEMPO 0800 +RA=
202507230700 METAR VABB 230700Z 24011KT 2100 BR FEW012 SCT018 FEW025TCU OVC080 28/26 Q1003 TEMPO 1500 RA=
202507230730 METAR COR VABB 230730Z 28009G19KT 1200 R27/1500 RA FEW010 SCT015 FEW025TCU OVC080 25/25 Q1003 TEMPO 0800 +RA=
202507230800 METAR VABB 230800Z 29004KT 1200 R27/1500 RA FEW010 SCT015 FEW025TCU OVC080 26/25 Q1002 TEMPO 0800 +RA=
202507230830 METAR VABB 230830Z 25008KT 2100 -DZ FEW012 SCT018 FEW025TCU OVC080 26/24 Q1002 TEMPO 1500 SHRA=
202507230900 METAR VABB 230900Z 26007KT 2500 -DZ FEW012 SCT018 FEW025TCU OVC080 27/25 Q1002 TEMPO 1500 SHRA=
202507230930 METAR VABB 230930Z 27010KT 2500 -DZ FEW012 SCT018 FEW030CB OVC080 28/25 Q1001 TEMPO 1500 SHRA=
202507231000 METAR VABB 231000Z 26011G21KT 2100 -RA FEW012 SCT018 FEW030CB OVC080 27/24 Q1001 TEMPO 1500 SHRA=
202507231030 METAR VABB 231030Z 24007G17KT 2100 BR FEW012 SCT018 FEW030CB OVC080 28/25 Q1001 TEMPO 1500 SHRA=
202507231100 METAR VABB 231100Z 25011KT 2500 BR FEW012 SCT018 FEW030CB OVC080 28/25 Q1001 TEMPO 1500 SHRA=
202507231130 METAR VABB 231130Z 26011KT 2500 BR FEW012 SCT018 FEW030CB OVC080 28/25 Q1001 TEMPO 1500 SHRA=
202507231200 METAR VABB 231200Z 25011KT 2500 BR FEW012 SCT018 FEW030CB OVC080 28/25 Q1001 TEMPO 1500 SHRA=
202507231230 METAR VABB 231230Z 25012KT 2500 BR FEW012 SCT018 FEW030CB OVC080 28/25 Q1001 TEMPO 1500 SHRA=
202507231300 METAR VABB 231300Z 25012KT 2500 BR FEW012 SCT018 FEW025TCU OVC090 29/25 Q1001 TEMPO 1500 SHRA=
202507231330 METAR VABB 231330Z 32009KT 2100 -DZ FEW012 SCT018 FEW030CB OVC090 26/24 Q1001 TEMPO 1500 SHRA=
202507231400 METAR VABB 231400Z 34005KT 2100 BR FEW012 SCT018 FEW025TCU OVC080 27/25 Q1001 TEMPO 1500 SHRA=
202507231430 METAR VABB 231430Z 26008KT 2100 -RA FEW012 SCT018 FEW025TCU OVC080 26/24 Q1002 TEMPO 1500 SHRA=
202507231500 METAR VABB 231500Z 25009KT 2100 -RA FEW012 SCT018 FEW025TCU OVC080 27/25 Q1002 TEMPO 1500 SHRA=
202507231530 METAR VABB 231530Z 24009KT 2100 BR FEW012 SCT018 FEW025TCU OVC080 28/25 Q1002 TEMPO 1500 SHRA=
202507231600 METAR VABB 231600Z 25010KT 2100 BR FEW012 SCT018 FEW025TCU OVC080 28/25 Q1002 TEMPO 1500 SHRA=
202507231630 METAR VABB 231630Z 25010KT 2100 BR FEW012 SCT018 FEW025TCU OVC080 28/25 Q1002 NOSIG=
202507231700 METAR VABB 231700Z 25010KT 2500 BR FEW012 SCT018 FEW025TCU OVC090 28/25 Q1003 NOSIG=
202507231730 METAR VABB 231730Z 25008KT 2500 BR FEW012 SCT018 FEW025TCU OVC090 28/25 Q1003 NOSIG=
202507231800 METAR VABB 231800Z 24009KT 2500 BR FEW012 SCT018 FEW025TCU OVC090 28/25 Q1003 NOSIG=
202507231830 METAR VABB 231830Z 24008KT 2500 BR FEW012 SCT018 FEW025TCU OVC090 28/25 Q1002 NOSIG=
202507231900 METAR VABB 231900Z 25009KT 2500 BR SCT018 FEW025TCU OVC090 28/25 Q1002 NOSIG=
202507231930 METAR VABB 231930Z 24008KT 2500 BR SCT018 FEW025TCU OVC090 28/25 Q1002 NOSIG=
202507232000 METAR VABB 232000Z 23006KT 2500 BR SCT018 FEW025TCU OVC090 28/25 Q1001 NOSIG=
202507232030 METAR VABB 232030Z 24010KT 2500 BR SCT018 FEW025TCU OVC090 28/25 Q1001 NOSIG=
202507232100 METAR VABB 232100Z 25009KT 2500 BR SCT018 FEW025TCU OVC090 28/25 Q1001 NOSIG=
202507232130 METAR VABB 232130Z 24008KT 2500 BR SCT018 FEW025TCU OVC090 28/25 Q1001 NOSIG=
202507232200 METAR VABB 232200Z 23005KT 2500 BR SCT018 FEW025TCU OVC090 27/25 Q1000 NOSIG=
202507232230 METAR VABB 232230Z 25009KT 2500 -SHRA FEW012 SCT018 FEW025TCU OVC090 28/25 Q1000 TEMPO 1500 SHRA=
202507232300 METAR VABB 232300Z 24008KT 2500 BR FEW012 SCT018 FEW025TCU OVC090 27/24 Q1000 TEMPO 1500 SHRA=
202507232330 METAR VABB 232330Z 26010KT 2100 BR FEW012 SCT018 FEW025TCU OVC090 27/25 Q1000 TEMPO 1500 SHRA=
202507240000 METAR VABB 240000Z 24009KT 2100 BR FEW012 SCT018 FEW025TCU OVC090 28/25 Q1000 TEMPO 1500 SHRA=
202507240030 METAR VABB 240030Z 25010KT 2100 -RA FEW012 SCT018 FEW025TCU OVC090 27/24 Q1000 TEMPO 1500 SHRA=
202507240100 METAR VABB 240100Z 26009KT 2100 VCSH FEW012 SCT018 FEW025TCU OVC090 27/25 Q1000 TEMPO 1500 SHRA=
202507240130 METAR VABB 240130Z 25010KT 2500 VCSH FEW012 SCT018 FEW025TCU OVC090 28/25 Q1000 TEMPO 1500 SHRA=
202507240200 METAR VABB 240200Z 25009KT 2500 -RA FEW012 SCT018 FEW025TCU OVC090 28/25 Q1001 TEMPO 1500 SHRA=
202507240230 METAR VABB 240230Z 24012KT 2500 BR SCT018 FEW025TCU OVC090 28/25 Q1001 NOSIG=
202507240300 METAR VABB 240300Z 25012KT 2500 BR FEW012 SCT018 FEW025TCU OVC090 28/25 Q1001 NOSIG=
202507240330 METAR VABB 240330Z 25012KT 2500 BR FEW012 SCT018 FEW025TCU OVC090 28/26 Q1002 NOSIG=
202507240400 METAR VABB 240400Z 26010G20KT 2500 BR FEW012 SCT018 FEW025TCU OVC090 29/26 Q1002 NOSIG=
202507240430 METAR VABB 240430Z 26013KT 2500 BR SCT018 FEW025TCU OVC090 30/26 Q1002 BECMG 3000 BR=
202507240500 METAR VABB 240500Z 24008G18KT 3000 BR SCT018 FEW025TCU OVC090 29/26 Q1002 NOSIG=
202507240530 METAR VABB 240530Z 23008G18KT 3000 BR SCT018 FEW025TCU OVC090 29/26 Q1002 TEMPO 1500 SHRA=
202507240600 METAR VABB 240600Z 25010G20KT 2500 -RA FEW012 SCT018 FEW025TCU OVC080 29/26 Q1002 TEMPO 1500 SHRA=
202507240630 METAR VABB 240630Z 25013KT 2500 BR SCT018 FEW025TCU OVC090 29/26 Q1002 BECMG 3000 BR=
202507240700 METAR VABB 240700Z 25013KT 3000 BR SCT018 FEW025TCU OVC090 30/25 Q1001 TEMPO 1500 SHRA=
202507240730 METAR VABB 240730Z 26014KT 3000 BR SCT018 FEW025TCU OVC090 28/26 Q1001 NOSIG=
202507240800 METAR VABB 240800Z 24016G26KT 3000 -RA FEW010 SCT018 FEW025TCU OVC090 28/24 Q1001 TEMPO 1500 SHRA=
202507240830 METAR VABB 240830Z 24010G20KT 3000 BR SCT018 FEW025TCU OVC090 28/24 Q1001 TEMPO 1500 SHRA=
202507240900 METAR VABB 240900Z 24009G19KT 3000 BR SCT018 FEW025TCU OVC090 28/25 Q1001 NOSIG=
202507240930 METAR VABB 240930Z 24008G18KT 3000 BR SCT018 FEW025TCU BKN090 28/25 Q1000 TEMPO 1500 SHRA=
202507241000 METAR VABB 241000Z 25015KT 2100 BR SCT018 FEW030CB BKN090 27/25 Q1000 TEMPO 1500 SHRA=
202507241030 METAR VABB 241030Z 25011KT 2500 BR SCT018 FEW025TCU BKN090 26/24 Q1000 NOSIG=
202507241100 METAR VABB 241100Z 25008KT 2500 BR SCT018 FEW025TCU BKN090 28/24 Q1000 TEMPO 1500 SHRA=
202507241130 METAR VABB 241130Z 27013KT 2500 VCSH SCT018 FEW025TCU BKN090 27/25 Q1000 NOSIG=
202507241200 METAR VABB 241200Z 25008G18KT 1800 RA FEW010 SCT018 FEW025TCU OVC080 26/25 Q1000 TEMPO 1500 SHRA=
202507241230 METAR VABB 241230Z 27009KT 2500 -RA FEW010 SCT018 FEW025TCU OVC080 26/25 Q1000 TEMPO 1500 SHRA=
202507241300 METAR VABB 241300Z 24010G20KT 2500 -RA FEW010 SCT018 FEW025TCU OVC080 26/25 Q1000 TEMPO 1500 SHRA=
202507241330 METAR VABB 241330Z 23005KT 2500 BR SCT018 FEW025TCU BKN090 26/25 Q1000 NOSIG=
202507241400 METAR COR VABB 241400Z 22003KT 2500 SHRA SCT018 FEW025TCU BKN090 27/25 Q1000 TEMPO 1500 SHRA=
202507241430 METAR VABB 241430Z 25007KT 2500 -RA FEW010 SCT018 FEW025TCU BKN090 26/25 Q1000 TEMPO 1500 SHRA=
202507241500 METAR VABB 241500Z 22003KT 2500 -RA FEW010 SCT018 FEW025TCU BKN090 27/25 Q1000 TEMPO 1500 SHRA=
202507241530 METAR VABB 241530Z 14006KT 2100 -RA FEW010 SCT018 FEW025TCU OVC080 27/25 Q1001 TEMPO 1500 SHRA=
202507241600 METAR VABB 241600Z 21007KT 2500 BR FEW010 SCT018 FEW025TCU BKN090 26/25 Q1001 TEMPO 1500 SHRA=
202507241630 METAR VABB 241630Z 23009G19KT 2100 -RA FEW010 SCT018 FEW025TCU OVC080 26/25 Q1001 TEMPO 1500 SHRA=
202507241700 METAR VABB 241700Z 21006KT 2100 BR FEW010 SCT018 FEW025TCU OVC080 26/25 Q1001 TEMPO 1500 SHRA=
202507241730 METAR VABB 241730Z 19003KT 2100 BR FEW010 SCT018 FEW025TCU OVC080 26/25 Q1001 TEMPO 1500 SHRA=
202507241800 METAR VABB 241800Z 25009G19KT 2100 -RA FEW010 SCT018 FEW025TCU OVC080 26/25 Q1001 TEMPO 1500 SHRA=
202507241830 METAR VABB 241830Z 26010KT 2100 BR FEW010 SCT018 FEW025TCU BKN090 26/25 Q1001 TEMPO 1500 SHRA=
202507241900 METAR VABB 241900Z 25009KT 2500 BR FEW012 SCT018 FEW025TCU BKN090 27/25 Q1001 NOSIG=
202507241930 METAR VABB 241930Z 23010G20KT 2500 BR FEW012 SCT018 FEW025TCU BKN090 27/25 Q1000 NOSIG=
202507242000 METAR VABB 242000Z 24012G22KT 2500 BR FEW012 SCT018 FEW025TCU BKN090 26/25 Q1000 NOSIG=
202507242030 METAR VABB 242030Z 25011KT 2500 BR FEW012 SCT018 FEW025TCU BKN090 27/25 Q1000 TEMPO 1500 SHRA=
202507242100 METAR VABB 242100Z 27012G22KT 2500 -RA FEW012 SCT018 FEW025TCU BKN090 27/25 Q0999 TEMPO 1500 SHRA=
202507242130 METAR VABB 242130Z 27009G19KT 2100 -RA FEW010 SCT018 FEW025TCU BKN090 26/25 Q0999 TEMPO 1500 SHRA=
202507242200 METAR VABB 242200Z 28008KT 2100 RA FEW010 SCT018 FEW025TCU BKN090 26/25 Q0999 TEMPO 1500 SHRA=
202507242230 METAR VABB 242230Z 30010KT 2100 -RA FEW010 SCT018 FEW025TCU OVC090 27/26 Q0999 TEMPO 1500 SHRA=
202507242300 METAR VABB 242300Z 27007KT 2100 -RA FEW010 SCT018 FEW025TCU OVC080 27/26 Q0989 TEMPO 1500 SHRA=
202507242330 METAR VABB 242330Z 25014KT 2100 -RA FEW010 SCT018 FEW025TCU OVC080 28/25 Q0998 TEMPO 1500 SHRA=
202507250000 METAR VABB 250000Z 26014KT 2100 -RA FEW010 SCT018 FEW025TCU OVC080 27/25 Q0999 TEMPO 1500 SHRA=
202507250030 METAR VABB 250030Z 26010G20KT 2100 -RA FEW010 SCT018 FEW030CB OVC080 27/25 Q0999 TEMPO 1500 SHRA=
202507250100 METAR VABB 250100Z 26012KT 2500 BR FEW012 SCT018 FEW030CB BKN090 27/25 Q0999 NOSIG=
202507250130 METAR VABB 250130Z 25012KT 2500 BR FEW012 SCT018 FEW030CB BKN090 27/25 Q1000 TEMPO 1500 SHRA=
202507250200 METAR VABB 250200Z 28011G21KT 2500 -RA FEW010 SCT018 FEW030CB OVC080 27/25 Q1000 TEMPO 1500 SHRA=
202507250230 METAR VABB 250230Z 27011G21KT 1400 R27/1600 +RA FEW008 SCT018 FEW030CB OVC080 26/25 Q1000 TEMPO 0800 +SHRA=
202507250300 METAR VABB 250300Z 30012KT 1400 R27/1600 +RA FEW008 SCT018 FEW030CB OVC080 26/25 Q1001 TEMPO 0800 +SHRA=
202507250327 METAR VABB 250327Z 30010KT 0800 R27/1000 +RA FEW008 SCT018 FEW030CB OVC080 26/26 Q1001 TEMPO 0600 +SHRA=
202507250400 METAR VABB 250400Z 28007G17KT 1600 +RA SCT008 SCT018 FEW030CB OVC080 26/25 Q1001 TEMPO 0800 +RA=
202507250426 METAR VABB 250426Z 27008G18KT 0500 R27/0600 +RA SCT008 SCT015 FEW030CB OVC080 25/25 Q1001 TEMPO 0350 +SHRA=
202507250500 METAR VABB 250500Z 29010KT 1500 RA SCT008 SCT015 FEW030CB OVC080 27/26 Q1001 TEMPO 0800 +SHRA=
202507250530 METAR VABB 250530Z 27010G20KT 1200 R27/1500 +RA SCT008 SCT015 FEW030CB OVC080 27/25 Q1001 TEMPO 0800 +SHRA=
202507250600 METAR VABB 250600Z 26011G22KT 2100 RA SCT008 SCT015 FEW030CB OVC080 27/25 Q1002 TEMPO 1500 SHRA=
202507250630 METAR VABB 250630Z 25012G22KT 1500 +RA SCT008 SCT015 FEW030CB OVC080 26/25 Q1002 TEMPO 0800 +SHRA=
202507250700 METAR VABB 250700Z 24011KT 2500 -RA SCT010 SCT018 FEW030CB OVC080 27/26 Q1001 TEMPO 1500 SHRA=
202507250730 METAR VABB 250730Z 25014KT 2500 -RA FEW010 SCT018 FEW030CB OVC080 27/26 Q1001 TEMPO 1500 SHRA=
202507250800 METAR VABB 250800Z 26014G24KT 2500 -RA FEW010 SCT018 FEW030CB OVC080 26/24 Q1001 TEMPO 1500 SHRA=
202507250830 METAR VABB 250830Z 26010KT 1800 RA SCT008 SCT015 FEW030CB OVC080 26/25 Q1001 TEMPO 1500 SHRA=
202507250855 METAR VABB 250855Z 31013KT 1500 RA SCT008 SCT015 FEW030CB OVC080 25/25 Q1001 TEMPO 0800 +SHRA=
202507250930 METAR VABB 250930Z 28009KT 2100 -RA SCT008 SCT015 FEW030CB OVC080 27/26 Q1000 TEMPO 1500 SHRA=
202507251000 METAR VABB 251000Z 27010KT 2100 -RA SCT008 SCT015 FEW030CB OVC080 27/26 Q1000 TEMPO 0800 +SHRA=
202507251030 METAR VABB 251030Z 25013KT 2200 -RA SCT010 SCT015 FEW030CB OVC080 26/25 Q1000 NOSIG=
202507251100 METAR VABB 251100Z 25010KT 2200 -RA SCT010 SCT015 FEW030CB OVC080 26/26 Q0999 NOSIG=
202507251130 METAR VABB 251130Z 25011KT 2500 -DZ FEW012 SCT018 FEW030CB OVC080 28/26 Q0999 TEMPO 1500 SHRA=
202507251200 METAR VABB 251200Z 24012G22KT 2500 -DZ SCT012 SCT018 FEW030CB OVC080 27/25 Q0999 TEMPO 1500 SHRA=
202507251230 METAR VABB 251230Z 24010KT 2200 -RA SCT012 SCT018 FEW030CB OVC080 27/26 Q0999 TEMPO 1500 SHRA=
202507251300 METAR VABB 251300Z 24011G21KT 1500 RA SCT012 SCT018 FEW030CB OVC080 26/25 Q1000 TEMPO 0800 +RA=
202507251330 METAR VABB 251330Z 28012KT 2100 -RA SCT010 SCT018 FEW030CB OVC080 26/25 Q1000 TEMPO 1500 RA=
202507251400 METAR VABB 251400Z 28016KT 2100 -RA SCT010 SCT018 FEW030CB OVC080 26/25 Q1000 TEMPO 1500 RA=
202507251430 METAR VABB 251430Z 26009KT 2100 -RA SCT010 SCT018 FEW025TCU OVC080 26/25 Q1000 TEMPO 1500 RA=
202507251500 METAR VABB 251500Z 26011KT 2100 -RA SCT010 SCT018 FEW025TCU OVC080 27/25 Q1001 TEMPO 1500 RA=
202507251530 METAR VABB 251530Z 24009KT 2500 BR FEW010 SCT018 FEW025TCU OVC080 27/26 Q1001 NOSIG=
202507251600 METAR VABB 251600Z 24009KT 2500 BR FEW010 SCT020 FEW025TCU OVC090 27/25 Q1001 NOSIG=
202507251630 METAR VABB 251630Z 23009KT 2500 BR FEW010 SCT020 FEW025TCU OVC090 27/26 Q1001 NOSIG=
202507251700 METAR VABB 251700Z 27010KT 2500 BR FEW010 SCT020 FEW025TCU OVC090 27/25 Q1002 NOSIG=
202507251730 METAR COR VABB 251730Z 24007KT 2500 BR FEW010 SCT020 FEW025TCU OVC090 27/26 Q1002 NOSIG=
202507251800 METAR VABB 251800Z 25014G24KT 2100 -DZ FEW010 SCT018 FEW025TCU OVC090 27/25 Q1001 TEMPO 0800 +RA=
202507251830 METAR VABB 251830Z 25008G18KT 2100 -RA FEW010 SCT018 FEW025TCU OVC090 28/25 Q1001 TEMPO 1500 RA=
202507251900 METAR VABB 251900Z 25011KT 2500 BR FEW010 SCT018 FEW025TCU OVC090 27/26 Q1001 NOSIG=
202507251930 METAR VABB 251930Z 27015KT 2500 DZ FEW010 SCT018 FEW025TCU OVC090 27/25 Q1001 NOSIG=
202507251956 METAR VABB 251956Z 28021G31KT 2500 RA FEW010 SCT018 FEW025TCU OVC090 27/25 Q1001 TEMPO 1500 SHRA=
202507252030 METAR VABB 252030Z 27012KT 2500 DZ FEW010 SCT018 FEW025TCU OVC090 27/25 Q1001 NOSIG=
202507252100 METAR VABB 252100Z 26016KT 2500 BR FEW010 SCT018 FEW025TCU OVC090 27/25 Q1000 TEMPO 1500 SHRA=
202507252130 METAR VABB 252130Z 26015KT 2500 -RA FEW010 SCT018 FEW025TCU OVC090 26/25 Q1000 TEMPO 1500 SHRA=
202507252200 METAR VABB 252200Z 28015G25KT 1800 RA FEW010 SCT018 FEW025TCU OVC090 27/25 Q1000 TEMPO 0800 +RA=
202507252230 METAR VABB 252230Z 29015KT 2500 DZ FEW010 SCT018 FEW025TCU OVC090 26/24 Q1000 TEMPO 1500 SHRA=
202507252300 METAR VABB 252300Z 26014KT 2500 -RA FEW010 SCT018 FEW025TCU OVC090 27/25 Q1000 TEMPO 1500 +RA=
202507252330 METAR VABB 252330Z 25011G21KT 2500 -RA FEW010 SCT018 FEW025TCU OVC090 26/25 Q1000 TEMPO 1500 RA=
202507260000 METAR VABB 260000Z 26013KT 2500 -RA FEW010 SCT018 FEW025TCU OVC090 26/25 Q1000 TEMPO 1500 RA=
202507260030 METAR VABB 260030Z 29013KT 2500 -RA FEW010 SCT018 FEW025TCU OVC090 27/26 Q1000 TEMPO 1500 RA=
202507260100 METAR VABB 260100Z 29009KT 2500 DZ FEW010 SCT018 FEW025TCU OVC090 26/25 Q1001 NOSIG=
202507260130 METAR VABB 260130Z 26014KT 2500 BR FEW010 SCT018 FEW025TCU OVC090 27/25 Q1001 NOSIG=
202507260200 METAR VABB 260200Z 27007G17KT 2500 BR FEW010 SCT018 FEW025TCU OVC090 27/25 Q1001 NOSIG=
202507260230 METAR VABB 260230Z 26009G19KT 2100 BR FEW010 SCT018 FEW025TCU OVC090 27/26 Q1001 TEMPO 1500 SHRA=
202507260300 METAR VABB 260300Z 26016KT 2100 BR FEW010 SCT018 FEW025TCU OVC090 28/26 Q1002 NOSIG=
202507260330 METAR VABB 260330Z 26015KT 2100 BR FEW012 SCT018 FEW025TCU OVC090 28/25 Q1002 TEMPO 1500 SHRA=
202507260400 METAR VABB 260400Z 25015KT 2500 BR SCT018 FEW025TCU OVC090 29/26 Q1002 NOSIG=
202507260430 METAR VABB 260430Z 25018KT 2100 -RA FEW012 SCT018 FEW025TCU OVC090 28/26 Q1002 TEMPO 1500 SHRA=
202507260500 METAR VABB 260500Z 25016KT 2100 VCSH FEW012 SCT018 FEW025TCU OVC090 28/25 Q1002 TEMPO 1500 SHRA=
202507260530 METAR VABB 260530Z 24014KT 2100 BR FEW012 SCT018 FEW025TCU OVC090 28/25 Q1003 NOSIG=
202507260600 METAR VABB 260600Z 25014KT 2500 BR FEW012 SCT018 FEW025TCU OVC090 28/25 Q1003 NOSIG=
202507260630 METAR VABB 260630Z 25014KT 2500 BR FEW012 SCT018 FEW025TCU OVC090 29/26 Q1002 NOSIG=
202507260700 METAR VABB 260700Z 25012KT 2500 -RA FEW012 SCT018 FEW025TCU OVC090 28/25 Q1002 TEMPO 1500 SHRA=
202507260730 METAR VABB 260730Z 28018G28KT 2500 BR FEW012 SCT018 FEW025TCU OVC090 27/24 Q1002 NOSIG=
202507260800 METAR VABB 260800Z 27015KT 2500 BR FEW012 SCT018 FEW025TCU OVC090 29/26 Q1002 NOSIG=
202507260830 METAR VABB 260830Z 27017G27KT 0900 R27/1200 +SHRA FEW012 SCT018 FEW025TCU OVC090 27/25 Q1001 TEMPO 0800 +SHRA=
202507260900 METAR VABB 260900Z 25019KT 2100 -SHRA FEW012 SCT018 FEW025TCU OVC090 28/26 Q1001 TEMPO 1500 SHRA=
202507260930 METAR VABB 260930Z 25016KT 2100 -RA FEW012 SCT018 FEW025TCU OVC090 27/25 Q1001 TEMPO 1500 SHRA=
202507261000 METAR VABB 261000Z 25013G23KT 1800 SHRA FEW012 SCT018 FEW025TCU OVC090 28/26 Q1001 TEMPO 1500 SHRA=
202507261030 METAR VABB 261030Z 25014KT 2100 VCSH FEW012 SCT018 FEW025TCU OVC090 27/25 Q1001 TEMPO 1500 SHRA=
202507261100 METAR VABB 261100Z 27014KT 2100 BR FEW012 SCT018 FEW025TCU OVC080 27/24 Q1001 TEMPO 1500 SHRA=
202507261130 METAR VABB 261130Z 25010KT 2100 BR FEW012 SCT018 FEW025TCU BKN090 28/25 Q1001 TEMPO 1500 SHRA=
202507261200 METAR VABB 261200Z 25011KT 2100 BR FEW012 SCT018 FEW025TCU BKN090 27/25 Q1001 TEMPO 1500 SHRA=
202507261227 METAR VABB 261227Z 25025G35KT 0800 R27/1000 +SHRA FEW012 SCT018 FEW025TCU OVC080 26/24 Q1001 TEMPO 0600 +SHRA=
202507261300 METAR VABB 261300Z 28009KT 2100 BR FEW012 SCT018 FEW025TCU OVC080 27/24 Q1001 TEMPO 1500 SHRA=
202507261330 METAR VABB 261330Z 25012KT 2100 -RA FEW012 SCT018 FEW025TCU OVC080 27/25 Q1001 TEMPO 1500 SHRA=
202507261400 METAR VABB 261400Z 26014KT 2100 BR FEW012 SCT018 FEW025TCU OVC080 27/25 Q1002 TEMPO 1500 SHRA=
202507261430 METAR VABB 261430Z 25011KT 2100 BR FEW012 SCT018 FEW025TCU OVC080 28/25 Q1002 TEMPO 1500 SHRA=
202507261500 METAR VABB 261500Z 28010KT 2500 BR FEW012 SCT018 FEW025TCU OVC080 27/25 Q1002 NOSIG=
202507261530 METAR VABB 261530Z 27011KT 2500 BR SCT018 FEW025TCU BKN090 27/25 Q1002 NOSIG=
202507261600 METAR VABB 261600Z 26016KT 2500 BR SCT018 FEW025TCU BKN090 28/25 Q1003 NOSIG=
202507261630 METAR VABB 261630Z 26010G20KT 2500 -SHRA FEW012 SCT018 FEW025TCU BKN090 27/25 Q1003 TEMPO 1500 SHRA=
202507261700 METAR VABB 261700Z 28009KT 2100 -RA FEW012 SCT018 FEW025TCU BKN090 26/25 Q1003 TEMPO 1500 SHRA=
202507261730 METAR VABB 261730Z 26014G24KT 2100 BR SCT018 FEW025TCU BKN090 28/25 Q1003 NOSIG=
202507261800 METAR VABB 261800Z 26016KT 2500 BR SCT018 FEW030CB BKN090 28/25 Q1003 NOSIG=
202507261830 METAR VABB 261830Z 26013G23KT 2500 BR SCT018 FEW030CB BKN090 28/25 Q1002 NOSIG=
202507261900 METAR VABB 261900Z 26012G22KT 2500 BR SCT018 FEW030CB BKN090 28/25 Q1002 NOSIG=
202507261930 METAR VABB 261930Z 25014G24KT 2500 -RA SCT018 FEW030CB BKN090 27/25 Q1002 TEMPO 1500 SHRA=
202507262000 METAR VABB 262000Z 25011G21KT 2500 BR SCT018 FEW030CB BKN090 27/25 Q1002 NOSIG=
202507262030 METAR VABB 262030Z 26015G25KT 2500 BR SCT018 FEW030CB BKN090 28/25 Q1001 NOSIG=
202507262100 METAR VABB 262100Z 26014G24KT 2500 BR SCT018 FEW030CB BKN090 28/25 Q1001 NOSIG=
202507262130 METAR VABB 262130Z 25015G25KT 2500 BR SCT018 FEW030CB BKN090 28/25 Q1001 NOSIG=
202507262200 METAR VABB 262200Z 25017G27KT 2500 BR SCT018 FEW030CB BKN090 28/25 Q1001 NOSIG=
202507262230 METAR VABB 262230Z 26014G24KT 2500 BR SCT018 FEW030CB BKN090 28/25 Q1001 NOSIG=
202507262300 METAR VABB 262300Z 26017KT 2500 BR SCT018 FEW025TCU BKN090 28/25 Q1001 NOSIG=
202507262330 METAR VABB 262330Z 25013G23KT 2500 BR SCT018 FEW025TCU BKN090 28/25 Q1001 NOSIG=
202507270000 METAR VABB 270000Z 25014G24KT 2500 BR SCT018 FEW025TCU BKN090 28/24 Q1002 NOSIG=
202507270030 METAR VABB 270030Z 25015G25KT 2500 BR SCT018 FEW025TCU BKN090 28/25 Q1002 NOSIG=
202507270100 METAR VABB 270100Z 25015KT 2500 BR SCT018 FEW025TCU BKN100 28/24 Q1002 NOSIG=
202507270130 METAR VABB 270130Z 25017G27KT 2500 BR SCT018 FEW025TCU BKN100 27/24 Q1002 NOSIG=
202507270200 METAR VABB 270200Z 25013G23KT 2500 BR SCT018 FEW025TCU BKN100 28/24 Q1002 NOSIG=
202507270230 METAR VABB 270230Z 24014KT 2500 BR SCT018 FEW025TCU BKN100 28/25 Q1003 NOSIG=
202507270300 METAR VABB 270300Z 24015G25KT 2500 BR SCT018 FEW025TCU BKN100 28/25 Q1003 NOSIG=
202507270330 METAR VABB 270330Z 25015KT 2500 BR SCT018 FEW025TCU BKN100 28/24 Q1003 NOSIG=
202507270400 METAR VABB 270400Z 25014KT 2500 BR SCT018 FEW025TCU BKN100 28/25 Q1004 NOSIG=
202507270430 METAR VABB 270430Z 25017G27KT 2500 BR SCT018 FEW025TCU OVC090 29/25 Q1004 NOSIG=
202507270500 METAR VABB 270500Z 26012KT 2500 BR SCT020 FEW025TCU OVC090 28/26 Q1004 NOSIG=
202507270528 METAR VABB 270528Z 24016KT 2500 BR FEW012 SCT018 FEW025TCU OVC090 27/25 Q1004 TEMPO 1500 SHRA=
202507270600 METAR VABB 270600Z 27014KT 1500 BR FEW010 SCT018 FEW025TCU BKN090 26/25 Q1004 TEMPO 0800 +SHRA=
202507270626 METAR VABB 270626Z 25020G30KT 1200 R27/1600 -RA FEW010 SCT018 FEW025TCU OVC080 26/24 Q1004 TEMPO 0800 +SHRA=
202507270700 METAR VABB 270700Z 30013KT 2500 BR FEW010 SCT018 FEW025TCU BKN090 27/25 Q1004 TEMPO 1500 SHRA=
202507270730 METAR VABB 270730Z 27012KT 2500 BR FEW012 SCT018 FEW025TCU OVC080 27/26 Q1004 TEMPO 1500 SHRA=
202507270800 METAR VABB 270800Z 25014KT 2500 BR FEW012 SCT018 FEW025TCU BKN090 29/27 Q1003 NOSIG=
202507270830 METAR VABB 270830Z 24019G29KT 2500 BR SCT018 FEW025TCU BKN090 29/26 Q1003 NOSIG=
202507270900 METAR VABB 270900Z 25017KT 2500 HZ SCT018 FEW025TCU BKN090 29/25 Q1003 NOSIG=
202507270930 METAR VABB 270930Z 24017G27KT 2500 HZ SCT018 FEW025TCU BKN090 29/25 Q1002 NOSIG=
202507271000 METAR VABB 271000Z 25018KT 2500 HZ SCT018 FEW025TCU BKN090 29/25 Q1002 TEMPO 1500 SHRA=
202507271030 METAR VABB 271030Z 25016KT 2500 HZ SCT018 FEW025TCU BKN090 29/25 Q1002 NOSIG=
202507271100 METAR VABB 271100Z 25016KT 2500 HZ SCT018 FEW025TCU BKN090 29/25 Q1002 NOSIG=
202507271130 METAR VABB 271130Z 25017G27KT 2500 -SHRA FEW012 SCT018 FEW025TCU OVC090 29/25 Q1002 TEMPO 1500 SHRA=
202507271200 METAR VABB 271200Z 25014KT 2100 -RA FEW012 SCT018 FEW025TCU OVC090 27/25 Q1002 TEMPO 1500 SHRA=
202507271230 METAR VABB 271230Z 25011KT 2100 -RA FEW012 SCT018 FEW025TCU OVC090 27/25 Q1002 TEMPO 1500 SHRA=
202507271300 METAR VABB 271300Z 26015KT 2100 -RA FEW012 SCT018 FEW025TCU OVC090 26/25 Q1003 TEMPO 1500 SHRA=
202507271330 METAR VABB 271330Z 25015KT 2100 DZ FEW012 SCT018 FEW025TCU OVC090 27/25 Q1003 TEMPO 1500 SHRA=
202507271400 METAR VABB 271400Z 25014KT 2100 BR FEW012 SCT018 FEW025TCU OVC090 27/25 Q1003 NOSIG=
202507271430 METAR VABB 271430Z 25018KT 2100 -RA FEW012 SCT018 FEW025TCU OVC090 27/24 Q1004 TEMPO 1500 SHRA=
202507271500 METAR VABB 271500Z 25016KT 2100 -RA FEW012 SCT018 FEW025TCU OVC090 26/24 Q1004 TEMPO 1500 SHRA=
202507271530 METAR VABB 271530Z 24011KT 2100 -DZ FEW012 SCT018 FEW025TCU OVC090 27/25 Q1004 TEMPO 1500 SHRA=
202507271600 METAR VABB 271600Z 25015KT 2100 BR FEW012 SCT018 FEW025TCU OVC090 28/25 Q1004 TEMPO 1500 SHRA=
202507271630 METAR VABB 271630Z 24012G23KT 2100 BR FEW012 SCT018 FEW025TCU OVC090 27/25 Q1004 TEMPO 1500 SHRA=
202507271700 METAR VABB 271700Z 25014KT 2100 BR FEW012 SCT018 FEW025TCU OVC090 28/25 Q1004 NOSIG=
202507271730 METAR VABB 271730Z 25016KT 2100 BR SCT018 FEW025TCU OVC090 28/25 Q1004 NOSIG=
202507271800 METAR VABB 271800Z 24015KT 2500 BR SCT018 FEW025TCU BKN090 28/25 Q1004 NOSIG=
202507271830 METAR COR VABB 271830Z 24014G24KT 2500 BR SCT018 FEW025TCU BKN090 28/25 Q1004 NOSIG=
202507271900 METAR VABB 271900Z 24014G27KT 2500 BR SCT018 FEW025TCU BKN090 28/25 Q1004 NOSIG=
202507271930 METAR VABB 271930Z 24014KT 2500 BR SCT018 FEW025TCU BKN090 28/25 Q1004 NOSIG=
202507272000 METAR VABB 272000Z 24012G22KT 2500 BR SCT018 FEW025TCU BKN090 28/25 Q1004 NOSIG=
202507272030 METAR VABB 272030Z 24014KT 2500 BR SCT018 FEW025TCU BKN090 28/25 Q1004 NOSIG=
202507272100 METAR VABB 272100Z 24014KT 2500 BR SCT018 FEW025TCU BKN090 28/24 Q1004 NOSIG=
202507272130 METAR COR VABB 272130Z 24016KT 2500 BR SCT018 SCT025 BKN090 28/24 Q1003 NOSIG=
202507272200 METAR VABB 272200Z 25014KT 2500 BR SCT018 SCT025 BKN090 28/24 Q1003 NOSIG=
202507272230 METAR VABB 272230Z 25014KT 2500 BR SCT018 SCT025 BKN090 28/25 Q1003 NOSIG=
202507272300 METAR VABB 272300Z 25017G27KT 2500 -SHRA SCT018 FEW025TCU BKN090 27/23 Q1004 TEMPO 1500 SHRA=
202507272330 METAR VABB 272330Z 23009KT 2500 BR SCT018 FEW025TCU BKN090 25/23 Q1004 TEMPO 1500 SHRA=
202507280000 METAR VABB 280000Z 24006KT 1500 R27/2000 SHRA SCT018 FEW025TCU BKN090 26/24 Q1004 TEMPO 0800 +SHRA=
202507280030 METAR VABB 280030Z 24011KT 2500 -RA FEW012 SCT018 FEW025TCU BKN090 26/25 Q1004 TEMPO 1500 SHRA=
202507280100 METAR VABB 280100Z 25013KT 2500 BR FEW012 SCT018 FEW025TCU BKN090 27/25 Q1004 NOSIG=
202507280130 METAR VABB 280130Z 25014KT 2500 BR FEW012 SCT018 FEW025TCU BKN090 28/25 Q1004 NOSIG=
202507280200 METAR VABB 280200Z 23011KT 2500 BR FEW012 SCT018 FEW025TCU BKN090 28/25 Q1004 TEMPO 1500 SHRA=
202507280230 METAR VABB 280230Z 24017KT 2500 BR FEW012 SCT018 FEW025TCU BKN090 28/25 Q1005 TEMPO 1500 SHRA=
202507280300 METAR VABB 280300Z 25013KT 2500 BR FEW012 SCT018 FEW025TCU BKN090 28/25 Q1005 NOSIG=
202507280330 METAR VABB 280330Z 24012KT 2500 BR FEW012 SCT018 FEW025TCU BKN090 28/25 Q1005 NOSIG=
202507280400 METAR VABB 280400Z 25015KT 2500 BR FEW012 SCT018 FEW025TCU BKN090 28/24 Q1005 TEMPO 1500 SHRA=
202507280430 METAR VABB 280430Z 25012KT 2500 BR FEW012 SCT018 FEW025TCU BKN090 29/24 Q1005 NOSIG=
202507280500 METAR VABB 280500Z 25017KT 2500 BR FEW012 SCT018 FEW025TCU OVC090 28/25 Q1006 NOSIG=
202507280530 METAR VABB 280530Z 24014KT 2500 BR SCT018 SCT025 FEW025TCU BKN090 29/25 Q1005 NOSIG=
202507280600 METAR VABB 280600Z 25017KT 2800 BR SCT018 SCT025 BKN090 29/25 Q1005 BECMG 3000 BR=
202507280630 METAR VABB 280630Z 25014G28KT 3000 BR SCT018 SCT025 BKN090 29/25 Q1005 NOSIG=
202507280700 METAR VABB 280700Z 24014KT 3000 -RA FEW012 SCT018 FEW025TCU BKN090 28/25 Q1005 TEMPO 1500 SHRA=
202507280730 METAR VABB 280730Z 24014KT 3000 -DZ FEW012 SCT018 FEW025TCU BKN090 28/25 Q1005 TEMPO 1500 SHRA=
202507280800 METAR VABB 280800Z 24016KT 3000 BR FEW012 SCT018 FEW025TCU BKN090 29/25 Q1005 NOSIG=
202507280830 METAR VABB 280830Z 24016KT 3000 -RA FEW012 SCT018 FEW025TCU BKN090 28/25 Q1005 NOSIG=
202507280900 METAR VABB 280900Z 24013KT 3000 BR FEW012 SCT018 FEW025TCU BKN100 29/25 Q1004 NOSIG=
202507280930 METAR VABB 280930Z 25015KT 3000 BR SCT018 FEW025TCU BKN100 29/25 Q1004 NOSIG=
202507281000 METAR VABB 281000Z 25015KT 3000 BR SCT018 FEW025TCU BKN100 30/25 Q1004 NOSIG=
202507281030 METAR VABB 281030Z 24014KT 3000 HZ SCT018 FEW025TCU BKN100 29/25 Q1004 NOSIG=
202507281100 METAR VABB 281100Z 25014KT 3000 HZ SCT018 FEW025TCU BKN100 29/25 Q1003 NOSIG=
202507281130 METAR VABB 281130Z 24013KT 3000 HZ SCT018 FEW025TCU BKN100 29/25 Q1003 NOSIG=
202507281200 METAR VABB 281200Z 24012KT 3000 -SHRA SCT018 FEW025TCU BKN100 29/25 Q1003 TEMPO 1500 SHRA=
202507281230 METAR VABB 281230Z 24012G22KT 3000 HZ SCT018 FEW025TCU BKN100 28/25 Q1004 NOSIG=
202507281300 METAR VABB 281300Z 24013G23KT 3000 HZ SCT018 FEW025TCU BKN100 28/25 Q1004 NOSIG=
202507281330 METAR VABB 281330Z 23014KT 3000 HZ SCT018 FEW025TCU BKN100 28/25 Q1004 NOSIG=
202507281400 METAR VABB 281400Z 24011G21KT 3000 HZ SCT018 FEW025TCU BKN100 28/25 Q1004 NOSIG=
202507281430 METAR VABB 281430Z 24009KT 3000 HZ SCT018 FEW025TCU BKN100 28/25 Q1005 NOSIG=
202507281500 METAR VABB 281500Z 24010KT 3000 BR SCT018 FEW025TCU BKN100 28/25 Q1005 NOSIG=
202507281530 METAR VABB 281530Z 25013G23KT 3000 BR SCT018 FEW025TCU BKN100 28/25 Q1005 NOSIG=
202507281600 METAR VABB 281600Z 24010KT 3000 BR SCT018 FEW025TCU BKN090 28/25 Q1005 NOSIG=
202507281630 METAR VABB 281630Z 23011KT 3000 BR SCT018 FEW025TCU BKN090 27/25 Q1005 NOSIG=
202507281700 METAR VABB 281700Z 25013KT 3000 BR SCT018 FEW025TCU BKN090 28/25 Q1005 NOSIG=
202507281730 METAR VABB 281730Z 25014KT 3000 BR SCT018 FEW025TCU BKN090 28/25 Q1006 NOSIG=
202507281800 METAR VABB 281800Z 25015KT 3000 BR SCT018 FEW025TCU BKN090 28/25 Q1006 NOSIG=
202507281830 METAR VABB 281830Z 24013KT 3000 BR SCT018 FEW025TCU BKN090 28/25 Q1006 NOSIG=
202507281900 METAR VABB 281900Z 24012G22KT 3000 BR SCT018 FEW025TCU BKN090 28/25 Q1005 NOSIG=
202507281930 METAR VABB 281930Z 25014KT 2500 BR SCT018 FEW025TCU BKN090 28/25 Q1005 NOSIG=
202507282000 METAR VABB 282000Z 24014G24KT 2500 BR SCT018 FEW025TCU BKN090 28/25 Q1005 NOSIG=
202507282030 METAR VABB 282030Z 24011G21KT 2500 BR SCT018 FEW025TCU BKN090 28/25 Q1005 NOSIG=
202507282100 METAR VABB 282100Z 25012G22KT 2500 BR SCT018 FEW025TCU BKN090 28/25 Q1005 NOSIG=
202507282130 METAR VABB 282130Z 24012KT 2500 BR SCT018 FEW025TCU BKN090 28/25 Q1004 NOSIG=
202507282200 METAR VABB 282200Z 24014KT 2500 BR SCT018 FEW025TCU BKN090 28/24 Q1004 NOSIG=
202507282230 METAR VABB 282230Z 24013KT 2500 BR SCT018 FEW025TCU BKN090 27/25 Q1004 NOSIG=
202507282300 METAR VABB 282300Z 24013G23KT 2500 BR SCT018 SCT025 BKN090 28/24 Q1004 NOSIG=
202507282330 METAR VABB 282330Z 25017KT 2500 BR SCT018 SCT025 BKN090 27/24 Q1004 TEMPO 1500 SHRA=
202507290000 METAR VABB 290000Z 25014KT 2500 BR SCT018 SCT025 BKN090 27/24 Q1004 TEMPO 1500 SHRA=
202507290030 METAR VABB 290030Z 23012KT 2500 BR SCT018 SCT025 BKN090 26/25 Q1005 TEMPO 1500 SHRA=
202507290100 METAR VABB 290100Z 25013KT 2500 BR SCT018 SCT025 BKN090 27/24 Q1005 NOSIG=
202507290130 METAR VABB 290130Z 25011KT 3000 BR SCT018 SCT025 BKN090 27/24 Q1005 NOSIG=
202507290200 METAR VABB 290200Z 24013KT 3000 BR SCT018 SCT025 BKN090 27/24 Q1005 NOSIG=
202507290230 METAR VABB 290230Z 25014G24KT 3000 BR SCT018 SCT025 BKN090 28/25 Q1005 TEMPO 1500 SHRA=
202507290300 METAR VABB 290300Z 24015G25KT 3000 BR SCT018 FEW025TCU BKN090 26/24 Q1006 NOSIG=
202507290330 METAR VABB 290330Z 25013G24KT 3000 BR SCT018 FEW025TCU BKN090 28/25 Q1006 NOSIG=
202507290400 METAR VABB 290400Z 25016KT 3000 BR SCT018 FEW025TCU BKN090 28/25 Q1006 NOSIG=
202507290430 METAR VABB 290430Z 25014G24KT 3000 BR SCT018 FEW025TCU BKN100 29/25 Q1006 NOSIG=
202507290500 METAR VABB 290500Z 25014KT 3000 BR SCT018 FEW025TCU BKN100 29/25 Q1006 NOSIG=
202507290530 METAR VABB 290530Z 25015KT 3000 HZ SCT018 FEW025TCU BKN100 28/24 Q1006 NOSIG=
202507290600 METAR VABB 290600Z 25014KT 3000 HZ SCT018 FEW025TCU BKN100 29/25 Q1006 NOSIG=
202507290630 METAR VABB 290630Z 25014KT 3000 HZ SCT018 FEW025TCU BKN100 29/25 Q1006 NOSIG=
202507290700 METAR VABB 290700Z 25017KT 3000 HZ SCT018 FEW025TCU BKN100 29/25 Q1005 NOSIG=
202507290730 METAR COR VABB 290730Z 25017KT 3000 HZ SCT018 FEW025TCU BKN100 29/24 Q1005 NOSIG=
202507290800 METAR VABB 290800Z 25018G28KT 2500 HZ SCT018 FEW025TCU BKN100 28/25 Q1005 NOSIG=
202507290830 METAR VABB 290830Z 25011G21KT 3000 HZ SCT018 FEW025TCU BKN100 29/24 Q1005 NOSIG=
202507290900 METAR VABB 290900Z 24012KT 3000 HZ SCT018 FEW025TCU BKN100 28/25 Q1004 TEMPO 1500 SHRA=
202507290930 METAR VABB 290930Z 24015KT 3000 HZ SCT018 FEW025TCU BKN100 29/25 Q1004 TEMPO 1500 SHRA=
202507291000 METAR VABB 291000Z 25008G18KT 3000 HZ SCT018 FEW025TCU BKN090 29/25 Q1004 TEMPO 1500 SHRA=
202507291030 METAR VABB 291030Z 26012KT 3000 HZ SCT018 FEW025TCU BKN090 28/24 Q1004 TEMPO 1500 SHRA=
202507291100 METAR VABB 291100Z 25013KT 3000 HZ SCT018 FEW025TCU BKN090 28/25 Q1004 NOSIG=
202507291130 METAR VABB 291130Z 25015KT 3000 HZ SCT018 FEW025TCU BKN090 28/25 Q1004 NOSIG=
202507291200 METAR VABB 291200Z 25015G26KT 3000 HZ SCT018 FEW025TCU BKN090 28/24 Q1004 TEMPO 1500 TSRA=
202507291230 METAR VABB 291230Z 25013KT 3000 HZ SCT018 FEW025TCU BKN090 28/25 Q1004 NOSIG=
202507291300 METAR VABB 291300Z 25012KT 3000 HZ SCT018 FEW025TCU BKN090 28/25 Q1004 TEMPO 1500 SHRA=
202507291330 METAR VABB 291330Z 25015KT 3000 DZ SCT018 FEW025TCU BKN090 28/24 Q1004 TEMPO 1500 SHRA=
202507291400 METAR VABB 291400Z 25011KT 3000 BR SCT018 FEW025TCU BKN090 28/25 Q1005 NOSIG=
202507291430 METAR VABB 291430Z 25010KT 3000 BR SCT018 FEW025TCU BKN090 28/25 Q1005 NOSIG=
202507291500 METAR VABB 291500Z 25013KT 3000 BR SCT018 FEW025TCU BKN090 28/25 Q1005 NOSIG=
202507291530 METAR VABB 291530Z 25012KT 3000 BR SCT018 FEW025TCU BKN090 28/25 Q1005 NOSIG=
202507291600 METAR VABB 291600Z 25012KT 3000 BR SCT018 FEW025TCU BKN090 28/25 Q1005 NOSIG=
202507291630 METAR VABB 291630Z 23011KT 3000 BR SCT018 FEW025TCU BKN090 28/25 Q1005 NOSIG=
202507291700 METAR VABB 291700Z 25011KT 3000 BR SCT018 FEW025TCU BKN090 28/25 Q1005 NOSIG=
202507291730 METAR VABB 291730Z 24010KT 3000 BR SCT018 FEW025TCU BKN090 28/25 Q1005 NOSIG=
202507291800 METAR VABB 291800Z 24012KT 3000 BR SCT018 FEW025TCU BKN090 28/25 Q1005 NOSIG=
202507291830 METAR VABB 291830Z 25014KT 3000 -RA SCT018 FEW025TCU BKN090 27/25 Q1005 NOSIG=
202507291900 METAR VABB 291900Z 25010KT 3000 BR SCT018 FEW025TCU BKN090 28/25 Q1005 NOSIG=
202507291930 METAR VABB 291930Z 24014KT 3000 BR SCT018 FEW025TCU BKN090 27/25 Q1004 NOSIG=
202507292000 METAR VABB 292000Z 24012KT 3000 -RA SCT018 FEW025TCU BKN090 28/25 Q1004 NOSIG=
202507292030 METAR VABB 292030Z 24011KT 3000 BR SCT018 FEW025TCU BKN090 27/25 Q1004 NOSIG=
202507292100 METAR VABB 292100Z 23009KT 3000 -RA SCT018 FEW025TCU BKN090 27/25 Q1004 NOSIG=
202507292130 METAR VABB 292130Z 24009KT 3000 -RA SCT018 FEW025TCU BKN090 27/26 Q1004 NOSIG=
202507292200 METAR VABB 292200Z 24010KT 3000 -RA SCT018 FEW025TCU BKN090 27/25 Q1003 TEMPO 1500 SHRA=
202507292230 METAR VABB 292230Z 23010KT 3000 -RA SCT018 FEW025TCU BKN090 27/25 Q1003 NOSIG=
202507292300 METAR VABB 292300Z 25011KT 3000 BR SCT018 FEW025TCU BKN090 27/25 Q1003 NOSIG=
202507292330 METAR VABB 292330Z 24011KT 2100 -RA FEW012 SCT018 FEW025TCU BKN090 26/25 Q1003 NOSIG=
202507300000 METAR VABB 300000Z 25012KT 2500 BR FEW012 SCT018 FEW025TCU BKN090 27/25 Q1003 NOSIG=
202507300030 METAR VABB 300030Z 25010KT 2500 BR FEW012 SCT018 FEW025TCU BKN090 27/25 Q1004 NOSIG=
202507300100 METAR VABB 300100Z 25010KT 2500 BR SCT018 FEW025TCU BKN090 27/25 Q1004 NOSIG=
202507300130 METAR VABB 300130Z 25009KT 2500 BR FEW012 SCT018 FEW025TCU BKN090 27/25 Q1004 NOSIG=
202507300200 METAR VABB 300200Z 25011KT 2500 BR FEW012 SCT018 FEW025TCU BKN090 27/25 Q1004 NOSIG=
202507300230 METAR VABB 300230Z 24009KT 2500 BR SCT018 FEW025TCU BKN090 28/25 Q1005 NOSIG=
202507300300 METAR VABB 300300Z 25009G19KT 2500 VCSH SCT012 SCT018 FEW025TCU BKN090 28/25 Q1005 TEMPO 1500 SHRA=
202507300330 METAR VABB 300330Z 24010KT 2500 -DZ FEW012 SCT018 FEW025TCU OVC090 27/25 Q1005 TEMPO 1500 SHRA=
202507300400 METAR VABB 300400Z 24010KT 2500 -DZ FEW012 SCT018 FEW025TCU OVC090 28/26 Q1005 TEMPO 1500 SHRA=
202507300430 METAR VABB 300430Z 24013KT 2500 BR FEW012 SCT018 FEW025TCU OVC090 28/25 Q1005 NOSIG=
202507300500 METAR VABB 300500Z 24010KT 2500 BR SCT018 FEW025TCU OVC090 29/26 Q1005 NOSIG=
202507300530 METAR VABB 300530Z 24012KT 2500 BR SCT018 FEW025TCU OVC090 29/26 Q1005 TEMPO 1500 SHRA=
202507300600 METAR VABB 300600Z 24012KT 2500 BR SCT018 FEW025TCU OVC090 28/26 Q1005 NOSIG=
202507300630 METAR VABB 300630Z 23010KT 2500 -DZ SCT018 FEW025TCU OVC090 28/25 Q1005 TEMPO 1500 SHRA=
202507300700 METAR VABB 300700Z 25010G21KT 2500 BR SCT018 FEW025TCU OVC090 28/26 Q1005 NOSIG=
202507300730 METAR VABB 300730Z 23010G20KT 2500 BR SCT018 FEW025TCU OVC090 28/25 Q1005 NOSIG=
202507300800 METAR VABB 300800Z 23011KT 2500 BR SCT018 FEW025TCU BKN090 28/26 Q1004 NOSIG=
202507300830 METAR VABB 300830Z 23013G24KT 2500 VCSH SCT018 FEW025TCU BKN090 28/25 Q1004 TEMPO 1500 SHRA=
202507300900 METAR VABB 300900Z 23009KT 2500 -RA FEW012 SCT018 FEW025TCU BKN090 28/25 Q1004 TEMPO 1500 SHRA=
202507300930 METAR VABB 300930Z 25010KT 2500 BR FEW012 SCT018 FEW025TCU BKN090 28/25 Q1004 NOSIG=
202507301000 METAR VABB 301000Z 24015KT 2100 VCSH FEW012 SCT018 FEW025TCU BKN090 28/25 Q1004 TEMPO 1500 SHRA=
202507301030 METAR VABB 301030Z 23013KT 2100 BR FEW012 SCT018 FEW025TCU BKN090 28/25 Q1004 TEMPO 1500 SHRA=
202507301100 METAR VABB 301100Z 24011KT 2500 BR FEW012 SCT018 FEW025TCU BKN090 28/25 Q1004 TEMPO 1500 SHRA=
202507301130 METAR VABB 301130Z 23010KT 2500 BR FEW012 SCT018 FEW025TCU BKN090 27/25 Q1004 TEMPO 1500 SHRA=
202507301200 METAR VABB 301200Z 23012KT 2500 BR FEW012 SCT018 FEW025TCU BKN090 28/25 Q1004 TEMPO 1500 SHRA=
202507301230 METAR VABB 301230Z 22010G20KT 2500 BR SCT018 FEW025TCU BKN090 28/25 Q1004 NOSIG=
202507301300 METAR VABB 301300Z 23011KT 2500 BR SCT018 FEW025TCU BKN090 28/25 Q1004 NOSIG=
202507301330 METAR VABB 301330Z 23012KT 2500 BR SCT018 FEW025TCU BKN090 28/25 Q1004 NOSIG=
202507301400 METAR VABB 301400Z 23008KT 2500 BR SCT018 FEW025TCU BKN090 28/25 Q1004 NOSIG=
202507301430 METAR VABB 301430Z 23011KT 2500 BR SCT018 FEW025TCU BKN090 28/25 Q1005 NOSIG=
202507301500 METAR VABB 301500Z 24010KT 2500 BR SCT018 FEW025TCU BKN090 27/25 Q1005 NOSIG=
202507301530 METAR VABB 301530Z 23010KT 2500 BR SCT018 FEW025TCU BKN090 27/25 Q1005 NOSIG=
202507301600 METAR VABB 301600Z 23010KT 2500 BR SCT018 FEW025TCU BKN090 28/25 Q1005 NOSIG=
202507301630 METAR VABB 301630Z 23010G20KT 2500 BR SCT018 SCT025 BKN090 28/25 Q1005 NOSIG=
202507301700 METAR VABB 301700Z 24010KT 2500 BR SCT018 SCT025 BKN090 28/25 Q1005 NOSIG=
202507301730 METAR VABB 301730Z 23010KT 3000 BR SCT018 SCT025 BKN100 28/25 Q1005 NOSIG=
202507301800 METAR VABB 301800Z 23010G20KT 3000 BR SCT018 SCT025 BKN100 28/25 Q1005 NOSIG=
202507301830 METAR VABB 301830Z 22011G21KT 3000 BR SCT018 SCT025 BKN100 28/25 Q1005 NOSIG=
202507301900 METAR VABB 301900Z 23012G22KT 3000 BR SCT018 SCT025 BKN100 28/25 Q1005 NOSIG=
202507301930 METAR VABB 301930Z 23012KT 3000 BR SCT018 SCT025 BKN100 28/25 Q1004 NOSIG=
202507302000 METAR VABB 302000Z 22012G22KT 3000 BR SCT018 SCT025 BKN100 28/25 Q1004 NOSIG=
202507302030 METAR VABB 302030Z 22011G21KT 3000 BR SCT018 SCT025 BKN100 28/25 Q1004 NOSIG=
202507302100 METAR VABB 302100Z 22020G30KT 2100 SHRA FEW012 SCT018 FEW025TCU OVC090 27/25 Q1004 TEMPO 1500 SHRA=
202507302130 METAR VABB 302130Z 23010KT 2500 BR SCT018 FEW025TCU OVC090 26/25 Q1003 TEMPO 1500 SHRA=
202507302200 METAR VABB 302200Z 22011KT 2500 BR SCT018 FEW025TCU OVC090 27/25 Q1003 NOSIG=
202507302230 METAR VABB 302230Z 24011KT 2500 -SHRA SCT018 FEW025TCU OVC090 27/25 Q1003 NOSIG=
202507302300 METAR VABB 302300Z 23013KT 2500 BR SCT018 FEW025TCU OVC090 27/25 Q1004 NOSIG=
202507302330 METAR VABB 302330Z 24012KT 2500 BR SCT018 FEW025TCU OVC090 27/25 Q1004 NOSIG=
202507310000 METAR VABB 310000Z 24013KT 2500 BR SCT018 FEW025TCU OVC090 27/24 Q1004 NOSIG=
202507310030 METAR VABB 310030Z 23013KT 2500 BR SCT018 FEW025TCU OVC090 27/25 Q1004 NOSIG=
202507310100 METAR VABB 310100Z 24010KT 2500 BR SCT018 FEW025TCU OVC090 28/25 Q1004 NOSIG=
202507310130 METAR VABB 310130Z 24011G22KT 2500 BR SCT018 FEW025TCU OVC090 28/25 Q1005 NOSIG=
202507310200 METAR VABB 310200Z 24012KT 2500 BR SCT018 FEW025TCU OVC090 28/25 Q1005 NOSIG=
202507310230 METAR VABB 310230Z 23012KT 2500 BR SCT018 FEW025TCU OVC090 28/25 Q1005 NOSIG=
202507310300 METAR VABB 310300Z 24011KT 2500 BR SCT018 FEW025TCU OVC090 28/25 Q1006 NOSIG=
202507310330 METAR VABB 310330Z 24011KT 2500 BR FEW018 SCT025 BKN090 28/25 Q1006 NOSIG=
202507310400 METAR VABB 310400Z 24012KT 2500 BR FEW018 SCT025 BKN090 29/25 Q1006 NOSIG=
202507310430 METAR VABB 310430Z 25012KT 2500 BR FEW018 SCT025 BKN090 29/25 Q1006 NOSIG=
202507310500 METAR VABB 310500Z 25013KT 2500 BR FEW018 SCT025 BKN090 29/26 Q1006 BECMG 3000 BR=
202507310530 METAR VABB 310530Z 24013KT 3000 BR FEW018 SCT025 BKN090 29/25 Q1006 NOSIG=
202507310600 METAR VABB 310600Z 24015G25KT 3000 BR FEW018 SCT025 BKN090 30/25 Q1006 NOSIG=
202507310630 METAR VABB 310630Z 25014G24KT 3000 BR FEW018 SCT025 BKN090 29/26 Q1005 NOSIG=
202507310700 METAR VABB 310700Z 24014G24KT 3000 BR FEW018 SCT025 BKN090 30/25 Q1005 NOSIG=
202507310730 METAR VABB 310730Z 24014G24KT 3000 BR FEW018 SCT025 BKN090 30/25 Q1005 NOSIG=
202507310800 METAR VABB 310800Z 24013KT 3000 BR FEW018 SCT025 BKN090 30/25 Q1005 NOSIG=
202507310830 METAR VABB 310830Z 23010G20KT 3000 BR FEW018 SCT025 BKN090 30/25 Q1005 NOSIG=
202507310900 METAR VABB 310900Z 24014KT 3000 BR FEW018 SCT025 BKN090 30/25 Q1005 NOSIG=
202507310930 METAR VABB 310930Z 24011KT 3000 BR FEW018 FEW025TCU BKN090 29/25 Q1005 TEMPO 1500 SHRA=
202507311000 METAR VABB 311000Z 24010KT 3000 BR FEW018 FEW025TCU BKN090 29/25 Q1004 TEMPO 1500 SHRA=
202507311030 METAR VABB 311030Z 24014KT 3000 BR FEW018 FEW025TCU BKN090 29/25 Q1004 TEMPO 1500 SHRA=
202507311100 METAR VABB 311100Z 24010KT 3000 BR FEW018 FEW025TCU BKN090 29/26 Q1004 NOSIG=
202507311130 METAR VABB 311130Z 24015KT 3000 BR FEW018 SCT025 BKN090 29/25 Q1004 NOSIG=
202507311200 METAR VABB 311200Z 24011KT 3000 BR FEW018 SCT025 BKN100 29/25 Q1004 NOSIG=
202507311230 METAR VABB 311230Z 24013KT 3000 BR FEW018 SCT025 BKN100 29/25 Q1004 NOSIG=
202507311300 METAR VABB 311300Z 24013KT 3000 BR FEW018 SCT025 BKN100 29/25 Q1005 NOSIG=
202507311330 METAR VABB 311330Z 24010KT 3000 BR FEW018 SCT025 BKN100 28/25 Q1005 NOSIG=
202507311400 METAR VABB 311400Z 23011KT 3000 BR FEW018 SCT025 BKN100 28/25 Q1005 NOSIG=
202507311430 METAR VABB 311430Z 23010KT 3000 BR FEW018 SCT025 BKN100 28/25 Q1005 NOSIG=
202507311500 METAR VABB 311500Z 23009KT 3000 BR FEW018 SCT025 BKN100 28/25 Q1005 NOSIG=
202507311530 METAR VABB 311530Z 24010G20KT 3000 BR FEW018 SCT025 BKN100 28/25 Q1006 NOSIG=
202507311600 METAR VABB 311600Z 23011G21KT 3000 BR SCT018 SCT025 BKN100 28/25 Q1006 NOSIG=
202507311630 METAR VABB 311630Z 23011G21KT 3000 BR SCT018 SCT025 BKN100 28/25 Q1006 NOSIG=
202507311700 METAR VABB 311700Z 23010KT 3000 BR SCT018 SCT025 BKN100 28/25 Q1006 NOSIG=
202507311730 METAR VABB 311730Z 24011KT 3000 BR SCT018 SCT025 BKN100 28/25 Q1006 NOSIG=
202507311800 METAR VABB 311800Z 23010KT 3000 BR SCT018 SCT025 BKN100 28/25 Q1007 NOSIG=
202507311830 METAR VABB 311830Z 23009KT 3000 BR SCT018 SCT025 BKN100 28/25 Q1006 NOSIG=
202507311900 METAR VABB 311900Z 24010KT 3000 BR SCT018 SCT025 BKN100 28/25 Q1006 NOSIG=
202507311930 METAR VABB 311930Z 24011KT 3000 BR SCT018 SCT025 BKN100 28/25 Q1006 NOSIG=
202507312000 METAR VABB 312000Z 23010KT 3000 BR SCT018 SCT025 BKN100 28/25 Q1006 NOSIG=
202507312030 METAR VABB 312030Z 23011KT 3000 BR SCT018 SCT025 BKN100 28/25 Q1005 NOSIG=
202507312100 METAR VABB 312100Z 24011G21KT 3000 BR SCT018 SCT025 BKN100 28/24 Q1005 NOSIG=
202507312130 METAR VABB 312130Z 23011KT 3000 BR SCT018 SCT025 BKN100 27/25 Q1005 NOSIG=
202507312200 METAR VABB 312200Z 23012KT 3000 BR SCT018 SCT025 BKN100 28/25 Q1004 NOSIG=
202507312230 METAR VABB 312230Z 24012KT 3000 BR SCT018 SCT025 BKN100 28/25 Q1004 NOSIG=
202507312300 METAR VABB 312300Z 24010KT 3000 BR SCT018 SCT025 BKN100 28/25 Q1004 NOSIG=
202507312330 METAR VABB 312330Z 24010KT 3000 BR SCT018 SCT025 BKN100 28/25 Q1004 NOSIG=
